[{"universe": {"house_number": "1515", "house_number_suffix": "", "street_name": "pine creek road", "unit_num": "RD", "city": null, "state": null, "zip_code": "15090"}, "match": {"house_number": "1515", "house_number_suffix": "", "street_name": "pine creek road", "unit_num": "", "city": null, "state": null, "zip_code": "15090"}, "unit_num": ""}, {"universe": {"house_number": "1047", "house_number_suffix": "", "street_name": "masonic drive", "unit_num": "", "city": null, "state": null, "zip_code": "15143"}, "match": "DNE", "unit_num": ""}, {"universe": {"house_number": "1023", "house_number_suffix": "", "street_name": "masonic drive", "unit_num": "", "city": null, "state": null, "zip_code": "15143"}, "match": "DNE", "unit_num": ""}, {"universe": {"house_number": "256", "house_number_suffix": "", "street_name": "bank street", "unit_num": "REAR", "city": null, "state": null, "zip_code": "15143"}, "match": {"house_number": "256", "house_number_suffix": "", "street_name": "bank street", "unit_num": "", "city": null, "state": null, "zip_code": "15143"}, "unit_num": "REAR"}, {"universe": {"house_number": "15", "house_number_suffix": "", "street_name": "little sewickley creek road", "unit_num": "RD", "city": null, "state": null, "zip_code": "15143"}, "match": {"house_number": "15", "house_number_suffix": "", "street_name": "little sewickley creek road", "unit_num": "", "city": null, "state": null, "zip_code": "15143"}, "unit_num": ""}, {"universe": {"house_number": "1104", "house_number_suffix": "", "street_name": "big sewickley creek road", "unit_num": "", "city": null, "state": null, "zip_code": "15143"}, "match": {}, "unit_num": ""}, {"universe": {"house_number": "136", "house_number_suffix": "", "street_name": "beaver st e street", "unit_num": "", "city": null, "state": null, "zip_code": "15143"}, "match": {"house_number": "136", "house_number_suffix": "", "street_name": "e beaver street", "unit_num": "", "city": null, "state": null, "zip_code": "15143"}, "unit_num": ""}, {"universe": {"house_number": "810", "house_number_suffix": "", "street_name": "sewickley heights drive", "unit_num": "DR", "city": null, "state": null, "zip_code": "15143"}, "match": {"house_number": "810", "house_number_suffix": "", "street_name": "sewickley heights drive", "unit_num": "", "city": null, "state": null, "zip_code": "15143"}, "unit_num": ""}, {"universe": {"house_number": "1708", "house_number_suffix": "", "street_name": "hawthorn ct s court", "unit_num": "", "city": null, "state": null, "zip_code": "15237"}, "match": {"house_number": "1708", "house_number_suffix": "", "street_name": "s hawthorn court", "unit_num": "", "city": null, "state": null, "zip_code": "15237"}, "unit_num": ""}, {"universe": {"house_number": "1000", "house_number_suffix": "", "street_name": "masonic drive", "unit_num": "2106", "city": null, "state": null, "zip_code": "15143"}, "match": {"house_number": "1000", "house_number_suffix": "", "street_name": "masonic drive", "unit_num": "", "city": null, "state": null, "zip_code": "15143"}, "unit_num": "2106"}, {"universe": {"house_number": "1064", "house_number_suffix": "", "street_name": "masonic drive", "unit_num": "", "city": null, "state": null, "zip_code": "15143"}, "match": "DNE", "unit_num": ""}, {"universe": {"house_number": "1000", "house_number_suffix": "", "street_name": "masonic drive", "unit_num": "2", "city": null, "state": null, "zip_code": "15143"}, "match": {"house_number": "1000", "house_number_suffix": "", "street_name": "masonic drive", "unit_num": "", "city": null, "state": null, "zip_code": "15143"}, "unit_num": "2"}, {"universe": {"house_number": "510", "house_number_suffix": "", "street_name": "ingleside avenue", "unit_num": "", "city": null, "state": null, "zip_code": "15143"}, "match": "DNE", "unit_num": ""}, {"universe": {"house_number": "1561", "house_number_suffix": "", "street_name": "ingomar rd w road", "unit_num": "", "city": null, "state": null, "zip_code": "15237"}, "match": {"house_number": "1561", "house_number_suffix": "", "street_name": "w ingomar road", "unit_num": "", "city": null, "state": null, "zip_code": "15237"}, "unit_num": ""}, {"universe": {"house_number": "1561", "house_number_suffix": "", "street_name": "ingomar rd w road", "unit_num": "", "city": null, "state": null, "zip_code": "15237"}, "match": {"house_number": "1561", "house_number_suffix": "", "street_name": "w ingomar road", "unit_num": "", "city": null, "state": null, "zip_code": "15237"}, "unit_num": ""}, {"universe": {"house_number": "2550", "house_number_suffix": "A", "street_name": "pheasant run", "unit_num": "A", "city": null, "state": null, "zip_code": "15090"}, "match": {"house_number": "2550", "house_number_suffix": "A", "street_name": "pheasant run", "unit_num": "", "city": null, "state": null, "zip_code": "15090"}, "unit_num": "A"}, {"universe": {"house_number": "511", "house_number_suffix": "", "street_name": "centennial avenue", "unit_num": "K", "city": null, "state": null, "zip_code": "15143"}, "match": {"house_number": "511", "house_number_suffix": "", "street_name": "centennial avenue", "unit_num": "", "city": null, "state": null, "zip_code": "15143"}, "unit_num": "K"}, {"universe": {"house_number": "2245", "house_number_suffix": "", "street_name": "little sewickley creek road", "unit_num": "RD", "city": null, "state": null, "zip_code": "15143"}, "match": {"house_number": "2245", "house_number_suffix": "", "street_name": "little sewickley creek road", "unit_num": "", "city": null, "state": null, "zip_code": "15143"}, "unit_num": ""}, {"universe": {"house_number": "1000", "house_number_suffix": "", "street_name": "masonic drive", "unit_num": "2225", "city": null, "state": null, "zip_code": "15143"}, "match": {"house_number": "1000", "house_number_suffix": "", "street_name": "masonic drive", "unit_num": "", "city": null, "state": null, "zip_code": "15143"}, "unit_num": "2225"}, {"universe": {"house_number": "145", "house_number_suffix": "", "street_name": "beech ridge drive", "unit_num": "DR", "city": null, "state": null, "zip_code": "15143"}, "match": {"house_number": "145", "house_number_suffix": "", "street_name": "beech ridge drive", "unit_num": "", "city": null, "state": null, "zip_code": "15143"}, "unit_num": ""}, {"universe": {"house_number": "625", "house_number_suffix": "", "street_name": "maple lane", "unit_num": "3", "city": null, "state": null, "zip_code": "15143"}, "match": {"house_number": "625", "house_number_suffix": "", "street_name": "maple lane", "unit_num": "", "city": null, "state": null, "zip_code": "15143"}, "unit_num": "3"}, {"universe": {"house_number": "1854", "house_number_suffix": "", "street_name": "glen mitchell road", "unit_num": "RD", "city": null, "state": null, "zip_code": "15143"}, "match": {"house_number": "1854", "house_number_suffix": "", "street_name": "glen mitchell road", "unit_num": "", "city": null, "state": null, "zip_code": "15143"}, "unit_num": ""}, {"universe": {"house_number": "2251", "house_number_suffix": "", "street_name": "masonic drive", "unit_num": "2251  BLG", "city": null, "state": null, "zip_code": "15143"}, "match": {"house_number": "2251", "house_number_suffix": "", "street_name": "masonic drive", "unit_num": "", "city": null, "state": null, "zip_code": "15143"}, "unit_num": ""}, {"universe": {"house_number": "2", "house_number_suffix": "", "street_name": "thawmont road", "unit_num": "", "city": null, "state": null, "zip_code": "15143"}, "match": {"house_number": "2", "house_number_suffix": "", "street_name": "thawmont drive", "unit_num": "", "city": null, "state": null, "zip_code": "15143"}, "unit_num": ""}, {"universe": {"house_number": "2", "house_number_suffix": "", "street_name": "thawmont road", "unit_num": "", "city": null, "state": null, "zip_code": "15143"}, "match": {"house_number": "2", "house_number_suffix": "", "street_name": "thawmont drive", "unit_num": "", "city": null, "state": null, "zip_code": "15143"}, "unit_num": ""}, {"universe": {"house_number": "1524", "house_number_suffix": "", "street_name": "robertson road", "unit_num": "", "city": null, "state": null, "zip_code": "15237"}, "match": {"house_number": "1524", "house_number_suffix": "", "street_name": "robertson drive", "unit_num": "", "city": null, "state": null, "zip_code": "15237"}, "unit_num": ""}, {"universe": {"house_number": "618", "house_number_suffix": "", "street_name": "locust place", "unit_num": "2", "city": null, "state": null, "zip_code": "15143"}, "match": {"house_number": "618", "house_number_suffix": "", "street_name": "locust place", "unit_num": "", "city": null, "state": null, "zip_code": "15143"}, "unit_num": "2"}, {"universe": {"house_number": "702", "house_number_suffix": "", "street_name": "sycamore rd extension", "unit_num": "", "city": null, "state": null, "zip_code": "15143"}, "match": {"house_number": "702", "house_number_suffix": "", "street_name": "sycamore road", "unit_num": "", "city": null, "state": null, "zip_code": "15143"}, "unit_num": ""}, {"universe": {"house_number": "2341", "house_number_suffix": "", "street_name": "masonic drive", "unit_num": "1", "city": null, "state": null, "zip_code": "15143"}, "match": {"house_number": "2341", "house_number_suffix": "", "street_name": "masonic drive", "unit_num": "", "city": null, "state": null, "zip_code": "15143"}, "unit_num": "1"}, {"universe": {"house_number": "2603", "house_number_suffix": "", "street_name": "hunters point ct s court", "unit_num": "", "city": null, "state": null, "zip_code": "15090"}, "match": {"house_number": "2603", "house_number_suffix": "", "street_name": "hunters point court", "unit_num": "", "city": null, "state": null, "zip_code": "15090"}, "unit_num": ""}, {"universe": {"house_number": "204", "house_number_suffix": "", "street_name": "new england place", "unit_num": "PL", "city": null, "state": null, "zip_code": "15143"}, "match": {"house_number": "204", "house_number_suffix": "", "street_name": "new england place", "unit_num": "", "city": null, "state": null, "zip_code": "15143"}, "unit_num": ""}, {"universe": {"house_number": "2469", "house_number_suffix": "", "street_name": "brandt school road", "unit_num": "RD", "city": null, "state": null, "zip_code": "15090"}, "match": {"house_number": "2469", "house_number_suffix": "", "street_name": "brandt school road", "unit_num": "", "city": null, "state": null, "zip_code": "15090"}, "unit_num": ""}, {"universe": {"house_number": "213", "house_number_suffix": "", "street_name": "dawson street", "unit_num": "", "city": null, "state": null, "zip_code": "15143"}, "match": {"house_number": "213", "house_number_suffix": "", "street_name": "dawson avenue", "unit_num": "", "city": null, "state": null, "zip_code": "15143"}, "unit_num": ""}, {"universe": {"house_number": "213", "house_number_suffix": "", "street_name": "dawson street", "unit_num": "", "city": null, "state": null, "zip_code": "15143"}, "match": {"house_number": "213", "house_number_suffix": "", "street_name": "dawson avenue", "unit_num": "", "city": null, "state": null, "zip_code": "15143"}, "unit_num": ""}, {"universe": {"house_number": "1520", "house_number_suffix": "", "street_name": "ingomar rd w road", "unit_num": "", "city": null, "state": null, "zip_code": "15237"}, "match": {"house_number": "1520", "house_number_suffix": "", "street_name": "w ingomar road", "unit_num": "", "city": null, "state": null, "zip_code": "15237"}, "unit_num": ""}, {"universe": {"house_number": "2511", "house_number_suffix": "", "street_name": "fairmont church drive", "unit_num": "", "city": null, "state": null, "zip_code": "15143"}, "match": {"house_number": "2511", "house_number_suffix": "", "street_name": "fairmount church road", "unit_num": "", "city": null, "state": null, "zip_code": "15143"}, "unit_num": ""}, {"universe": {"house_number": "410", "house_number_suffix": "", "street_name": "stone alley", "unit_num": "", "city": null, "state": null, "zip_code": "15003"}, "match": {}}, {"universe": {"house_number": "1609", "house_number_suffix": "", "street_name": "st andrews court", "unit_num": "CT", "city": null, "state": null, "zip_code": "15237"}, "match": {"house_number": "1609", "house_number_suffix": "", "street_name": "saint andrews court", "unit_num": "", "city": null, "state": null, "zip_code": "15237"}, "unit_num": ""}, {"universe": {"house_number": "221", "house_number_suffix": "", "street_name": "chestnut street", "unit_num": "B", "city": null, "state": null, "zip_code": "15143"}, "match": {"house_number": "221", "house_number_suffix": "", "street_name": "chestnut street", "unit_num": "", "city": null, "state": null, "zip_code": "15143"}, "unit_num": "B"}, {"universe": {"house_number": "3005", "house_number_suffix": "", "street_name": "scottish rite lane", "unit_num": "LN", "city": null, "state": null, "zip_code": "15143"}, "match": {"house_number": "3005", "house_number_suffix": "", "street_name": "scottish rite lane", "unit_num": "", "city": null, "state": null, "zip_code": "15143"}, "unit_num": ""}, {"universe": {"house_number": "2433", "house_number_suffix": "", "street_name": "magee road", "unit_num": "", "city": null, "state": null, "zip_code": "15143"}, "match": {"house_number": "2433", "house_number_suffix": "", "street_name": "magee road extension", "unit_num": "", "city": null, "state": null, "zip_code": "15143"}, "unit_num": ""}, {"universe": {"house_number": "2358", "house_number_suffix": "", "street_name": "magee road", "unit_num": "", "city": null, "state": null, "zip_code": "15143"}, "match": {"house_number": "2358", "house_number_suffix": "", "street_name": "magee road extension", "unit_num": "", "city": null, "state": null, "zip_code": "15143"}, "unit_num": ""}, {"universe": {"house_number": "607", "house_number_suffix": "", "street_name": "sewickley heights drive", "unit_num": "DR", "city": null, "state": null, "zip_code": "15143"}, "match": {"house_number": "607", "house_number_suffix": "", "street_name": "sewickley heights drive", "unit_num": "", "city": null, "state": null, "zip_code": "15143"}, "unit_num": ""}, {"universe": {"house_number": "1600", "house_number_suffix": "", "street_name": "georgetowne drive", "unit_num": "GN103", "city": null, "state": null, "zip_code": "15143"}, "match": {"house_number": "1600", "house_number_suffix": "", "street_name": "georgetown drive", "unit_num": "", "city": null, "state": null, "zip_code": "15143"}, "unit_num": "GN103"}, {"universe": {"house_number": "2591", "house_number_suffix": "", "street_name": "hunters point ct s court", "unit_num": "", "city": null, "state": null, "zip_code": "15090"}, "match": {"house_number": "2591", "house_number_suffix": "", "street_name": "hunters point court", "unit_num": "", "city": null, "state": null, "zip_code": "15090"}, "unit_num": ""}, {"universe": {"house_number": "2577", "house_number_suffix": "", "street_name": "hunters point ct s court", "unit_num": "", "city": null, "state": null, "zip_code": "15090"}, "match": {"house_number": "2577", "house_number_suffix": "", "street_name": "hunters point court", "unit_num": "", "city": null, "state": null, "zip_code": "15090"}, "unit_num": ""}, {"universe": {"house_number": "330", "house_number_suffix": "", "street_name": "thorn street", "unit_num": "2ND", "city": null, "state": null, "zip_code": "15143"}, "match": {"house_number": "330", "house_number_suffix": "", "street_name": "thorn street", "unit_num": "", "city": null, "state": null, "zip_code": "15143"}, "unit_num": "2ND"}, {"universe": {"house_number": "1600", "house_number_suffix": "", "street_name": "georgetowne drive", "unit_num": "E207", "city": null, "state": null, "zip_code": "15143"}, "match": {"house_number": "1600", "house_number_suffix": "", "street_name": "georgetown drive", "unit_num": "", "city": null, "state": null, "zip_code": "15143"}, "unit_num": "E207"}, {"universe": {"house_number": "132", "house_number_suffix": "", "street_name": "beaver st e street", "unit_num": "", "city": null, "state": null, "zip_code": "15143"}, "match": {"house_number": "132", "house_number_suffix": "", "street_name": "e beaver street", "unit_num": "", "city": null, "state": null, "zip_code": "15143"}, "unit_num": ""}, {"universe": {"house_number": "88", "house_number_suffix": "", "street_name": "main street", "unit_num": "3", "city": null, "state": null, "zip_code": "15003"}, "match": {"house_number": "88", "house_number_suffix": "", "street_name": "main street", "unit_num": "", "city": null, "state": null, "zip_code": "15003"}, "unit_num": "3"}, {"universe": {"house_number": "104", "house_number_suffix": "", "street_name": "backbone road", "unit_num": "381", "city": null, "state": null, "zip_code": "15143"}, "match": {"house_number": "104", "house_number_suffix": "", "street_name": "backbone road", "unit_num": "", "city": null, "state": null, "zip_code": "15143"}, "unit_num": "381"}, {"universe": {"house_number": "2111", "house_number_suffix": "", "street_name": "huntington ct s court", "unit_num": "", "city": null, "state": null, "zip_code": "15090"}, "match": {"house_number": "2111", "house_number_suffix": "", "street_name": "huntington court", "unit_num": "", "city": null, "state": null, "zip_code": "15090"}, "unit_num": ""}, {"universe": {"house_number": "1042", "house_number_suffix": "", "street_name": "masonic drive", "unit_num": "", "city": null, "state": null, "zip_code": "15143"}, "match": "DNE"}, {"universe": {"house_number": "2168", "house_number_suffix": "A", "street_name": "reis run road", "unit_num": "", "city": null, "state": null, "zip_code": "15237"}, "match": {"house_number": "2168", "house_number_suffix": "", "street_name": "reis run road", "unit_num": "", "city": null, "state": null, "zip_code": "15237"}, "unit_num": ""}, {"universe": {"house_number": "2546", "house_number_suffix": "", "street_name": "pheasant run", "unit_num": "B", "city": null, "state": null, "zip_code": "15090"}, "match": {"house_number": "2546", "house_number_suffix": "B", "street_name": "pheasant run", "unit_num": "", "city": null, "state": null, "zip_code": "15090"}, "unit_num": "B"}, {"universe": {"house_number": "1557", "house_number_suffix": "", "street_name": "ingomar rd w road", "unit_num": "", "city": null, "state": null, "zip_code": "15237"}, "match": {"house_number": "1557", "house_number_suffix": "", "street_name": "w ingomar road", "unit_num": "", "city": null, "state": null, "zip_code": "15237"}, "unit_num": ""}, {"universe": {"house_number": "1534", "house_number_suffix": "", "street_name": "robertson road", "unit_num": "", "city": null, "state": null, "zip_code": "15237"}, "match": {"house_number": "1534", "house_number_suffix": "", "street_name": "robertson drive", "unit_num": "", "city": null, "state": null, "zip_code": "15237"}, "unit_num": ""}, {"universe": {"house_number": "1417", "house_number_suffix": "", "street_name": "shevlin ct n court", "unit_num": "", "city": null, "state": null, "zip_code": "15143"}, "match": {"house_number": "1417", "house_number_suffix": "", "street_name": "north shevlin court", "unit_num": "", "city": null, "state": null, "zip_code": "15143"}, "unit_num": ""}, {"universe": {"house_number": "2234", "house_number_suffix": "", "street_name": "little sewickley creek road", "unit_num": "RD", "city": null, "state": null, "zip_code": "15143"}, "match": {"house_number": "2234", "house_number_suffix": "", "street_name": "little sewickley creek road", "unit_num": "", "city": null, "state": null, "zip_code": "15143"}, "unit_num": ""}, {"universe": {"house_number": "204", "house_number_suffix": "", "street_name": "chaucer ct s court", "unit_num": "", "city": null, "state": null, "zip_code": "15143"}, "match": {"house_number": "204", "house_number_suffix": "", "street_name": "chaucer court", "unit_num": "", "city": null, "state": null, "zip_code": "15143"}, "unit_num": ""}, {"universe": {"house_number": "2286", "house_number_suffix": "", "street_name": "sylvan road", "unit_num": "", "city": null, "state": null, "zip_code": "15237"}, "match": {"house_number": "2286", "house_number_suffix": "", "street_name": "sylvan drive", "unit_num": "", "city": null, "state": null, "zip_code": "15237"}, "unit_num": ""}, {"universe": {"house_number": "201", "house_number_suffix": "", "street_name": "chaucer ct s court", "unit_num": "", "city": null, "state": null, "zip_code": "15143"}, "match": {"house_number": "201", "house_number_suffix": "", "street_name": "chaucer court", "unit_num": "", "city": null, "state": null, "zip_code": "15143"}, "unit_num": ""}, {"universe": {"house_number": "310", "house_number_suffix": "", "street_name": "chaucer ct n court", "unit_num": "", "city": null, "state": null, "zip_code": "15143"}, "match": {"house_number": "310", "house_number_suffix": "", "street_name": "chaucer court", "unit_num": "", "city": null, "state": null, "zip_code": "15143"}, "unit_num": ""}, {"universe": {"house_number": "32", "house_number_suffix": "", "street_name": "river avenue", "unit_num": "", "city": null, "state": null, "zip_code": "15143"}, "match": "DNE"}, {"universe": {"house_number": "2673", "house_number_suffix": "", "street_name": "timberglen dr e drive", "unit_num": "", "city": null, "state": null, "zip_code": "15090"}, "match": {"house_number": "2673", "house_number_suffix": "", "street_name": "timberglen east drive", "unit_num": "", "city": null, "state": null, "zip_code": "15090"}, "unit_num": ""}, {"universe": {"house_number": "502", "house_number_suffix": "", "street_name": "rabbit hill road", "unit_num": "", "city": null, "state": null, "zip_code": "15143"}, "match": {"house_number": "502", "house_number_suffix": "", "street_name": "rabbit hill", "unit_num": "", "city": null, "state": null, "zip_code": "15143"}, "unit_num": ""}, {"universe": {"house_number": "362", "house_number_suffix": "", "street_name": "ingleside avenue", "unit_num": "", "city": null, "state": null, "zip_code": "15143"}, "match": {}}, {"universe": {"house_number": "2555", "house_number_suffix": "", "street_name": "fairmont church drive", "unit_num": "", "city": null, "state": null, "zip_code": "15143"}, "match": {"house_number": "2555", "house_number_suffix": "", "street_name": "fairmount church road", "unit_num": "", "city": null, "state": null, "zip_code": "15143"}, "unit_num": ""}, {"universe": {"house_number": "6", "house_number_suffix": "", "street_name": "thawmont road", "unit_num": "", "city": null, "state": null, "zip_code": "15143"}, "match": {"house_number": "6", "house_number_suffix": "", "street_name": "thawmont drive", "unit_num": "", "city": null, "state": null, "zip_code": "15143"}, "unit_num": ""}, {"universe": {"house_number": "316", "house_number_suffix": "", "street_name": "beaver street", "unit_num": "304", "city": null, "state": null, "zip_code": "15143"}, "match": {"house_number": "316", "house_number_suffix": "", "street_name": "beaver street", "unit_num": "", "city": null, "state": null, "zip_code": "15143"}, "unit_num": "304"}, {"universe": {"house_number": "1405", "house_number_suffix": "", "street_name": "shevlin ct n court", "unit_num": "", "city": null, "state": null, "zip_code": "15143"}, "match": {"house_number": "1405", "house_number_suffix": "", "street_name": "north shevlin court", "unit_num": "", "city": null, "state": null, "zip_code": "15143"}, "unit_num": ""}, {"universe": {"house_number": "505", "house_number_suffix": "", "street_name": "hamilton drive", "unit_num": "", "city": null, "state": null, "zip_code": "15143"}, "match": {"house_number": "505", "house_number_suffix": "", "street_name": "hamilton drive extension", "unit_num": "", "city": null, "state": null, "zip_code": "15143"}, "unit_num": ""}, {"universe": {"house_number": "2663", "house_number_suffix": "", "street_name": "timberglen dr e drive", "unit_num": "", "city": null, "state": null, "zip_code": "15090"}, "match": {"house_number": "2663", "house_number_suffix": "", "street_name": "timberglen east drive", "unit_num": "", "city": null, "state": null, "zip_code": "15090"}, "unit_num": ""}, {"universe": {"house_number": "2249", "house_number_suffix": "", "street_name": "reis run road", "unit_num": "RD", "city": null, "state": null, "zip_code": "15237"}, "match": {"house_number": "2249", "house_number_suffix": "", "street_name": "reis run road", "unit_num": "", "city": null, "state": null, "zip_code": "15237"}, "unit_num": ""}, {"universe": {"house_number": "159", "house_number_suffix": "", "street_name": "dawson street", "unit_num": "", "city": null, "state": null, "zip_code": "15143"}, "match": {"house_number": "159", "house_number_suffix": "", "street_name": "dawson avenue", "unit_num": "", "city": null, "state": null, "zip_code": "15143"}, "unit_num": ""}, {"universe": {"house_number": "2292", "house_number_suffix": "", "street_name": "sylvan road", "unit_num": "", "city": null, "state": null, "zip_code": "15237"}, "match": {"house_number": "2292", "house_number_suffix": "", "street_name": "sylvan drive", "unit_num": "", "city": null, "state": null, "zip_code": "15237"}, "unit_num": ""}, {"universe": {"house_number": "1640", "house_number_suffix": "", "street_name": "royal oak drive", "unit_num": "DR", "city": null, "state": null, "zip_code": "15143"}, "match": {"house_number": "1640", "house_number_suffix": "", "street_name": "royal oak drive", "unit_num": "", "city": null, "state": null, "zip_code": "15143"}, "unit_num": ""}, {"universe": {"house_number": "1506", "house_number_suffix": "", "street_name": "fox chase drive", "unit_num": "DR", "city": null, "state": null, "zip_code": "15143"}, "match": {"house_number": "1506", "house_number_suffix": "", "street_name": "fox chase drive", "unit_num": "", "city": null, "state": null, "zip_code": "15143"}, "unit_num": ""}, {"universe": {"house_number": "5", "house_number_suffix": "", "street_name": "barberry road", "unit_num": "", "city": null, "state": null, "zip_code": "15143"}, "match": "DNE"}, {"universe": {"house_number": "247", "house_number_suffix": "", "street_name": "dawson street", "unit_num": "", "city": null, "state": null, "zip_code": "15143"}, "match": {"house_number": "247", "house_number_suffix": "", "street_name": "dawson avenue", "unit_num": "", "city": null, "state": null, "zip_code": "15143"}, "unit_num": ""}, {"universe": {"house_number": "2661", "house_number_suffix": "", "street_name": "timberglen dr e drive", "unit_num": "", "city": null, "state": null, "zip_code": "15090"}, "match": {"house_number": "2661", "house_number_suffix": "", "street_name": "timberglen east drive", "unit_num": "", "city": null, "state": null, "zip_code": "15090"}, "unit_num": ""}, {"universe": {"house_number": "303", "house_number_suffix": "", "street_name": "chaucer ct n court", "unit_num": "", "city": null, "state": null, "zip_code": "15143"}, "match": {"house_number": "303", "house_number_suffix": "", "street_name": "chaucer court", "unit_num": "", "city": null, "state": null, "zip_code": "15143"}, "unit_num": ""}, {"universe": {"house_number": "320", "house_number_suffix": "", "street_name": "ohio river boulevard", "unit_num": "D-6", "city": null, "state": null, "zip_code": "15143"}, "match": {"house_number": "320", "house_number_suffix": "", "street_name": "ohio river boulevard", "unit_num": "D6", "city": null, "state": null, "zip_code": "15143"}, "unit_num": ""}, {"universe": {"house_number": "316", "house_number_suffix": "", "street_name": "beaver street", "unit_num": "202", "city": null, "state": null, "zip_code": "15143"}, "match": {"house_number": "316", "house_number_suffix": "", "street_name": "beaver street", "unit_num": "", "city": null, "state": null, "zip_code": "15143"}, "unit_num": "202"}, {"universe": {"house_number": "2668", "house_number_suffix": "", "street_name": "timberglen dr w drive", "unit_num": "", "city": null, "state": null, "zip_code": "15090"}, "match": {"house_number": "2668", "house_number_suffix": "", "street_name": "timberglen west drive", "unit_num": "", "city": null, "state": null, "zip_code": "15090"}, "unit_num": ""}, {"universe": {"house_number": "131", "house_number_suffix": "", "street_name": "grove st extension", "unit_num": "", "city": null, "state": null, "zip_code": "15143"}, "match": {"house_number": "131", "house_number_suffix": "", "street_name": "grove street extension", "unit_num": "", "city": null, "state": null, "zip_code": "15143"}, "unit_num": ""}, {"universe": {"house_number": "3", "house_number_suffix": "", "street_name": "thawmont road", "unit_num": "", "city": null, "state": null, "zip_code": "15143"}, "match": {"house_number": "3", "house_number_suffix": "", "street_name": "thawmont drive", "unit_num": "", "city": null, "state": null, "zip_code": "15143"}, "unit_num": ""}, {"universe": {"house_number": "1024", "house_number_suffix": "", "street_name": "masonic drive", "unit_num": "", "city": null, "state": null, "zip_code": "15143"}, "match": "DNE"}, {"universe": {"house_number": "472", "house_number_suffix": "", "street_name": "school street", "unit_num": "", "city": null, "state": null, "zip_code": "15143"}, "match": {"house_number": "472", "house_number_suffix": "", "street_name": "school street", "unit_num": "", "city": null, "state": null, "zip_code": "15143"}, "unit_num": ""}, {"universe": {"house_number": "309", "house_number_suffix": "", "street_name": "sewickley ridge drive", "unit_num": "DR", "city": null, "state": null, "zip_code": "15143"}, "match": {"house_number": "309", "house_number_suffix": "", "street_name": "sewickley ridge drive", "unit_num": "", "city": null, "state": null, "zip_code": "15143"}, "unit_num": ""}, {"universe": {"house_number": "549", "house_number_suffix": "", "street_name": "beaver street", "unit_num": "1", "city": null, "state": null, "zip_code": "15143"}, "match": {"house_number": "549", "house_number_suffix": "", "street_name": "beaver street", "unit_num": "", "city": null, "state": null, "zip_code": "15143"}, "unit_num": "1"}, {"universe": {"house_number": "2151", "house_number_suffix": "", "street_name": "huntington ct s court", "unit_num": "", "city": null, "state": null, "zip_code": "15090"}, "match": {"house_number": "2151", "house_number_suffix": "", "street_name": "huntington court", "unit_num": "", "city": null, "state": null, "zip_code": "15090"}, "unit_num": ""}, {"universe": {"house_number": "506", "house_number_suffix": "", "street_name": "rabbit hill road", "unit_num": "", "city": null, "state": null, "zip_code": "15143"}, "match": {"house_number": "506", "house_number_suffix": "", "street_name": "rabbit hill", "unit_num": "", "city": null, "state": null, "zip_code": "15143"}, "unit_num": ""}, {"universe": {"house_number": "2598", "house_number_suffix": "", "street_name": "big sewickley creek road", "unit_num": "", "city": null, "state": null, "zip_code": "15143"}, "match": {"house_number": "2598", "house_number_suffix": "", "street_name": "big sewickley creek road", "unit_num": "", "city": null, "state": null, "zip_code": "15143"}, "unit_num": ""}, {"universe": {"house_number": "2631", "house_number_suffix": "", "street_name": "big sewickley creek road", "unit_num": "", "city": null, "state": null, "zip_code": "15143"}, "match": {}}, {"universe": {"house_number": "2147", "house_number_suffix": "", "street_name": "huntington ct s court", "unit_num": "", "city": null, "state": null, "zip_code": "15090"}, "match": {"house_number": "2147", "house_number_suffix": "", "street_name": "huntington court", "unit_num": "", "city": null, "state": null, "zip_code": "15090"}, "unit_num": ""}, {"universe": {"house_number": "3047", "house_number_suffix": "", "street_name": "scottish rite lane", "unit_num": "LN", "city": null, "state": null, "zip_code": "15143"}, "match": {"house_number": "3047", "house_number_suffix": "", "street_name": "scottish rite lane", "unit_num": "", "city": null, "state": null, "zip_code": "15143"}, "unit_num": ""}, {"universe": {"house_number": "1500", "house_number_suffix": "", "street_name": "scarlet oak court", "unit_num": "", "city": null, "state": null, "zip_code": "15090"}, "match": {"house_number": "1500", "house_number_suffix": "", "street_name": "scarlet oak drive", "unit_num": "", "city": null, "state": null, "zip_code": "15090"}, "unit_num": ""}, {"universe": {"house_number": "142", "house_number_suffix": "", "street_name": "waterworks road", "unit_num": "RD", "city": null, "state": null, "zip_code": "15143"}, "match": {"house_number": "142", "house_number_suffix": "", "street_name": "waterworks road", "unit_num": "", "city": null, "state": null, "zip_code": "15143"}, "unit_num": ""}, {"universe": {"house_number": "174", "house_number_suffix": "", "street_name": "beaver st e street", "unit_num": "", "city": null, "state": null, "zip_code": "15143"}, "match": {"house_number": "174", "house_number_suffix": "", "street_name": "e beaver street", "unit_num": "", "city": null, "state": null, "zip_code": "15143"}, "unit_num": ""}, {"universe": {"house_number": "1537", "house_number_suffix": "", "street_name": "ingomar rd w road", "unit_num": "", "city": null, "state": null, "zip_code": "15237"}, "match": {"house_number": "1537", "house_number_suffix": "", "street_name": "w ingomar road", "unit_num": "", "city": null, "state": null, "zip_code": "15237"}, "unit_num": ""}, {"universe": {"house_number": "735", "house_number_suffix": "", "street_name": "fern hollow road", "unit_num": "251", "city": null, "state": null, "zip_code": "15143"}, "match": {"house_number": "735", "house_number_suffix": "", "street_name": "fern hollow road", "unit_num": "", "city": null, "state": null, "zip_code": "15143"}, "unit_num": "251"}, {"universe": {"house_number": "2205", "house_number_suffix": "", "street_name": "huntington ct n court", "unit_num": "", "city": null, "state": null, "zip_code": "15090"}, "match": {"house_number": "2205", "house_number_suffix": "", "street_name": "huntington court", "unit_num": "", "city": null, "state": null, "zip_code": "15090"}, "unit_num": ""}, {"universe": {"house_number": "2584", "house_number_suffix": "", "street_name": "grouse ridge", "unit_num": "", "city": null, "state": null, "zip_code": "15090"}, "match": {"house_number": "2584", "house_number_suffix": "B", "street_name": "grouse ridge", "unit_num": "", "city": null, "state": null, "zip_code": "15090"}, "unit_num": ""}, {"universe": {"house_number": "704", "house_number_suffix": "", "street_name": "sycamore rd extension", "unit_num": "", "city": null, "state": null, "zip_code": "15143"}, "match": {"house_number": "704", "house_number_suffix": "", "street_name": "sycamore road", "unit_num": "", "city": null, "state": null, "zip_code": "15143"}, "unit_num": ""}, {"universe": {"house_number": "316", "house_number_suffix": "", "street_name": "beaver street", "unit_num": "403", "city": null, "state": null, "zip_code": "15143"}, "match": {"house_number": "316", "house_number_suffix": "", "street_name": "beaver street", "unit_num": "", "city": null, "state": null, "zip_code": "15143"}, "unit_num": "403"}, {"universe": {"house_number": "305", "house_number_suffix": "", "street_name": "elwick street", "unit_num": "5", "city": null, "state": null, "zip_code": "15143"}, "match": {"house_number": "305", "house_number_suffix": "", "street_name": "elwick street", "unit_num": "", "city": null, "state": null, "zip_code": "15143"}, "unit_num": "5"}, {"universe": {"house_number": "2378", "house_number_suffix": "", "street_name": "magee road", "unit_num": "", "city": null, "state": null, "zip_code": "15143"}, "match": {"house_number": "2378", "house_number_suffix": "", "street_name": "magee road extension", "unit_num": "", "city": null, "state": null, "zip_code": "15143"}, "unit_num": ""}, {"universe": {"house_number": "2161", "house_number_suffix": "", "street_name": "huntington ct s court", "unit_num": "", "city": null, "state": null, "zip_code": "15090"}, "match": {"house_number": "2161", "house_number_suffix": "", "street_name": "huntington court", "unit_num": "", "city": null, "state": null, "zip_code": "15090"}, "unit_num": ""}, {"universe": {"house_number": "1711", "house_number_suffix": "", "street_name": "st johns lane", "unit_num": "", "city": null, "state": null, "zip_code": "15143"}, "match": {"house_number": "1711", "house_number_suffix": "", "street_name": "saint johns lane", "unit_num": "", "city": null, "state": null, "zip_code": "15143"}, "unit_num": ""}, {"universe": {"house_number": "121", "house_number_suffix": "", "street_name": "grove st extension", "unit_num": "", "city": null, "state": null, "zip_code": "15143"}, "match": {"house_number": "121", "house_number_suffix": "", "street_name": "grove street extension", "unit_num": "", "city": null, "state": null, "zip_code": "15143"}, "unit_num": ""}, {"universe": {"house_number": "1555", "house_number_suffix": "", "street_name": "ingomar rd w road", "unit_num": "", "city": null, "state": null, "zip_code": "15237"}, "match": {"house_number": "1555", "house_number_suffix": "", "street_name": "w ingomar road", "unit_num": "", "city": null, "state": null, "zip_code": "15237"}, "unit_num": ""}, {"universe": {"house_number": "11", "house_number_suffix": "", "street_name": "thawmont road", "unit_num": "", "city": null, "state": null, "zip_code": "15143"}, "match": {"house_number": "11", "house_number_suffix": "", "street_name": "thawmont drive", "unit_num": "", "city": null, "state": null, "zip_code": "15143"}, "unit_num": ""}, {"universe": {"house_number": "2555", "house_number_suffix": "", "street_name": "fairmont church drive", "unit_num": "", "city": null, "state": null, "zip_code": "15143"}, "match": {"house_number": "2555", "house_number_suffix": "", "street_name": "fairmount church road", "unit_num": "", "city": null, "state": null, "zip_code": "15143"}, "unit_num": ""}, {"universe": {"house_number": "1406", "house_number_suffix": "", "street_name": "shevlin ct n court", "unit_num": "", "city": null, "state": null, "zip_code": "15143"}, "match": {"house_number": "1406", "house_number_suffix": "", "street_name": "north shevlin court", "unit_num": "", "city": null, "state": null, "zip_code": "15143"}, "unit_num": ""}, {"universe": {"house_number": "2586", "house_number_suffix": "", "street_name": "grouse ridge", "unit_num": "B", "city": null, "state": null, "zip_code": "15090"}, "match": {"house_number": "2586", "house_number_suffix": "B", "street_name": "grouse ridge", "unit_num": "", "city": null, "state": null, "zip_code": "15090"}, "unit_num": "B"}, {"universe": {"house_number": "2707", "house_number_suffix": "", "street_name": "timberglen dr e drive", "unit_num": "", "city": null, "state": null, "zip_code": "15090"}, "match": {}}, {"universe": {"house_number": "2587", "house_number_suffix": "", "street_name": "grouse ridge", "unit_num": "", "city": null, "state": null, "zip_code": "15090"}, "match": {"house_number": "2587", "house_number_suffix": "A", "street_name": "grouse ridge", "unit_num": "", "city": null, "state": null, "zip_code": "15090"}, "unit_num": ""}, {"universe": {"house_number": "588", "house_number_suffix": "", "street_name": "blackburn road", "unit_num": "", "city": null, "state": null, "zip_code": "15143"}, "match": "DNE"}, {"universe": {"house_number": "2600", "house_number_suffix": "", "street_name": "hunters point ct n court", "unit_num": "", "city": null, "state": null, "zip_code": "15090"}, "match": {"house_number": "2600", "house_number_suffix": "", "street_name": "hunters point court", "unit_num": "", "city": null, "state": null, "zip_code": "15090"}, "unit_num": ""}, {"universe": {"house_number": "316", "house_number_suffix": "", "street_name": "sewickley heights drive", "unit_num": "DR", "city": null, "state": null, "zip_code": "15143"}, "match": "DNE"}, {"universe": {"house_number": "25", "house_number_suffix": "", "street_name": "oak knoll drive", "unit_num": "DR", "city": null, "state": null, "zip_code": "15143"}, "match": {"house_number": "25", "house_number_suffix": "", "street_name": "oak knoll drive", "unit_num": "", "city": null, "state": null, "zip_code": "15143"}, "unit_num": ""}, {"universe": {"house_number": "2609", "house_number_suffix": "", "street_name": "hunters point ct s court", "unit_num": "", "city": null, "state": null, "zip_code": "15090"}, "match": {"house_number": "2609", "house_number_suffix": "", "street_name": "hunters point court", "unit_num": "", "city": null, "state": null, "zip_code": "15090"}, "unit_num": ""}, {"universe": {"house_number": "1423", "house_number_suffix": "", "street_name": "shevlin ct n court", "unit_num": "", "city": null, "state": null, "zip_code": "15143"}, "match": {"house_number": "1423", "house_number_suffix": "", "street_name": "north shevlin court", "unit_num": "", "city": null, "state": null, "zip_code": "15143"}, "unit_num": ""}, {"universe": {"house_number": "739", "house_number_suffix": "", "street_name": "fern hollow road", "unit_num": "RD", "city": null, "state": null, "zip_code": "15143"}, "match": {"house_number": "739", "house_number_suffix": "", "street_name": "fern hollow road", "unit_num": "", "city": null, "state": null, "zip_code": "15143"}, "unit_num": ""}, {"universe": {"house_number": "198", "house_number_suffix": "", "street_name": "beaver st e street", "unit_num": "", "city": null, "state": null, "zip_code": "15143"}, "match": {"house_number": "198", "house_number_suffix": "", "street_name": "e beaver street", "unit_num": "", "city": null, "state": null, "zip_code": "15143"}, "unit_num": ""}, {"universe": {"house_number": "1", "house_number_suffix": "", "street_name": "pink house road", "unit_num": "", "city": null, "state": null, "zip_code": "15143"}, "match": "DNE"}, {"universe": {"house_number": "50", "house_number_suffix": "", "street_name": "grove st extension", "unit_num": "", "city": null, "state": null, "zip_code": "15143"}, "match": {"house_number": "50", "house_number_suffix": "", "street_name": "grove street extension", "unit_num": "", "city": null, "state": null, "zip_code": "15143"}, "unit_num": ""}, {"universe": {"house_number": "1", "house_number_suffix": "", "street_name": "pink house road", "unit_num": "", "city": null, "state": null, "zip_code": "15143"}, "match": "DNE"}, {"universe": {"house_number": "2656", "house_number_suffix": "", "street_name": "timberglen dr w drive", "unit_num": "", "city": null, "state": null, "zip_code": "15090"}, "match": {"house_number": "2656", "house_number_suffix": "", "street_name": "timberglen west drive", "unit_num": "", "city": null, "state": null, "zip_code": "15090"}, "unit_num": ""}, {"universe": {"house_number": "202", "house_number_suffix": "", "street_name": "chaucer ct s court", "unit_num": "", "city": null, "state": null, "zip_code": "15143"}, "match": {"house_number": "202", "house_number_suffix": "", "street_name": "chaucer court", "unit_num": "", "city": null, "state": null, "zip_code": "15143"}, "unit_num": ""}, {"universe": {"house_number": "188", "house_number_suffix": "", "street_name": "beaver st e street", "unit_num": "", "city": null, "state": null, "zip_code": "15143"}, "match": {"house_number": "188", "house_number_suffix": "", "street_name": "e beaver street", "unit_num": "", "city": null, "state": null, "zip_code": "15143"}, "unit_num": ""}, {"universe": {"house_number": "552", "house_number_suffix": "", "street_name": "hill street", "unit_num": "1", "city": null, "state": null, "zip_code": "15143"}, "match": {"house_number": "552", "house_number_suffix": "", "street_name": "hill street", "unit_num": "", "city": null, "state": null, "zip_code": "15143"}, "unit_num": "1"}, {"universe": {"house_number": "2041", "house_number_suffix": "", "street_name": "reis run road", "unit_num": "RD", "city": null, "state": null, "zip_code": "15237"}, "match": {"house_number": "2041", "house_number_suffix": "", "street_name": "reis run road", "unit_num": "", "city": null, "state": null, "zip_code": "15237"}, "unit_num": ""}, {"universe": {"house_number": "2660", "house_number_suffix": "", "street_name": "timberglen dr w drive", "unit_num": "", "city": null, "state": null, "zip_code": "15090"}, "match": {"house_number": "2660", "house_number_suffix": "", "street_name": "timberglen west drive", "unit_num": "", "city": null, "state": null, "zip_code": "15090"}, "unit_num": ""}, {"universe": {"house_number": "2426", "house_number_suffix": "", "street_name": "rochester road", "unit_num": "A", "city": null, "state": null, "zip_code": "15143"}, "match": {"house_number": "2426", "house_number_suffix": "", "street_name": "rochester road", "unit_num": "", "city": null, "state": null, "zip_code": "15143"}, "unit_num": "A"}, {"universe": {"house_number": "275", "house_number_suffix": "", "street_name": "scaife road", "unit_num": "", "city": null, "state": null, "zip_code": "15143"}, "match": {"house_number": "275", "house_number_suffix": "", "street_name": "scaife road", "unit_num": "", "city": null, "state": null, "zip_code": "15143"}, "unit_num": ""}, {"universe": {"house_number": "1820", "house_number_suffix": "", "street_name": "willow oak drive", "unit_num": "DR", "city": null, "state": null, "zip_code": "15090"}, "match": {"house_number": "1820", "house_number_suffix": "", "street_name": "willow oak drive", "unit_num": "", "city": null, "state": null, "zip_code": "15090"}, "unit_num": ""}, {"universe": {"house_number": "1039", "house_number_suffix": "", "street_name": "big sewickley creek road", "unit_num": "", "city": null, "state": null, "zip_code": "15143"}, "match": {}}, {"universe": {"house_number": "1098", "house_number_suffix": "", "street_name": "glenfield road", "unit_num": "5", "city": null, "state": null, "zip_code": "15143"}, "match": {"house_number": "1098", "house_number_suffix": "", "street_name": "glenfield road", "unit_num": "", "city": null, "state": null, "zip_code": "15143"}, "unit_num": "5"}, {"universe": {"house_number": "1622", "house_number_suffix": "", "street_name": "royal oak drive", "unit_num": "DR", "city": null, "state": null, "zip_code": "15143"}, "match": {"house_number": "1622", "house_number_suffix": "", "street_name": "royal oak drive", "unit_num": "", "city": null, "state": null, "zip_code": "15143"}, "unit_num": ""}, {"universe": {"house_number": "216", "house_number_suffix": "", "street_name": "beaver st e street", "unit_num": "", "city": null, "state": null, "zip_code": "15143"}, "match": {"house_number": "216", "house_number_suffix": "", "street_name": "e beaver street", "unit_num": "", "city": null, "state": null, "zip_code": "15143"}, "unit_num": ""}, {"universe": {"house_number": "1539", "house_number_suffix": "", "street_name": "ingomar rd w road", "unit_num": "", "city": null, "state": null, "zip_code": "15237"}, "match": {"house_number": "1539", "house_number_suffix": "", "street_name": "w ingomar road", "unit_num": "", "city": null, "state": null, "zip_code": "15237"}, "unit_num": ""}, {"universe": {"house_number": "255", "house_number_suffix": "", "street_name": "scaife road", "unit_num": "", "city": null, "state": null, "zip_code": "15143"}, "match": {"house_number": "255", "house_number_suffix": "", "street_name": "scaife road", "unit_num": "", "city": null, "state": null, "zip_code": "15143"}, "unit_num": ""}, {"universe": {"house_number": "1035", "house_number_suffix": "", "street_name": "big sewickley creek road", "unit_num": "", "city": null, "state": null, "zip_code": "15143"}, "match": {}}, {"universe": {"house_number": "2145", "house_number_suffix": "", "street_name": "huntington ct s court", "unit_num": "", "city": null, "state": null, "zip_code": "15090"}, "match": {"house_number": "2145", "house_number_suffix": "", "street_name": "huntington court", "unit_num": "", "city": null, "state": null, "zip_code": "15090"}, "unit_num": ""}, {"universe": {"house_number": "1707", "house_number_suffix": "", "street_name": "hawthorn ct s court", "unit_num": "", "city": null, "state": null, "zip_code": "15237"}, "match": {"house_number": "1707", "house_number_suffix": "", "street_name": "s hawthorn court", "unit_num": "", "city": null, "state": null, "zip_code": "15237"}, "unit_num": ""}, {"universe": {"house_number": "101", "house_number_suffix": "", "street_name": "grove st extension", "unit_num": "", "city": null, "state": null, "zip_code": "15143"}, "match": {"house_number": "101", "house_number_suffix": "", "street_name": "grove street extension", "unit_num": "", "city": null, "state": null, "zip_code": "15143"}, "unit_num": ""}, {"universe": {"house_number": "2330", "house_number_suffix": "", "street_name": "walruth lane", "unit_num": "", "city": null, "state": null, "zip_code": "15143"}, "match": {"house_number": "2330", "house_number_suffix": "", "street_name": "walruth lane", "unit_num": "", "city": null, "state": null, "zip_code": "15143"}, "unit_num": ""}, {"universe": {"house_number": "108", "house_number_suffix": "", "street_name": "little hollow drive", "unit_num": "DR", "city": null, "state": null, "zip_code": "15143"}, "match": {"house_number": "108", "house_number_suffix": "", "street_name": "little hollow drive", "unit_num": "", "city": null, "state": null, "zip_code": "15143"}, "unit_num": ""}, {"universe": {"house_number": "828", "house_number_suffix": "", "street_name": "ohio river boulevard", "unit_num": "E9", "city": null, "state": null, "zip_code": "15143"}, "match": {"house_number": "828", "house_number_suffix": "", "street_name": "ohio river boulevard", "unit_num": "", "city": null, "state": null, "zip_code": "15143"}, "unit_num": "E9"}, {"universe": {"house_number": "822", "house_number_suffix": "", "street_name": "ohio river boulevard", "unit_num": "B6", "city": null, "state": null, "zip_code": "15143"}, "match": {"house_number": "822", "house_number_suffix": "", "street_name": "ohio river boulevard", "unit_num": "", "city": null, "state": null, "zip_code": "15143"}, "unit_num": "B6"}, {"universe": {"house_number": "520", "house_number_suffix": "", "street_name": "woodland road", "unit_num": "", "city": null, "state": null, "zip_code": "15143"}, "match": {"house_number": "520", "house_number_suffix": "", "street_name": "woodland road extension", "unit_num": "", "city": null, "state": null, "zip_code": "15143"}, "unit_num": ""}, {"universe": {"house_number": "1614", "house_number_suffix": "", "street_name": "english oak court", "unit_num": "CT", "city": null, "state": null, "zip_code": "15090"}, "match": {"house_number": "1614", "house_number_suffix": "", "street_name": "english oak court", "unit_num": "", "city": null, "state": null, "zip_code": "15090"}, "unit_num": ""}, {"universe": {"house_number": "2715", "house_number_suffix": "", "street_name": "timberglen dr e drive", "unit_num": "", "city": null, "state": null, "zip_code": "15090"}, "match": {"house_number": "2715", "house_number_suffix": "", "street_name": "timberglen east drive", "unit_num": "", "city": null, "state": null, "zip_code": "15090"}, "unit_num": ""}, {"universe": {"house_number": "1603", "house_number_suffix": "", "street_name": "king james drive", "unit_num": "DR", "city": null, "state": null, "zip_code": "15237"}, "match": {"house_number": "1603", "house_number_suffix": "", "street_name": "king james drive", "unit_num": "", "city": null, "state": null, "zip_code": "15237"}, "unit_num": ""}, {"universe": {"house_number": "1119", "house_number_suffix": "", "street_name": "deerfield drive", "unit_num": "", "city": null, "state": null, "zip_code": "15143"}, "match": {}}, {"universe": {"house_number": "309", "house_number_suffix": "", "street_name": "dawson street", "unit_num": "", "city": null, "state": null, "zip_code": "15143"}, "match": {"house_number": "309", "house_number_suffix": "", "street_name": "dawson avenue", "unit_num": "", "city": null, "state": null, "zip_code": "15143"}, "unit_num": ""}, {"universe": {"house_number": "2581", "house_number_suffix": "", "street_name": "hunters point ct s court", "unit_num": "", "city": null, "state": null, "zip_code": "15090"}, "match": {"house_number": "2581", "house_number_suffix": "", "street_name": "hunters point court", "unit_num": "", "city": null, "state": null, "zip_code": "15090"}, "unit_num": ""}, {"universe": {"house_number": "206", "house_number_suffix": "", "street_name": "beaver st e street", "unit_num": "", "city": null, "state": null, "zip_code": "15143"}, "match": {"house_number": "206", "house_number_suffix": "", "street_name": "e beaver street", "unit_num": "", "city": null, "state": null, "zip_code": "15143"}, "unit_num": ""}, {"universe": {"house_number": "2543", "house_number_suffix": "", "street_name": "law ln w lane", "unit_num": "", "city": null, "state": null, "zip_code": "15143"}, "match": {"house_number": "2543", "house_number_suffix": "", "street_name": "law lane", "unit_num": "", "city": null, "state": null, "zip_code": "15143"}, "unit_num": ""}, {"universe": {"house_number": "2405", "house_number_suffix": "", "street_name": "brandt school road", "unit_num": "", "city": null, "state": null, "zip_code": "15090"}, "match": {"house_number": "2405", "house_number_suffix": "", "street_name": "brandt school road", "unit_num": "", "city": null, "state": null, "zip_code": "15237"}, "unit_num": ""}, {"universe": {"house_number": "220", "house_number_suffix": "", "street_name": "erie avenue", "unit_num": "215", "city": null, "state": null, "zip_code": "15045"}, "match": {}}, {"universe": {"house_number": "257", "house_number_suffix": "", "street_name": "dawson street", "unit_num": "", "city": null, "state": null, "zip_code": "15143"}, "match": {"house_number": "257", "house_number_suffix": "", "street_name": "dawson avenue", "unit_num": "", "city": null, "state": null, "zip_code": "15143"}, "unit_num": ""}, {"universe": {"house_number": "2129", "house_number_suffix": "", "street_name": "huntington ct s court", "unit_num": "", "city": null, "state": null, "zip_code": "15090"}, "match": {"house_number": "2129", "house_number_suffix": "", "street_name": "huntington court", "unit_num": "", "city": null, "state": null, "zip_code": "15090"}, "unit_num": ""}, {"universe": {"house_number": "1067", "house_number_suffix": "", "street_name": "masonic drive", "unit_num": "", "city": null, "state": null, "zip_code": "15143"}, "match": "DNE"}, {"universe": {"house_number": "3018", "house_number_suffix": "", "street_name": "scottish rite lane", "unit_num": "LN", "city": null, "state": null, "zip_code": "15143"}, "match": {"house_number": "3018", "house_number_suffix": "", "street_name": "scottish rite lane", "unit_num": "", "city": null, "state": null, "zip_code": "15143"}, "unit_num": ""}, {"universe": {"house_number": "2226", "house_number_suffix": "", "street_name": "masonic drive", "unit_num": "5", "city": null, "state": null, "zip_code": "15143"}, "match": {"house_number": "2226", "house_number_suffix": "", "street_name": "masonic drive", "unit_num": "", "city": null, "state": null, "zip_code": "15143"}, "unit_num": "5"}, {"universe": {"house_number": "1030", "house_number_suffix": "", "street_name": "masonic drive", "unit_num": "", "city": null, "state": null, "zip_code": "15143"}, "match": "DNE"}, {"universe": {"house_number": "529", "house_number_suffix": "", "street_name": "sycamore street", "unit_num": "", "city": null, "state": null, "zip_code": "15143"}, "match": {"house_number": "529", "house_number_suffix": "", "street_name": "sycamore road", "unit_num": "", "city": null, "state": null, "zip_code": "15143"}, "unit_num": ""}, {"universe": {"house_number": "2384", "house_number_suffix": "", "street_name": "fairhill farms", "unit_num": "RD", "city": null, "state": null, "zip_code": "15143"}, "match": {"house_number": "2384", "house_number_suffix": "", "street_name": "fairhill road", "unit_num": "", "city": null, "state": null, "zip_code": "15143"}, "unit_num": ""}, {"universe": {"house_number": "188", "house_number_suffix": "", "street_name": "beaver st e street", "unit_num": "", "city": null, "state": null, "zip_code": "15143"}, "match": {"house_number": "188", "house_number_suffix": "", "street_name": "e beaver street", "unit_num": "", "city": null, "state": null, "zip_code": "15143"}, "unit_num": ""}, {"universe": {"house_number": "2429", "house_number_suffix": "", "street_name": "masonic drive", "unit_num": "4", "city": null, "state": null, "zip_code": "15143"}, "match": {"house_number": "2429", "house_number_suffix": "", "street_name": "masonic drive", "unit_num": "", "city": null, "state": null, "zip_code": "15143"}, "unit_num": "4"}, {"universe": {"house_number": "1012", "house_number_suffix": "", "street_name": "sewickley heights drive", "unit_num": "DR", "city": null, "state": null, "zip_code": "15143"}, "match": {"house_number": "1012", "house_number_suffix": "", "street_name": "sewickley heights drive", "unit_num": "", "city": null, "state": null, "zip_code": "15143"}, "unit_num": ""}, {"universe": {"house_number": "7", "house_number_suffix": "", "street_name": "merriman road", "unit_num": "", "city": null, "state": null, "zip_code": "15143"}, "match": "DNE"}, {"universe": {"house_number": "2383", "house_number_suffix": "A", "street_name": "magee road", "unit_num": "", "city": null, "state": null, "zip_code": "15143"}, "match": {"house_number": "2383", "house_number_suffix": "", "street_name": "magee road extension", "unit_num": "", "city": null, "state": null, "zip_code": "15143"}, "unit_num": ""}, {"universe": {"house_number": "332", "house_number_suffix": "", "street_name": "ingleside avenue", "unit_num": "2", "city": null, "state": null, "zip_code": "15143"}, "match": "DNE"}, {"universe": {"house_number": "2201", "house_number_suffix": "", "street_name": "huntington ct n court", "unit_num": "", "city": null, "state": null, "zip_code": "15090"}, "match": {"house_number": "2201", "house_number_suffix": "", "street_name": "huntington court", "unit_num": "", "city": null, "state": null, "zip_code": "15090"}, "unit_num": ""}, {"universe": {"house_number": "2506", "house_number_suffix": "", "street_name": "fairmont church drive", "unit_num": "", "city": null, "state": null, "zip_code": "15143"}, "match": {"house_number": "2506", "house_number_suffix": "", "street_name": "fairmount church road", "unit_num": "", "city": null, "state": null, "zip_code": "15143"}, "unit_num": ""}, {"universe": {"house_number": "304", "house_number_suffix": "", "street_name": "chaucer ct n court", "unit_num": "", "city": null, "state": null, "zip_code": "15143"}, "match": {"house_number": "304", "house_number_suffix": "", "street_name": "chaucer court", "unit_num": "", "city": null, "state": null, "zip_code": "15143"}, "unit_num": ""}, {"universe": {"house_number": "44", "house_number_suffix": "", "street_name": "timberhill drive", "unit_num": "", "city": null, "state": null, "zip_code": "15143"}, "match": {"house_number": "44", "house_number_suffix": "", "street_name": "timberhill drive", "unit_num": "", "city": null, "state": null, "zip_code": "15143"}, "unit_num": ""}, {"universe": {"house_number": "1549", "house_number_suffix": "", "street_name": "ingomar rd w road", "unit_num": "", "city": null, "state": null, "zip_code": "15237"}, "match": {"house_number": "1549", "house_number_suffix": "", "street_name": "w ingomar road", "unit_num": "", "city": null, "state": null, "zip_code": "15237"}, "unit_num": ""}, {"universe": {"house_number": "1519", "house_number_suffix": "", "street_name": "ingomar rd w road", "unit_num": "", "city": null, "state": null, "zip_code": "15237"}, "match": {"house_number": "1519", "house_number_suffix": "", "street_name": "w ingomar road", "unit_num": "", "city": null, "state": null, "zip_code": "15237"}, "unit_num": ""}, {"universe": {"house_number": "2139", "house_number_suffix": "", "street_name": "huntington ct s court", "unit_num": "", "city": null, "state": null, "zip_code": "15090"}, "match": {"house_number": "2139", "house_number_suffix": "", "street_name": "huntington court", "unit_num": "", "city": null, "state": null, "zip_code": "15090"}, "unit_num": ""}, {"universe": {"house_number": "2135", "house_number_suffix": "", "street_name": "huntington ct s court", "unit_num": "", "city": null, "state": null, "zip_code": "15090"}, "match": {"house_number": "2135", "house_number_suffix": "", "street_name": "huntington court", "unit_num": "", "city": null, "state": null, "zip_code": "15090"}, "unit_num": ""}, {"universe": {"house_number": "2523", "house_number_suffix": "", "street_name": "fairmont church drive", "unit_num": "", "city": null, "state": null, "zip_code": "15143"}, "match": {"house_number": "2523", "house_number_suffix": "", "street_name": "fairmount church road", "unit_num": "", "city": null, "state": null, "zip_code": "15143"}, "unit_num": ""}, {"universe": {"house_number": "2447", "house_number_suffix": "", "street_name": "masonic drive", "unit_num": "7", "city": null, "state": null, "zip_code": "15143"}, "match": {"house_number": "2447", "house_number_suffix": "", "street_name": "masonic drive", "unit_num": "", "city": null, "state": null, "zip_code": "15143"}, "unit_num": "7"}, {"universe": {"house_number": "422", "house_number_suffix": "", "street_name": "walnut street", "unit_num": "4", "city": null, "state": null, "zip_code": "15143"}, "match": {"house_number": "422", "house_number_suffix": "", "street_name": "walnut street", "unit_num": "", "city": null, "state": null, "zip_code": "15143"}, "unit_num": "4"}, {"universe": {"house_number": "1542", "house_number_suffix": "", "street_name": "ingomar rd w road", "unit_num": "", "city": null, "state": null, "zip_code": "15237"}, "match": {"house_number": "1542", "house_number_suffix": "", "street_name": "w ingomar road", "unit_num": "", "city": null, "state": null, "zip_code": "15237"}, "unit_num": ""}, {"universe": {"house_number": "251", "house_number_suffix": "", "street_name": "elwick street", "unit_num": "2", "city": null, "state": null, "zip_code": "15143"}, "match": {"house_number": "251", "house_number_suffix": "", "street_name": "elwick street", "unit_num": "", "city": null, "state": null, "zip_code": "15143"}, "unit_num": "2"}, {"universe": {"house_number": "1011", "house_number_suffix": "", "street_name": "masonic drive", "unit_num": "2249", "city": null, "state": null, "zip_code": "15143"}, "match": "DNE"}, {"universe": {"house_number": "202", "house_number_suffix": "", "street_name": "scaife road", "unit_num": "91", "city": null, "state": null, "zip_code": "15143"}, "match": {"house_number": "202", "house_number_suffix": "", "street_name": "scaife road", "unit_num": "", "city": null, "state": null, "zip_code": "15143"}, "unit_num": "91"}, {"universe": {"house_number": "2477", "house_number_suffix": "", "street_name": "kuntz manor lane", "unit_num": "LN", "city": null, "state": null, "zip_code": "15143"}, "match": {"house_number": "2477", "house_number_suffix": "", "street_name": "kuntz manor lane", "unit_num": "", "city": null, "state": null, "zip_code": "15143"}, "unit_num": ""}, {"universe": {"house_number": "1522", "house_number_suffix": "", "street_name": "ingomar rd w road", "unit_num": "", "city": null, "state": null, "zip_code": "15237"}, "match": {"house_number": "1522", "house_number_suffix": "", "street_name": "w ingomar road", "unit_num": "", "city": null, "state": null, "zip_code": "15237"}, "unit_num": ""}, {"universe": {"house_number": "1706", "house_number_suffix": "", "street_name": "hawthorn ct s court", "unit_num": "", "city": null, "state": null, "zip_code": "15237"}, "match": {"house_number": "1706", "house_number_suffix": "", "street_name": "s hawthorn court", "unit_num": "", "city": null, "state": null, "zip_code": "15237"}, "unit_num": ""}, {"universe": {"house_number": "822", "house_number_suffix": "", "street_name": "ohio river boulevard", "unit_num": "B6", "city": null, "state": null, "zip_code": "15143"}, "match": {"house_number": "822", "house_number_suffix": "", "street_name": "ohio river boulevard", "unit_num": "", "city": null, "state": null, "zip_code": "15143"}, "unit_num": "B6"}, {"universe": {"house_number": "1416", "house_number_suffix": "", "street_name": "shevlin ct n court", "unit_num": "", "city": null, "state": null, "zip_code": "15143"}, "match": {"house_number": "1416", "house_number_suffix": "", "street_name": "north shevlin court", "unit_num": "", "city": null, "state": null, "zip_code": "15143"}, "unit_num": ""}, {"universe": {"house_number": "1515", "house_number_suffix": "", "street_name": "ingomar rd w road", "unit_num": "", "city": null, "state": null, "zip_code": "15237"}, "match": {"house_number": "1515", "house_number_suffix": "", "street_name": "w ingomar road", "unit_num": "", "city": null, "state": null, "zip_code": "15237"}, "unit_num": ""}, {"universe": {"house_number": "2675", "house_number_suffix": "", "street_name": "hunters point drive", "unit_num": "DR", "city": null, "state": null, "zip_code": "15090"}, "match": {"house_number": "2675", "house_number_suffix": "", "street_name": "hunters point drive", "unit_num": "", "city": null, "state": null, "zip_code": "15090"}, "unit_num": ""}, {"universe": {"house_number": "312", "house_number_suffix": "", "street_name": "sewickley heights drive", "unit_num": "DR", "city": null, "state": null, "zip_code": "15143"}, "match": "DNE"}, {"universe": {"house_number": "2099", "house_number_suffix": "", "street_name": "huntington ct s court", "unit_num": "", "city": null, "state": null, "zip_code": "15090"}, "match": {"house_number": "2099", "house_number_suffix": "", "street_name": "huntington court", "unit_num": "", "city": null, "state": null, "zip_code": "15090"}, "unit_num": ""}, {"universe": {"house_number": "206", "house_number_suffix": "", "street_name": "rolling hills drive", "unit_num": "DR", "city": null, "state": null, "zip_code": "15143"}, "match": {"house_number": "206", "house_number_suffix": "", "street_name": "rolling hills drive", "unit_num": "", "city": null, "state": null, "zip_code": "15143"}, "unit_num": ""}, {"universe": {"house_number": "1810", "house_number_suffix": "", "street_name": "waterleaf drive", "unit_num": "", "city": null, "state": null, "zip_code": "15143"}, "match": {"house_number": "1810", "house_number_suffix": "", "street_name": "waterleaf court", "unit_num": "", "city": null, "state": null, "zip_code": "15143"}, "unit_num": ""}, {"universe": {"house_number": "102", "house_number_suffix": "", "street_name": "weber road", "unit_num": "", "city": null, "state": null, "zip_code": "15143"}, "match": {"house_number": "102", "house_number_suffix": "", "street_name": "weber road extension", "unit_num": "", "city": null, "state": null, "zip_code": "15143"}, "unit_num": ""}, {"universe": {"house_number": "2549", "house_number_suffix": "", "street_name": "pheasant run", "unit_num": "", "city": null, "state": null, "zip_code": "15090"}, "match": {"house_number": "2549", "house_number_suffix": "A", "street_name": "pheasant run", "unit_num": "", "city": null, "state": null, "zip_code": "15090"}, "unit_num": ""}, {"universe": {"house_number": "522", "house_number_suffix": "", "street_name": "woodland road", "unit_num": "", "city": null, "state": null, "zip_code": "15143"}, "match": {"house_number": "522", "house_number_suffix": "", "street_name": "woodland road extension", "unit_num": "", "city": null, "state": null, "zip_code": "15143"}, "unit_num": ""}, {"universe": {"house_number": "247", "house_number_suffix": "", "street_name": "mccoy place road", "unit_num": "RD", "city": null, "state": null, "zip_code": "15143"}, "match": {"house_number": "247", "house_number_suffix": "", "street_name": "mccoy place road", "unit_num": "", "city": null, "state": null, "zip_code": "15143"}, "unit_num": ""}, {"universe": {"house_number": "1611", "house_number_suffix": "", "street_name": "st andrews court", "unit_num": "CT", "city": null, "state": null, "zip_code": "15237"}, "match": {"house_number": "1611", "house_number_suffix": "", "street_name": "saint andrews court", "unit_num": "", "city": null, "state": null, "zip_code": "15237"}, "unit_num": ""}, {"universe": {"house_number": "2551", "house_number_suffix": "", "street_name": "pheasant run", "unit_num": "B", "city": null, "state": null, "zip_code": "15090"}, "match": {"house_number": "2551", "house_number_suffix": "", "street_name": "pheasant run", "unit_num": "", "city": null, "state": null, "zip_code": "15090"}, "unit_num": "B"}, {"universe": {"house_number": "2390", "house_number_suffix": "", "street_name": "brandt school road", "unit_num": "RD", "city": null, "state": null, "zip_code": "15237"}, "match": {"house_number": "2390", "house_number_suffix": "", "street_name": "brandt school road", "unit_num": "", "city": null, "state": null, "zip_code": "15237"}, "unit_num": ""}, {"universe": {"house_number": "1035", "house_number_suffix": "", "street_name": "masonic drive", "unit_num": "", "city": null, "state": null, "zip_code": "15143"}, "match": "DNE"}, {"universe": {"house_number": "1921", "house_number_suffix": "", "street_name": "colonial drive", "unit_num": "", "city": null, "state": null, "zip_code": "15143"}, "match": {"house_number": "1921", "house_number_suffix": "", "street_name": "colonial court", "unit_num": "", "city": null, "state": null, "zip_code": "15143"}, "unit_num": ""}, {"universe": {"house_number": "164", "house_number_suffix": "", "street_name": "beaver st e street", "unit_num": "", "city": null, "state": null, "zip_code": "15143"}, "match": {"house_number": "164", "house_number_suffix": "", "street_name": "e beaver street", "unit_num": "", "city": null, "state": null, "zip_code": "15143"}, "unit_num": ""}, {"universe": {"house_number": "1554", "house_number_suffix": "", "street_name": "king albert drive", "unit_num": "DR", "city": null, "state": null, "zip_code": "15237"}, "match": {"house_number": "1554", "house_number_suffix": "", "street_name": "king albert drive", "unit_num": "", "city": null, "state": null, "zip_code": "15237"}, "unit_num": ""}, {"universe": {"house_number": "2560", "house_number_suffix": "", "street_name": "grouse ridge", "unit_num": "", "city": null, "state": null, "zip_code": "15090"}, "match": {"house_number": "2560", "house_number_suffix": "A", "street_name": "grouse ridge", "unit_num": "", "city": null, "state": null, "zip_code": "15090"}, "unit_num": ""}, {"universe": {"house_number": "103", "house_number_suffix": "", "street_name": "beaver road", "unit_num": "", "city": null, "state": null, "zip_code": "15143"}, "match": "DNE"}, {"universe": {"house_number": "698", "house_number_suffix": "", "street_name": "little sewickley creek road", "unit_num": "RD", "city": null, "state": null, "zip_code": "15143"}, "match": {"house_number": "698", "house_number_suffix": "", "street_name": "little sewickley creek road", "unit_num": "", "city": null, "state": null, "zip_code": "15143"}, "unit_num": ""}, {"universe": {"house_number": "2422", "house_number_suffix": "", "street_name": "magee road", "unit_num": "", "city": null, "state": null, "zip_code": "15143"}, "match": {"house_number": "2422", "house_number_suffix": "", "street_name": "magee road extension", "unit_num": "", "city": null, "state": null, "zip_code": "15143"}, "unit_num": ""}, {"universe": {"house_number": "2387", "house_number_suffix": "", "street_name": "magee rd ext road", "unit_num": "", "city": null, "state": null, "zip_code": "15143"}, "match": {"house_number": "2387", "house_number_suffix": "", "street_name": "magee road extension", "unit_num": "", "city": null, "state": null, "zip_code": "15143"}, "unit_num": ""}, {"universe": {"house_number": "2666", "house_number_suffix": "", "street_name": "timberglen dr w drive", "unit_num": "", "city": null, "state": null, "zip_code": "15090"}, "match": {"house_number": "2666", "house_number_suffix": "", "street_name": "timberglen west drive", "unit_num": "", "city": null, "state": null, "zip_code": "15090"}, "unit_num": ""}, {"universe": {"house_number": "2389", "house_number_suffix": "", "street_name": "brandt school road", "unit_num": "", "city": null, "state": null, "zip_code": "15090"}, "match": {"house_number": "2389", "house_number_suffix": "", "street_name": "brandt school road", "unit_num": "", "city": null, "state": null, "zip_code": "15237"}, "unit_num": ""}, {"universe": {"house_number": "301", "house_number_suffix": "", "street_name": "chaucer ct n court", "unit_num": "", "city": null, "state": null, "zip_code": "15143"}, "match": {"house_number": "301", "house_number_suffix": "", "street_name": "chaucer court", "unit_num": "", "city": null, "state": null, "zip_code": "15143"}, "unit_num": ""}, {"universe": {"house_number": "2405", "house_number_suffix": "", "street_name": "masonic drive", "unit_num": "2", "city": null, "state": null, "zip_code": "15143"}, "match": {"house_number": "2405", "house_number_suffix": "", "street_name": "masonic drive", "unit_num": "", "city": null, "state": null, "zip_code": "15143"}, "unit_num": "2"}, {"universe": {"house_number": "158", "house_number_suffix": "", "street_name": "orchard street", "unit_num": "1", "city": null, "state": null, "zip_code": "15003"}, "match": {"house_number": "158", "house_number_suffix": "", "street_name": "orchard street", "unit_num": "", "city": null, "state": null, "zip_code": "15003"}, "unit_num": "1"}, {"universe": {"house_number": "2584", "house_number_suffix": "", "street_name": "hunters point ct n court", "unit_num": "", "city": null, "state": null, "zip_code": "15090"}, "match": {"house_number": "2584", "house_number_suffix": "", "street_name": "hunters point court", "unit_num": "", "city": null, "state": null, "zip_code": "15090"}, "unit_num": ""}, {"universe": {"house_number": "2329", "house_number_suffix": "", "street_name": "masonic drive", "unit_num": "4", "city": null, "state": null, "zip_code": "15143"}, "match": {"house_number": "2329", "house_number_suffix": "", "street_name": "masonic drive", "unit_num": "", "city": null, "state": null, "zip_code": "15143"}, "unit_num": "4"}, {"universe": {"house_number": "209", "house_number_suffix": "", "street_name": "grant street", "unit_num": "", "city": null, "state": null, "zip_code": "15143"}, "match": {}}, {"universe": {"house_number": "122", "house_number_suffix": "", "street_name": "beaver st e street", "unit_num": "", "city": null, "state": null, "zip_code": "15143"}, "match": {"house_number": "122", "house_number_suffix": "", "street_name": "e beaver street", "unit_num": "", "city": null, "state": null, "zip_code": "15143"}, "unit_num": ""}, {"universe": {"house_number": "2409", "house_number_suffix": "", "street_name": "bellwood court", "unit_num": "", "city": null, "state": null, "zip_code": "15237"}, "match": {"house_number": "2409", "house_number_suffix": "", "street_name": "bellwood drive", "unit_num": "", "city": null, "state": null, "zip_code": "15237"}, "unit_num": ""}, {"universe": {"house_number": "1601", "house_number_suffix": "", "street_name": "white oak court", "unit_num": "CT", "city": null, "state": null, "zip_code": "15237"}, "match": {"house_number": "1601", "house_number_suffix": "", "street_name": "white oak court", "unit_num": "", "city": null, "state": null, "zip_code": "15237"}, "unit_num": ""}, {"universe": {"house_number": "2518", "house_number_suffix": "", "street_name": "fairmont church drive", "unit_num": "", "city": null, "state": null, "zip_code": "15143"}, "match": {"house_number": "2518", "house_number_suffix": "", "street_name": "fairmount church road", "unit_num": "", "city": null, "state": null, "zip_code": "15143"}, "unit_num": ""}, {"universe": {"house_number": "201", "house_number_suffix": "", "street_name": "grant street", "unit_num": "PH2", "city": null, "state": null, "zip_code": "15143"}, "match": {"house_number": "201", "house_number_suffix": "", "street_name": "grant street", "unit_num": "", "city": null, "state": null, "zip_code": "15143"}, "unit_num": "PH2"}, {"universe": {"house_number": "2348", "house_number_suffix": "", "street_name": "ingomar rd w road", "unit_num": "", "city": null, "state": null, "zip_code": "15237"}, "match": {"house_number": "2348", "house_number_suffix": "", "street_name": "w ingomar road", "unit_num": "", "city": null, "state": null, "zip_code": "15237"}, "unit_num": ""}, {"universe": {"house_number": "2307", "house_number_suffix": "", "street_name": "mcaleer road", "unit_num": "", "city": null, "state": null, "zip_code": "15143"}, "match": "DNE"}, {"universe": {"house_number": "2653", "house_number_suffix": "", "street_name": "hunters point drive", "unit_num": "DR", "city": null, "state": null, "zip_code": "15090"}, "match": {"house_number": "2653", "house_number_suffix": "", "street_name": "hunters point drive", "unit_num": "", "city": null, "state": null, "zip_code": "15090"}, "unit_num": ""}, {"universe": {"house_number": "1422", "house_number_suffix": "", "street_name": "shevlin ct n court", "unit_num": "", "city": null, "state": null, "zip_code": "15143"}, "match": {"house_number": "1422", "house_number_suffix": "", "street_name": "north shevlin court", "unit_num": "", "city": null, "state": null, "zip_code": "15143"}, "unit_num": ""}, {"universe": {"house_number": "51", "house_number_suffix": "", "street_name": "timberhill drive", "unit_num": "", "city": null, "state": null, "zip_code": "15143"}, "match": {"house_number": "51", "house_number_suffix": "", "street_name": "timberhill drive", "unit_num": "", "city": null, "state": null, "zip_code": "15143"}, "unit_num": ""}, {"universe": {"house_number": "2444", "house_number_suffix": "", "street_name": "masonic drive", "unit_num": "6", "city": null, "state": null, "zip_code": "15143"}, "match": {"house_number": "2444", "house_number_suffix": "", "street_name": "masonic drive", "unit_num": "", "city": null, "state": null, "zip_code": "15143"}, "unit_num": "6"}, {"universe": {"house_number": "3015", "house_number_suffix": "", "street_name": "shepard lane", "unit_num": "", "city": null, "state": null, "zip_code": "15143"}, "match": {}}, {"universe": {"house_number": "112", "house_number_suffix": "", "street_name": "weber road", "unit_num": "", "city": null, "state": null, "zip_code": "15143"}, "match": {"house_number": "112", "house_number_suffix": "", "street_name": "weber road extension", "unit_num": "", "city": null, "state": null, "zip_code": "15143"}, "unit_num": ""}, {"universe": {"house_number": "201", "house_number_suffix": "", "street_name": "grant street", "unit_num": "705", "city": null, "state": null, "zip_code": "15143"}, "match": {"house_number": "201", "house_number_suffix": "", "street_name": "grant street", "unit_num": "", "city": null, "state": null, "zip_code": "15143"}, "unit_num": "705"}, {"universe": {"house_number": "1521", "house_number_suffix": "A", "street_name": "ingomar rd w road", "unit_num": "", "city": null, "state": null, "zip_code": "15237"}, "match": {"house_number": "1521", "house_number_suffix": "A", "street_name": "w ingomar road", "unit_num": "", "city": null, "state": null, "zip_code": "15237"}, "unit_num": ""}, {"universe": {"house_number": "1610", "house_number_suffix": "", "street_name": "white oak court", "unit_num": "CT", "city": null, "state": null, "zip_code": "15237"}, "match": {"house_number": "1610", "house_number_suffix": "", "street_name": "white oak court", "unit_num": "", "city": null, "state": null, "zip_code": "15237"}, "unit_num": ""}, {"universe": {"house_number": "2606", "house_number_suffix": "", "street_name": "big sewickley creek road", "unit_num": "", "city": null, "state": null, "zip_code": "15143"}, "match": {"house_number": "2606", "house_number_suffix": "", "street_name": "big sewickley creek road", "unit_num": "", "city": null, "state": null, "zip_code": "15143"}, "unit_num": ""}, {"universe": {"house_number": "2573", "house_number_suffix": "", "street_name": "hunters point ct s court", "unit_num": "", "city": null, "state": null, "zip_code": "15090"}, "match": {"house_number": "2573", "house_number_suffix": "", "street_name": "hunters point court", "unit_num": "", "city": null, "state": null, "zip_code": "15090"}, "unit_num": ""}, {"universe": {"house_number": "1545", "house_number_suffix": "", "street_name": "ingomar rd w road", "unit_num": "", "city": null, "state": null, "zip_code": "15237"}, "match": {"house_number": "1545", "house_number_suffix": "", "street_name": "w ingomar road", "unit_num": "", "city": null, "state": null, "zip_code": "15237"}, "unit_num": ""}, {"universe": {"house_number": "2579", "house_number_suffix": "", "street_name": "hunters point ct s court", "unit_num": "", "city": null, "state": null, "zip_code": "15090"}, "match": {"house_number": "2579", "house_number_suffix": "", "street_name": "hunters point court", "unit_num": "", "city": null, "state": null, "zip_code": "15090"}, "unit_num": ""}, {"universe": {"house_number": "3038", "house_number_suffix": "", "street_name": "scottish rite lane", "unit_num": "LN", "city": null, "state": null, "zip_code": "15143"}, "match": {"house_number": "3038", "house_number_suffix": "", "street_name": "scottish rite lane", "unit_num": "", "city": null, "state": null, "zip_code": "15143"}, "unit_num": ""}, {"universe": {"house_number": "2623", "house_number_suffix": "", "street_name": "hunters point drive", "unit_num": "DR", "city": null, "state": null, "zip_code": "15090"}, "match": {"house_number": "2623", "house_number_suffix": "", "street_name": "hunters point drive", "unit_num": "", "city": null, "state": null, "zip_code": "15090"}, "unit_num": ""}, {"universe": {"house_number": "208", "house_number_suffix": "", "street_name": "chaucer ct s court", "unit_num": "", "city": null, "state": null, "zip_code": "15143"}, "match": {"house_number": "208", "house_number_suffix": "", "street_name": "chaucer court", "unit_num": "", "city": null, "state": null, "zip_code": "15143"}, "unit_num": ""}, {"universe": {"house_number": "620", "house_number_suffix": "", "street_name": "blackburn road", "unit_num": "2", "city": null, "state": null, "zip_code": "15143"}, "match": {"house_number": "620", "house_number_suffix": "", "street_name": "blackburn road", "unit_num": "", "city": null, "state": null, "zip_code": "15143"}, "unit_num": "2"}, {"universe": {"house_number": "2504", "house_number_suffix": "", "street_name": "phyllis lane", "unit_num": "", "city": null, "state": null, "zip_code": "15090"}, "match": {"house_number": "2504", "house_number_suffix": "", "street_name": "phyllis drive", "unit_num": "", "city": null, "state": null, "zip_code": "15090"}, "unit_num": ""}, {"universe": {"house_number": "1601", "house_number_suffix": "", "street_name": "catherine court", "unit_num": "", "city": null, "state": null, "zip_code": "15143"}, "match": {"house_number": "1601", "house_number_suffix": "", "street_name": "catherine court", "unit_num": "", "city": null, "state": null, "zip_code": "15143"}, "unit_num": ""}, {"universe": {"house_number": "39", "house_number_suffix": "", "street_name": "timberhill drive", "unit_num": "", "city": null, "state": null, "zip_code": "15143"}, "match": {"house_number": "39", "house_number_suffix": "", "street_name": "timberhill drive", "unit_num": "", "city": null, "state": null, "zip_code": "15143"}, "unit_num": ""}, {"universe": {"house_number": "2017", "house_number_suffix": "", "street_name": "masonic drive", "unit_num": "", "city": null, "state": null, "zip_code": "15143"}, "match": "DNE"}, {"universe": {"house_number": "524", "house_number_suffix": "", "street_name": "woodland road", "unit_num": "", "city": null, "state": null, "zip_code": "15143"}, "match": {"house_number": "524", "house_number_suffix": "", "street_name": "woodland road extension", "unit_num": "", "city": null, "state": null, "zip_code": "15143"}, "unit_num": ""}, {"universe": {"house_number": "2602", "house_number_suffix": "", "street_name": "big sewickley creek road", "unit_num": "", "city": null, "state": null, "zip_code": "15143"}, "match": {"house_number": "2602", "house_number_suffix": "", "street_name": "big sewickley creek road", "unit_num": "", "city": null, "state": null, "zip_code": "15143"}, "unit_num": ""}, {"universe": {"house_number": "106", "house_number_suffix": "", "street_name": "timberlane court", "unit_num": "CT", "city": null, "state": null, "zip_code": "15143"}, "match": {"house_number": "106", "house_number_suffix": "", "street_name": "timber lane court", "unit_num": "", "city": null, "state": null, "zip_code": "15143"}, "unit_num": ""}, {"universe": {"house_number": "2581", "house_number_suffix": "", "street_name": "cole road", "unit_num": "A", "city": null, "state": null, "zip_code": "15090"}, "match": {"house_number": "2581", "house_number_suffix": "", "street_name": "cole road", "unit_num": "", "city": null, "state": null, "zip_code": "15090"}, "unit_num": "A"}, {"universe": {"house_number": "2395", "house_number_suffix": "", "street_name": "brandt school road", "unit_num": "", "city": null, "state": null, "zip_code": "15090"}, "match": {"house_number": "2395", "house_number_suffix": "", "street_name": "brandt school road", "unit_num": "", "city": null, "state": null, "zip_code": "15237"}, "unit_num": ""}, {"universe": {"house_number": "5", "house_number_suffix": "", "street_name": "thawmont road", "unit_num": "", "city": null, "state": null, "zip_code": "15143"}, "match": {"house_number": "5", "house_number_suffix": "", "street_name": "thawmont drive", "unit_num": "", "city": null, "state": null, "zip_code": "15143"}, "unit_num": ""}, {"universe": {"house_number": "145", "house_number_suffix": "", "street_name": "fern hollow road", "unit_num": "RD", "city": null, "state": null, "zip_code": "15143"}, "match": {"house_number": "145", "house_number_suffix": "", "street_name": "fern hollow road", "unit_num": "", "city": null, "state": null, "zip_code": "15143"}, "unit_num": ""}, {"universe": {"house_number": "507", "house_number_suffix": "", "street_name": "rabbit hill road", "unit_num": "", "city": null, "state": null, "zip_code": "15143"}, "match": {"house_number": "507", "house_number_suffix": "", "street_name": "rabbit hill", "unit_num": "", "city": null, "state": null, "zip_code": "15143"}, "unit_num": ""}, {"universe": {"house_number": "128", "house_number_suffix": "", "street_name": "beaver st e street", "unit_num": "", "city": null, "state": null, "zip_code": "15143"}, "match": {"house_number": "128", "house_number_suffix": "", "street_name": "e beaver street", "unit_num": "", "city": null, "state": null, "zip_code": "15143"}, "unit_num": ""}, {"universe": {"house_number": "601", "house_number_suffix": "", "street_name": "blackburn road", "unit_num": "1", "city": null, "state": null, "zip_code": "15143"}, "match": {"house_number": "601", "house_number_suffix": "", "street_name": "blackburn road", "unit_num": "", "city": null, "state": null, "zip_code": "15143"}, "unit_num": "1"}, {"universe": {"house_number": "2644", "house_number_suffix": "", "street_name": "weinman road", "unit_num": "", "city": null, "state": null, "zip_code": "15090"}, "match": {}}, {"universe": {"house_number": "415", "house_number_suffix": "", "street_name": "centennial avenue", "unit_num": "1", "city": null, "state": null, "zip_code": "15143"}, "match": {"house_number": "415", "house_number_suffix": "", "street_name": "centennial avenue", "unit_num": "", "city": null, "state": null, "zip_code": "15143"}, "unit_num": "1"}, {"universe": {"house_number": "3050", "house_number_suffix": "", "street_name": "scottish rite lane", "unit_num": "LN", "city": null, "state": null, "zip_code": "15143"}, "match": {"house_number": "3050", "house_number_suffix": "", "street_name": "scottish rite lane", "unit_num": "", "city": null, "state": null, "zip_code": "15143"}, "unit_num": ""}, {"universe": {"house_number": "219", "house_number_suffix": "", "street_name": "beaver street", "unit_num": "3B", "city": null, "state": null, "zip_code": "15143"}, "match": {"house_number": "219", "house_number_suffix": "", "street_name": "beaver street", "unit_num": "", "city": null, "state": null, "zip_code": "15143"}, "unit_num": "3B"}, {"universe": {"house_number": "142", "house_number_suffix": "", "street_name": "beaver st e street", "unit_num": "", "city": null, "state": null, "zip_code": "15143"}, "match": {"house_number": "142", "house_number_suffix": "", "street_name": "e beaver street", "unit_num": "", "city": null, "state": null, "zip_code": "15143"}, "unit_num": ""}, {"universe": {"house_number": "178", "house_number_suffix": "1/2", "street_name": "beaver st e street", "unit_num": "", "city": null, "state": null, "zip_code": "15143"}, "match": {"house_number": "178", "house_number_suffix": "1/2", "street_name": "e beaver street", "unit_num": "", "city": null, "state": null, "zip_code": "15143"}, "unit_num": ""}, {"universe": {"house_number": "502", "house_number_suffix": "", "street_name": "woodland road", "unit_num": "", "city": null, "state": null, "zip_code": "15143"}, "match": {"house_number": "502", "house_number_suffix": "", "street_name": "woodland road extension", "unit_num": "", "city": null, "state": null, "zip_code": "15143"}, "unit_num": ""}, {"universe": {"house_number": "2491", "house_number_suffix": "", "street_name": "wexford run road", "unit_num": "ROAD", "city": null, "state": null, "zip_code": "15090"}, "match": {"house_number": "2491", "house_number_suffix": "", "street_name": "wexford run road", "unit_num": "", "city": null, "state": null, "zip_code": "15090"}, "unit_num": ""}, {"universe": {"house_number": "2594", "house_number_suffix": "", "street_name": "hunters point ct n court", "unit_num": "", "city": null, "state": null, "zip_code": "15090"}, "match": {"house_number": "2594", "house_number_suffix": "", "street_name": "hunters point court", "unit_num": "", "city": null, "state": null, "zip_code": "15090"}, "unit_num": ""}, {"universe": {"house_number": "141", "house_number_suffix": "", "street_name": "grove st extension", "unit_num": "", "city": null, "state": null, "zip_code": "15143"}, "match": {"house_number": "141", "house_number_suffix": "", "street_name": "grove street extension", "unit_num": "", "city": null, "state": null, "zip_code": "15143"}, "unit_num": ""}, {"universe": {"house_number": "326", "house_number_suffix": "", "street_name": "chestnut street", "unit_num": "3", "city": null, "state": null, "zip_code": "15143"}, "match": {"house_number": "326", "house_number_suffix": "", "street_name": "chestnut street", "unit_num": "", "city": null, "state": null, "zip_code": "15143"}, "unit_num": "3"}, {"universe": {"house_number": "5", "house_number_suffix": "", "street_name": "lee road", "unit_num": "", "city": null, "state": null, "zip_code": "15143"}, "match": {}}, {"universe": {"house_number": "1531", "house_number_suffix": "", "street_name": "robertson road", "unit_num": "", "city": null, "state": null, "zip_code": "15237"}, "match": {"house_number": "1531", "house_number_suffix": "", "street_name": "robertson drive", "unit_num": "", "city": null, "state": null, "zip_code": "15237"}, "unit_num": ""}, {"universe": {"house_number": "2381", "house_number_suffix": "", "street_name": "fairhill farms", "unit_num": "", "city": null, "state": null, "zip_code": "15143"}, "match": {"house_number": "2381", "house_number_suffix": "", "street_name": "fairhill farms road", "unit_num": "", "city": null, "state": null, "zip_code": "15143"}, "unit_num": ""}, {"universe": {"house_number": "2597", "house_number_suffix": "", "street_name": "hunters point ct s court", "unit_num": "", "city": null, "state": null, "zip_code": "15090"}, "match": {"house_number": "2597", "house_number_suffix": "", "street_name": "hunters point court", "unit_num": "", "city": null, "state": null, "zip_code": "15090"}, "unit_num": ""}, {"universe": {"house_number": "1026", "house_number_suffix": "", "street_name": "masonic drive", "unit_num": "", "city": null, "state": null, "zip_code": "15143"}, "match": "DNE"}, {"universe": {"house_number": "2223", "house_number_suffix": "", "street_name": "huntington ct n court", "unit_num": "", "city": null, "state": null, "zip_code": "15090"}, "match": {"house_number": "2223", "house_number_suffix": "", "street_name": "huntington court", "unit_num": "", "city": null, "state": null, "zip_code": "15090"}, "unit_num": ""}, {"universe": {"house_number": "2658", "house_number_suffix": "", "street_name": "timberglen dr w drive", "unit_num": "", "city": null, "state": null, "zip_code": "15090"}, "match": {"house_number": "2658", "house_number_suffix": "", "street_name": "timberglen west drive", "unit_num": "", "city": null, "state": null, "zip_code": "15090"}, "unit_num": ""}, {"universe": {"house_number": "824", "house_number_suffix": "", "street_name": "ohio river boulevard", "unit_num": "C7", "city": null, "state": null, "zip_code": "15143"}, "match": {"house_number": "824", "house_number_suffix": "", "street_name": "ohio river boulevard", "unit_num": "", "city": null, "state": null, "zip_code": "15143"}, "unit_num": "C7"}, {"universe": {"house_number": "1556", "house_number_suffix": "", "street_name": "ingomar rd w road", "unit_num": "", "city": null, "state": null, "zip_code": "15237"}, "match": {"house_number": "1556", "house_number_suffix": "", "street_name": "w ingomar road", "unit_num": "", "city": null, "state": null, "zip_code": "15237"}, "unit_num": ""}, {"universe": {"house_number": "426", "house_number_suffix": "1/2", "street_name": "oliver road", "unit_num": "", "city": null, "state": null, "zip_code": "15143"}, "match": {}}, {"universe": {"house_number": "2578", "house_number_suffix": "", "street_name": "hunters point ct n court", "unit_num": "", "city": null, "state": null, "zip_code": "15090"}, "match": {"house_number": "2578", "house_number_suffix": "", "street_name": "hunters point court", "unit_num": "", "city": null, "state": null, "zip_code": "15090"}, "unit_num": ""}, {"universe": {"house_number": "2575", "house_number_suffix": "", "street_name": "grouse ridge", "unit_num": "", "city": null, "state": null, "zip_code": "15090"}, "match": {"house_number": "2575", "house_number_suffix": "A", "street_name": "grouse ridge", "unit_num": "", "city": null, "state": null, "zip_code": "15090"}, "unit_num": ""}, {"universe": {"house_number": "289", "house_number_suffix": "", "street_name": "dawson street", "unit_num": "", "city": null, "state": null, "zip_code": "15143"}, "match": {"house_number": "289", "house_number_suffix": "", "street_name": "dawson avenue", "unit_num": "", "city": null, "state": null, "zip_code": "15143"}, "unit_num": ""}, {"universe": {"house_number": "511", "house_number_suffix": "", "street_name": "rabbit hill road", "unit_num": "", "city": null, "state": null, "zip_code": "15143"}, "match": {"house_number": "511", "house_number_suffix": "", "street_name": "rabbit hill", "unit_num": "", "city": null, "state": null, "zip_code": "15143"}, "unit_num": ""}, {"universe": {"house_number": "1501", "house_number_suffix": "", "street_name": "scarlet oak court", "unit_num": "", "city": null, "state": null, "zip_code": "15090"}, "match": {"house_number": "1501", "house_number_suffix": "", "street_name": "scarlet oak drive", "unit_num": "", "city": null, "state": null, "zip_code": "15090"}, "unit_num": ""}, {"universe": {"house_number": "1804", "house_number_suffix": "", "street_name": "waterleaf drive", "unit_num": "", "city": null, "state": null, "zip_code": "15143"}, "match": {"house_number": "1804", "house_number_suffix": "", "street_name": "waterleaf court", "unit_num": "", "city": null, "state": null, "zip_code": "15143"}, "unit_num": ""}, {"universe": {"house_number": "129", "house_number_suffix": "", "street_name": "fairmont church drive", "unit_num": "", "city": null, "state": null, "zip_code": "15143"}, "match": "DNE"}, {"universe": {"house_number": "2113", "house_number_suffix": "", "street_name": "huntington ct s court", "unit_num": "", "city": null, "state": null, "zip_code": "15090"}, "match": {"house_number": "2113", "house_number_suffix": "", "street_name": "huntington court", "unit_num": "", "city": null, "state": null, "zip_code": "15090"}, "unit_num": ""}, {"universe": {"house_number": "2580", "house_number_suffix": "", "street_name": "grouse ridge", "unit_num": "A", "city": null, "state": null, "zip_code": "15090"}, "match": {"house_number": "2580", "house_number_suffix": "A", "street_name": "grouse ridge", "unit_num": "", "city": null, "state": null, "zip_code": "15090"}, "unit_num": "A"}, {"universe": {"house_number": "308", "house_number_suffix": "", "street_name": "chaucer ct n court", "unit_num": "", "city": null, "state": null, "zip_code": "15143"}, "match": {"house_number": "308", "house_number_suffix": "", "street_name": "chaucer court", "unit_num": "", "city": null, "state": null, "zip_code": "15143"}, "unit_num": ""}, {"universe": {"house_number": "194", "house_number_suffix": "", "street_name": "witherow rd ext road", "unit_num": "", "city": null, "state": null, "zip_code": "15143"}, "match": {"house_number": "194", "house_number_suffix": "", "street_name": "witherow road extension", "unit_num": "", "city": null, "state": null, "zip_code": "15143"}, "unit_num": ""}, {"universe": {"house_number": "3038", "house_number_suffix": "", "street_name": "scottish rite lane", "unit_num": "LN", "city": null, "state": null, "zip_code": "15143"}, "match": {"house_number": "3038", "house_number_suffix": "", "street_name": "scottish rite lane", "unit_num": "", "city": null, "state": null, "zip_code": "15143"}, "unit_num": ""}, {"universe": {"house_number": "2491", "house_number_suffix": "", "street_name": "pleughal road", "unit_num": "", "city": null, "state": null, "zip_code": "15143"}, "match": {}}, {"universe": {"house_number": "2657", "house_number_suffix": "", "street_name": "timberglen dr e drive", "unit_num": "", "city": null, "state": null, "zip_code": "15090"}, "match": {"house_number": "2657", "house_number_suffix": "", "street_name": "timberglen drive", "unit_num": "", "city": null, "state": null, "zip_code": "15090"}, "unit_num": ""}, {"universe": {"house_number": "2574", "house_number_suffix": "", "street_name": "hunters point ct n court", "unit_num": "", "city": null, "state": null, "zip_code": "15090"}, "match": {"house_number": "2574", "house_number_suffix": "", "street_name": "hunters point court", "unit_num": "", "city": null, "state": null, "zip_code": "15090"}, "unit_num": ""}, {"universe": {"house_number": "1412", "house_number_suffix": "", "street_name": "shevlin ct n court", "unit_num": "", "city": null, "state": null, "zip_code": "15143"}, "match": {"house_number": "1412", "house_number_suffix": "", "street_name": "north shevlin court", "unit_num": "", "city": null, "state": null, "zip_code": "15143"}, "unit_num": ""}, {"universe": {"house_number": "95", "house_number_suffix": "", "street_name": "pink house road", "unit_num": "", "city": null, "state": null, "zip_code": "15143"}, "match": {"house_number": "95", "house_number_suffix": "", "street_name": "pink house lane", "unit_num": "", "city": null, "state": null, "zip_code": "15143"}, "unit_num": ""}, {"universe": {"house_number": "1521", "house_number_suffix": "A", "street_name": "ingomar rd w road", "unit_num": "", "city": null, "state": null, "zip_code": "15237"}, "match": {"house_number": "1521", "house_number_suffix": "A", "street_name": "w ingomar road", "unit_num": "", "city": null, "state": null, "zip_code": "15237"}, "unit_num": ""}, {"universe": {"house_number": "220", "house_number_suffix": "", "street_name": "graham street", "unit_num": "2", "city": null, "state": null, "zip_code": "15143"}, "match": {"house_number": "220", "house_number_suffix": "", "street_name": "graham street", "unit_num": "", "city": null, "state": null, "zip_code": "15143"}, "unit_num": "2"}, {"universe": {"house_number": "1425", "house_number_suffix": "", "street_name": "shevlin ct n court", "unit_num": "", "city": null, "state": null, "zip_code": "15143"}, "match": {"house_number": "1425", "house_number_suffix": "", "street_name": "north shevlin court", "unit_num": "", "city": null, "state": null, "zip_code": "15143"}, "unit_num": ""}, {"universe": {"house_number": "2606", "house_number_suffix": "", "street_name": "big sewickley creek road", "unit_num": "", "city": null, "state": null, "zip_code": "15143"}, "match": {"house_number": "2606", "house_number_suffix": "", "street_name": "big sewickley creek road", "unit_num": "", "city": null, "state": null, "zip_code": "15143"}, "unit_num": ""}, {"universe": {"house_number": "105", "house_number_suffix": "", "street_name": "william penn circle", "unit_num": "CIR", "city": null, "state": null, "zip_code": "15143"}, "match": {"house_number": "105", "house_number_suffix": "", "street_name": "william penn circle", "unit_num": "", "city": null, "state": null, "zip_code": "15143"}, "unit_num": ""}, {"universe": {"house_number": "912", "house_number_suffix": "", "street_name": "sewickley heights drive", "unit_num": "DR", "city": null, "state": null, "zip_code": "15143"}, "match": {"house_number": "912", "house_number_suffix": "", "street_name": "sewickley heights drive", "unit_num": "", "city": null, "state": null, "zip_code": "15143"}, "unit_num": ""}, {"universe": {"house_number": "1521", "house_number_suffix": "", "street_name": "ingomar rd w road", "unit_num": "", "city": null, "state": null, "zip_code": "15237"}, "match": {"house_number": "1521", "house_number_suffix": "", "street_name": "w ingomar road", "unit_num": "", "city": null, "state": null, "zip_code": "15237"}, "unit_num": ""}, {"universe": {"house_number": "1548", "house_number_suffix": "", "street_name": "ingomar rd w road", "unit_num": "", "city": null, "state": null, "zip_code": "15237"}, "match": {"house_number": "1548", "house_number_suffix": "", "street_name": "w ingomar road", "unit_num": "", "city": null, "state": null, "zip_code": "15237"}, "unit_num": ""}, {"universe": {"house_number": "541", "house_number_suffix": "", "street_name": "redgate road", "unit_num": "", "city": null, "state": null, "zip_code": "15143"}, "match": {"house_number": "541", "house_number_suffix": "", "street_name": "redgate road", "unit_num": "", "city": null, "state": null, "zip_code": "15143"}, "unit_num": ""}, {"universe": {"house_number": "208", "house_number_suffix": "", "street_name": "rolling hills drive", "unit_num": "DR", "city": null, "state": null, "zip_code": "15143"}, "match": {"house_number": "208", "house_number_suffix": "", "street_name": "rolling hills drive", "unit_num": "", "city": null, "state": null, "zip_code": "15143"}, "unit_num": ""}, {"universe": {"house_number": "2483", "house_number_suffix": "", "street_name": "pleughal road", "unit_num": "", "city": null, "state": null, "zip_code": "15143"}, "match": {}}, {"universe": {"house_number": "51", "house_number_suffix": "", "street_name": "timberhill drive", "unit_num": "", "city": null, "state": null, "zip_code": "15143"}, "match": {"house_number": "51", "house_number_suffix": "", "street_name": "timberhill drive", "unit_num": "", "city": null, "state": null, "zip_code": "15143"}, "unit_num": ""}, {"universe": {"house_number": "663", "house_number_suffix": "", "street_name": "little sewickley creek road", "unit_num": "RD", "city": null, "state": null, "zip_code": "15143"}, "match": {"house_number": "663", "house_number_suffix": "", "street_name": "little sewickley creek road", "unit_num": "", "city": null, "state": null, "zip_code": "15143"}, "unit_num": ""}, {"universe": {"house_number": "1414", "house_number_suffix": "", "street_name": "shevlin ct n court", "unit_num": "", "city": null, "state": null, "zip_code": "15143"}, "match": {"house_number": "1414", "house_number_suffix": "", "street_name": "north shevlin court", "unit_num": "", "city": null, "state": null, "zip_code": "15143"}, "unit_num": ""}, {"universe": {"house_number": "142", "house_number_suffix": "", "street_name": "beaver st e street", "unit_num": "", "city": null, "state": null, "zip_code": "15143"}, "match": {"house_number": "142", "house_number_suffix": "", "street_name": "e beaver street", "unit_num": "", "city": null, "state": null, "zip_code": "15143"}, "unit_num": ""}, {"universe": {"house_number": "743", "house_number_suffix": "", "street_name": "fern hollow road", "unit_num": "68", "city": null, "state": null, "zip_code": "15143"}, "match": {"house_number": "743", "house_number_suffix": "", "street_name": "fern hollow road", "unit_num": "", "city": null, "state": null, "zip_code": "15143"}, "unit_num": "68"}, {"universe": {"house_number": "698", "house_number_suffix": "", "street_name": "little sewickley creek road", "unit_num": "RD", "city": null, "state": null, "zip_code": "15143"}, "match": {"house_number": "698", "house_number_suffix": "", "street_name": "little sewickley creek road", "unit_num": "", "city": null, "state": null, "zip_code": "15143"}, "unit_num": ""}, {"universe": {"house_number": "5", "house_number_suffix": "", "street_name": "crescent ave extension", "unit_num": "A", "city": null, "state": null, "zip_code": "15143"}, "match": {"house_number": "5", "house_number_suffix": "", "street_name": "crescent avenue extension", "unit_num": "", "city": null, "state": null, "zip_code": "15143"}, "unit_num": "A"}, {"universe": {"house_number": "122", "house_number_suffix": "", "street_name": "beaver st e street", "unit_num": "", "city": null, "state": null, "zip_code": "15143"}, "match": {"house_number": "122", "house_number_suffix": "", "street_name": "e beaver street", "unit_num": "", "city": null, "state": null, "zip_code": "15143"}, "unit_num": ""}, {"universe": {"house_number": "2456", "house_number_suffix": "", "street_name": "nicholson road", "unit_num": "", "city": null, "state": null, "zip_code": "15143"}, "match": {}}, {"universe": {"house_number": "2117", "house_number_suffix": "", "street_name": "reis run road", "unit_num": "RD", "city": null, "state": null, "zip_code": "15237"}, "match": {"house_number": "2117", "house_number_suffix": "", "street_name": "reis run road", "unit_num": "", "city": null, "state": null, "zip_code": "15237"}, "unit_num": ""}, {"universe": {"house_number": "293", "house_number_suffix": "", "street_name": "dawson street", "unit_num": "", "city": null, "state": null, "zip_code": "15143"}, "match": {"house_number": "293", "house_number_suffix": "", "street_name": "dawson avenue", "unit_num": "", "city": null, "state": null, "zip_code": "15143"}, "unit_num": ""}, {"universe": {"house_number": "1535", "house_number_suffix": "", "street_name": "robertson road", "unit_num": "", "city": null, "state": null, "zip_code": "15237"}, "match": {"house_number": "1535", "house_number_suffix": "", "street_name": "robertson drive", "unit_num": "", "city": null, "state": null, "zip_code": "15237"}, "unit_num": ""}, {"universe": {"house_number": "0", "house_number_suffix": "", "street_name": "quaker hollow road", "unit_num": "", "city": null, "state": null, "zip_code": "15143"}, "match": "DNE"}, {"universe": {"house_number": "2593", "house_number_suffix": "", "street_name": "hunters point ct s court", "unit_num": "", "city": null, "state": null, "zip_code": "15090"}, "match": {"house_number": "2593", "house_number_suffix": "", "street_name": "hunters point court", "unit_num": "", "city": null, "state": null, "zip_code": "15090"}, "unit_num": ""}, {"universe": {"house_number": "2711", "house_number_suffix": "", "street_name": "timberglen dr w drive", "unit_num": "", "city": null, "state": null, "zip_code": "15090"}, "match": {"house_number": "2711", "house_number_suffix": "", "street_name": "timberglen west drive", "unit_num": "", "city": null, "state": null, "zip_code": "15090"}, "unit_num": ""}, {"universe": {"house_number": "277", "house_number_suffix": "", "street_name": "scaife road", "unit_num": "", "city": null, "state": null, "zip_code": "15143"}, "match": {"house_number": "277", "house_number_suffix": "", "street_name": "scaife road", "unit_num": "", "city": null, "state": null, "zip_code": "15143"}, "unit_num": ""}, {"universe": {"house_number": "3053", "house_number_suffix": "", "street_name": "scottish rite lane", "unit_num": "LN", "city": null, "state": null, "zip_code": "15143"}, "match": {"house_number": "3053", "house_number_suffix": "", "street_name": "scottish rite lane", "unit_num": "", "city": null, "state": null, "zip_code": "15143"}, "unit_num": ""}, {"universe": {"house_number": "315", "house_number_suffix": "", "street_name": "scaife road", "unit_num": "", "city": null, "state": null, "zip_code": "15143"}, "match": {}}, {"universe": {"house_number": "3053", "house_number_suffix": "", "street_name": "scottish rite lane", "unit_num": "LN", "city": null, "state": null, "zip_code": "15143"}, "match": {"house_number": "3053", "house_number_suffix": "", "street_name": "scottish rite lane", "unit_num": "", "city": null, "state": null, "zip_code": "15143"}, "unit_num": ""}, {"universe": {"house_number": "201", "house_number_suffix": "", "street_name": "grant street", "unit_num": "PH2", "city": null, "state": null, "zip_code": "15143"}, "match": {"house_number": "201", "house_number_suffix": "", "street_name": "grant street", "unit_num": "", "city": null, "state": null, "zip_code": "15143"}, "unit_num": "PH2"}, {"universe": {"house_number": "51", "house_number_suffix": "", "street_name": "timberhill drive", "unit_num": "", "city": null, "state": null, "zip_code": "15143"}, "match": {"house_number": "51", "house_number_suffix": "", "street_name": "timberhill drive", "unit_num": "", "city": null, "state": null, "zip_code": "15143"}, "unit_num": ""}, {"universe": {"house_number": "118", "house_number_suffix": "", "street_name": "sewickley ridge circle", "unit_num": "CIR", "city": null, "state": null, "zip_code": "15143"}, "match": {"house_number": "118", "house_number_suffix": "", "street_name": "sewickley ridge circle", "unit_num": "", "city": null, "state": null, "zip_code": "15143"}, "unit_num": ""}, {"universe": {"house_number": "720", "house_number_suffix": "", "street_name": "maple lane", "unit_num": "R", "city": null, "state": null, "zip_code": "15143"}, "match": {"house_number": "720", "house_number_suffix": "", "street_name": "maple lane", "unit_num": "", "city": null, "state": null, "zip_code": "15143"}, "unit_num": "R"}, {"universe": {"house_number": "68", "house_number_suffix": "", "street_name": "south avenue", "unit_num": "1", "city": null, "state": null, "zip_code": "15143"}, "match": {"house_number": "68", "house_number_suffix": "", "street_name": "south avenue", "unit_num": "", "city": null, "state": null, "zip_code": "15143"}, "unit_num": "1"}, {"universe": {"house_number": "2597", "house_number_suffix": "", "street_name": "hunters point ct s court", "unit_num": "", "city": null, "state": null, "zip_code": "15090"}, "match": {"house_number": "2597", "house_number_suffix": "", "street_name": "hunters point court", "unit_num": "", "city": null, "state": null, "zip_code": "15090"}, "unit_num": ""}, {"universe": {"house_number": "111", "house_number_suffix": "", "street_name": "grove st extension", "unit_num": "", "city": null, "state": null, "zip_code": "15143"}, "match": {"house_number": "111", "house_number_suffix": "", "street_name": "grove street extension", "unit_num": "", "city": null, "state": null, "zip_code": "15143"}, "unit_num": ""}, {"universe": {"house_number": "2508", "house_number_suffix": "", "street_name": "fairmont church drive", "unit_num": "", "city": null, "state": null, "zip_code": "15143"}, "match": {"house_number": "2508", "house_number_suffix": "", "street_name": "fairmount church road", "unit_num": "", "city": null, "state": null, "zip_code": "15143"}, "unit_num": ""}, {"universe": {"house_number": "85", "house_number_suffix": "", "street_name": "pink house road", "unit_num": "", "city": null, "state": null, "zip_code": "15143"}, "match": {"house_number": "85", "house_number_suffix": "", "street_name": "pink house lane", "unit_num": "", "city": null, "state": null, "zip_code": "15143"}, "unit_num": ""}, {"universe": {"house_number": "132", "house_number_suffix": "", "street_name": "mccoy place road", "unit_num": "", "city": null, "state": null, "zip_code": "15143"}, "match": {}}, {"universe": {"house_number": "1515", "house_number_suffix": "", "street_name": "fox chase drive", "unit_num": "DR", "city": null, "state": null, "zip_code": "15143"}, "match": {"house_number": "1515", "house_number_suffix": "", "street_name": "fox chase drive", "unit_num": "", "city": null, "state": null, "zip_code": "15143"}, "unit_num": ""}, {"universe": {"house_number": "846", "house_number_suffix": "", "street_name": "dixon st or road", "unit_num": "", "city": null, "state": null, "zip_code": "15143"}, "match": "DNE"}, {"universe": {"house_number": "194", "house_number_suffix": "", "street_name": "witherow rd ext road", "unit_num": "", "city": null, "state": null, "zip_code": "15143"}, "match": {"house_number": "194", "house_number_suffix": "", "street_name": "witherow road extension", "unit_num": "", "city": null, "state": null, "zip_code": "15143"}, "unit_num": ""}, {"universe": {"house_number": "2590", "house_number_suffix": "", "street_name": "hunters point ct n court", "unit_num": "", "city": null, "state": null, "zip_code": "15090"}, "match": {"house_number": "2590", "house_number_suffix": "", "street_name": "hunters point court", "unit_num": "", "city": null, "state": null, "zip_code": "15090"}, "unit_num": ""}, {"universe": {"house_number": "2536", "house_number_suffix": "", "street_name": "law ln e lane", "unit_num": "", "city": null, "state": null, "zip_code": "15143"}, "match": {"house_number": "2536", "house_number_suffix": "", "street_name": "law lane", "unit_num": "", "city": null, "state": null, "zip_code": "15143"}, "unit_num": ""}, {"universe": {"house_number": "2159", "house_number_suffix": "", "street_name": "huntington ct s court", "unit_num": "", "city": null, "state": null, "zip_code": "15090"}, "match": {"house_number": "2159", "house_number_suffix": "", "street_name": "huntington court", "unit_num": "", "city": null, "state": null, "zip_code": "15090"}, "unit_num": ""}, {"universe": {"house_number": "2593", "house_number_suffix": "", "street_name": "hunters point ct s court", "unit_num": "", "city": null, "state": null, "zip_code": "15090"}, "match": {"house_number": "2593", "house_number_suffix": "", "street_name": "hunters point court", "unit_num": "", "city": null, "state": null, "zip_code": "15090"}, "unit_num": ""}, {"universe": {"house_number": "2347", "house_number_suffix": "", "street_name": "ingomar rd w road", "unit_num": "", "city": null, "state": null, "zip_code": "15237"}, "match": {"house_number": "2347", "house_number_suffix": "", "street_name": "w ingomar road", "unit_num": "", "city": null, "state": null, "zip_code": "15237"}, "unit_num": ""}, {"universe": {"house_number": "109", "house_number_suffix": "", "street_name": "little glen lane", "unit_num": "", "city": null, "state": null, "zip_code": "15143"}, "match": {"house_number": "109", "house_number_suffix": "", "street_name": "little glen drive", "unit_num": "", "city": null, "state": null, "zip_code": "15143"}, "unit_num": ""}, {"universe": {"house_number": "2598", "house_number_suffix": "", "street_name": "hunters point ct n court", "unit_num": "", "city": null, "state": null, "zip_code": "15090"}, "match": {"house_number": "2598", "house_number_suffix": "", "street_name": "hunters point court", "unit_num": "", "city": null, "state": null, "zip_code": "15090"}, "unit_num": ""}, {"universe": {"house_number": "1415", "house_number_suffix": "", "street_name": "shevlin ct n court", "unit_num": "", "city": null, "state": null, "zip_code": "15143"}, "match": {"house_number": "1415", "house_number_suffix": "", "street_name": "north shevlin court", "unit_num": "", "city": null, "state": null, "zip_code": "15143"}, "unit_num": ""}, {"universe": {"house_number": "2411", "house_number_suffix": "", "street_name": "brandt school road", "unit_num": "", "city": null, "state": null, "zip_code": "15090"}, "match": {"house_number": "2411", "house_number_suffix": "", "street_name": "brandt school road", "unit_num": "", "city": null, "state": null, "zip_code": "15237"}, "unit_num": ""}, {"universe": {"house_number": "2463", "house_number_suffix": "", "street_name": "henry road", "unit_num": "", "city": null, "state": null, "zip_code": "15143"}, "match": {"house_number": "2463", "house_number_suffix": "", "street_name": "henry lane", "unit_num": "", "city": null, "state": null, "zip_code": "15143"}, "unit_num": ""}, {"universe": {"house_number": "497", "house_number_suffix": "", "street_name": "scaife road", "unit_num": "", "city": null, "state": null, "zip_code": "15143"}, "match": "DNE"}, {"universe": {"house_number": "0", "house_number_suffix": "", "street_name": "stonedale road", "unit_num": "", "city": null, "state": null, "zip_code": "15143"}, "match": "DNE"}, {"universe": {"house_number": "1523", "house_number_suffix": "", "street_name": "ingomar rd w road", "unit_num": "", "city": null, "state": null, "zip_code": "15237"}, "match": {"house_number": "1523", "house_number_suffix": "", "street_name": "w ingomar road", "unit_num": "", "city": null, "state": null, "zip_code": "15237"}, "unit_num": ""}, {"universe": {"house_number": "39", "house_number_suffix": "", "street_name": "timberhill drive", "unit_num": "", "city": null, "state": null, "zip_code": "15143"}, "match": {"house_number": "39", "house_number_suffix": "", "street_name": "timberhill drive", "unit_num": "", "city": null, "state": null, "zip_code": "15143"}, "unit_num": ""}, {"universe": {"house_number": "1536", "house_number_suffix": "", "street_name": "ingomar rd w road", "unit_num": "", "city": null, "state": null, "zip_code": "15237"}, "match": {"house_number": "1536", "house_number_suffix": "", "street_name": "w ingomar road", "unit_num": "", "city": null, "state": null, "zip_code": "15237"}, "unit_num": ""}, {"universe": {"house_number": "2570", "house_number_suffix": "A", "street_name": "pheasant run", "unit_num": "DR", "city": null, "state": null, "zip_code": "15090"}, "match": {"house_number": "2570", "house_number_suffix": "A", "street_name": "pheasant run", "unit_num": "", "city": null, "state": null, "zip_code": "15090"}, "unit_num": ""}, {"universe": {"house_number": "1423", "house_number_suffix": "", "street_name": "scarlett ridge drive", "unit_num": "DR", "city": null, "state": null, "zip_code": "15237"}, "match": {"house_number": "1423", "house_number_suffix": "", "street_name": "scarlett ridge drive", "unit_num": "", "city": null, "state": null, "zip_code": "15237"}, "unit_num": ""}, {"universe": {"house_number": "2643", "house_number_suffix": "", "street_name": "black oak court", "unit_num": "CT", "city": null, "state": null, "zip_code": "15090"}, "match": {"house_number": "2643", "house_number_suffix": "", "street_name": "black oak court", "unit_num": "", "city": null, "state": null, "zip_code": "15090"}, "unit_num": ""}, {"universe": {"house_number": "1533", "house_number_suffix": "", "street_name": "ingomar hgts road", "unit_num": "RD", "city": null, "state": null, "zip_code": "15237"}, "match": {"house_number": "1533", "house_number_suffix": "", "street_name": "ingomar heights road", "unit_num": "", "city": null, "state": null, "zip_code": "15237"}, "unit_num": ""}, {"universe": {"house_number": "5", "house_number_suffix": "", "street_name": "crescent ave extension", "unit_num": "A", "city": null, "state": null, "zip_code": "15143"}, "match": {"house_number": "5", "house_number_suffix": "", "street_name": "crescent avenue extension", "unit_num": "", "city": null, "state": null, "zip_code": "15143"}, "unit_num": "A"}, {"universe": {"house_number": "2400", "house_number_suffix": "W", "street_name": "wedgewood drive", "unit_num": "", "city": null, "state": null, "zip_code": "15090"}, "match": {"house_number": "2400", "house_number_suffix": "", "street_name": "wedgewood drive", "unit_num": "", "city": null, "state": null, "zip_code": "15090"}, "unit_num": ""}, {"universe": {"house_number": "2121", "house_number_suffix": "", "street_name": "huntington ct s court", "unit_num": "", "city": null, "state": null, "zip_code": "15090"}, "match": {"house_number": "2121", "house_number_suffix": "", "street_name": "huntington court", "unit_num": "", "city": null, "state": null, "zip_code": "15090"}, "unit_num": ""}, {"universe": {"house_number": "2506", "house_number_suffix": "", "street_name": "phyllis lane", "unit_num": "", "city": null, "state": null, "zip_code": "15090"}, "match": {"house_number": "2506", "house_number_suffix": "", "street_name": "phyllis drive", "unit_num": "", "city": null, "state": null, "zip_code": "15090"}, "unit_num": ""}, {"universe": {"house_number": "2669", "house_number_suffix": "", "street_name": "timberglen dr e drive", "unit_num": "", "city": null, "state": null, "zip_code": "15090"}, "match": {"house_number": "2669", "house_number_suffix": "", "street_name": "timberglen east drive", "unit_num": "", "city": null, "state": null, "zip_code": "15090"}, "unit_num": ""}, {"universe": {"house_number": "3050", "house_number_suffix": "", "street_name": "scottish rite lane", "unit_num": "LN", "city": null, "state": null, "zip_code": "15143"}, "match": {"house_number": "3050", "house_number_suffix": "", "street_name": "scottish rite lane", "unit_num": "", "city": null, "state": null, "zip_code": "15143"}, "unit_num": ""}, {"universe": {"house_number": "2316", "house_number_suffix": "", "street_name": "masonic drive", "unit_num": "2316", "city": null, "state": null, "zip_code": "15143"}, "match": {"house_number": "2316", "house_number_suffix": "", "street_name": "masonic drive", "unit_num": "", "city": null, "state": null, "zip_code": "15143"}, "unit_num": "2316"}, {"universe": {"house_number": "2464", "house_number_suffix": "", "street_name": "henry road", "unit_num": "", "city": null, "state": null, "zip_code": "15143"}, "match": {"house_number": "2464", "house_number_suffix": "", "street_name": "henry lane", "unit_num": "", "city": null, "state": null, "zip_code": "15143"}, "unit_num": ""}, {"universe": {"house_number": "277", "house_number_suffix": "", "street_name": "dawson street", "unit_num": "", "city": null, "state": null, "zip_code": "15143"}, "match": {"house_number": "277", "house_number_suffix": "", "street_name": "dawson avenue", "unit_num": "", "city": null, "state": null, "zip_code": "15143"}, "unit_num": ""}, {"universe": {"house_number": "2352", "house_number_suffix": "", "street_name": "masonic drive", "unit_num": "7", "city": null, "state": null, "zip_code": "15143"}, "match": {"house_number": "2352", "house_number_suffix": "", "street_name": "masonic drive", "unit_num": "", "city": null, "state": null, "zip_code": "15143"}, "unit_num": "7"}, {"universe": {"house_number": "1563", "house_number_suffix": "", "street_name": "ingomar rd w road", "unit_num": "", "city": null, "state": null, "zip_code": "15237"}, "match": {"house_number": "1563", "house_number_suffix": "", "street_name": "w ingomar road", "unit_num": "", "city": null, "state": null, "zip_code": "15237"}, "unit_num": ""}, {"universe": {"house_number": "2328", "house_number_suffix": "", "street_name": "haven hill road", "unit_num": "RD", "city": null, "state": null, "zip_code": "15143"}, "match": {"house_number": "2328", "house_number_suffix": "", "street_name": "haven hill road", "unit_num": "", "city": null, "state": null, "zip_code": "15143"}, "unit_num": ""}, {"universe": {"house_number": "1514", "house_number_suffix": "", "street_name": "ingomar rd w road", "unit_num": "", "city": null, "state": null, "zip_code": "15237"}, "match": {"house_number": "1514", "house_number_suffix": "", "street_name": "w ingomar road", "unit_num": "", "city": null, "state": null, "zip_code": "15237"}, "unit_num": ""}, {"universe": {"house_number": "168", "house_number_suffix": "", "street_name": "mccoy place road", "unit_num": "", "city": null, "state": null, "zip_code": "15143"}, "match": {}}, {"universe": {"house_number": "1036", "house_number_suffix": "", "street_name": "masonic drive", "unit_num": "1223", "city": null, "state": null, "zip_code": "15143"}, "match": "DNE"}, {"universe": {"house_number": "5", "house_number_suffix": "", "street_name": "thawmont road", "unit_num": "", "city": null, "state": null, "zip_code": "15143"}, "match": {"house_number": "5", "house_number_suffix": "", "street_name": "thawmont drive", "unit_num": "", "city": null, "state": null, "zip_code": "15143"}, "unit_num": ""}, {"universe": {"house_number": "2590", "house_number_suffix": "", "street_name": "hunters point ct n court", "unit_num": "", "city": null, "state": null, "zip_code": "15090"}, "match": {"house_number": "2590", "house_number_suffix": "", "street_name": "hunters point court", "unit_num": "", "city": null, "state": null, "zip_code": "15090"}, "unit_num": ""}, {"universe": {"house_number": "200", "house_number_suffix": "", "street_name": "chaucer ct s court", "unit_num": "", "city": null, "state": null, "zip_code": "15143"}, "match": {"house_number": "200", "house_number_suffix": "", "street_name": "chaucer court", "unit_num": "", "city": null, "state": null, "zip_code": "15143"}, "unit_num": ""}, {"universe": {"house_number": "", "house_number_suffix": "", "street_name": "water works road", "unit_num": "", "city": null, "state": null, "zip_code": "15143"}, "match": "DNE"}, {"universe": {"house_number": "2392", "house_number_suffix": "", "street_name": "charles wray drive", "unit_num": "DR", "city": null, "state": null, "zip_code": "15143"}, "match": {"house_number": "2392", "house_number_suffix": "", "street_name": "charles wray drive", "unit_num": "", "city": null, "state": null, "zip_code": "15143"}, "unit_num": ""}, {"universe": {"house_number": "1818", "house_number_suffix": "", "street_name": "waterleaf drive", "unit_num": "", "city": null, "state": null, "zip_code": "15143"}, "match": {"house_number": "1818", "house_number_suffix": "", "street_name": "waterleaf court", "unit_num": "", "city": null, "state": null, "zip_code": "15143"}, "unit_num": ""}, {"universe": {"house_number": "107", "house_number_suffix": "", "street_name": "pine road", "unit_num": "2", "city": null, "state": null, "zip_code": "15143"}, "match": {"house_number": "107", "house_number_suffix": "", "street_name": "pine road", "unit_num": "", "city": null, "state": null, "zip_code": "15143"}, "unit_num": "2"}, {"universe": {"house_number": "1601", "house_number_suffix": "", "street_name": "catherine court", "unit_num": "", "city": null, "state": null, "zip_code": "15143"}, "match": {"house_number": "1601", "house_number_suffix": "", "street_name": "catherine court", "unit_num": "", "city": null, "state": null, "zip_code": "15143"}, "unit_num": ""}, {"universe": {"house_number": "20", "house_number_suffix": "", "street_name": "myrtle hill road", "unit_num": "RD", "city": null, "state": null, "zip_code": "15143"}, "match": {"house_number": "20", "house_number_suffix": "", "street_name": "myrtle hill road", "unit_num": "", "city": null, "state": null, "zip_code": "15143"}, "unit_num": ""}, {"universe": {"house_number": "2588", "house_number_suffix": "", "street_name": "hunters point ct n court", "unit_num": "", "city": null, "state": null, "zip_code": "15090"}, "match": {"house_number": "2588", "house_number_suffix": "", "street_name": "hunters point court", "unit_num": "", "city": null, "state": null, "zip_code": "15090"}, "unit_num": ""}, {"universe": {"house_number": "1056", "house_number_suffix": "", "street_name": "masonic drive", "unit_num": "", "city": null, "state": null, "zip_code": "15143"}, "match": "DNE"}, {"universe": {"house_number": "823", "house_number_suffix": "", "street_name": "maple lane", "unit_num": "3", "city": null, "state": null, "zip_code": "15143"}, "match": {"house_number": "823", "house_number_suffix": "", "street_name": "maple lane", "unit_num": "", "city": null, "state": null, "zip_code": "15143"}, "unit_num": "3"}, {"universe": {"house_number": "1546", "house_number_suffix": "", "street_name": "ingomar rd w road", "unit_num": "", "city": null, "state": null, "zip_code": "15237"}, "match": {"house_number": "1546", "house_number_suffix": "", "street_name": "w ingomar road", "unit_num": "", "city": null, "state": null, "zip_code": "15237"}, "unit_num": ""}, {"universe": {"house_number": "2213", "house_number_suffix": "", "street_name": "huntington ct n court", "unit_num": "", "city": null, "state": null, "zip_code": "15090"}, "match": {"house_number": "2213", "house_number_suffix": "", "street_name": "huntington court", "unit_num": "", "city": null, "state": null, "zip_code": "15090"}, "unit_num": ""}, {"universe": {"house_number": "1532", "house_number_suffix": "", "street_name": "ingomar rd w road", "unit_num": "", "city": null, "state": null, "zip_code": "15237"}, "match": {"house_number": "1532", "house_number_suffix": "", "street_name": "w ingomar road", "unit_num": "", "city": null, "state": null, "zip_code": "15237"}, "unit_num": ""}, {"universe": {"house_number": "2304", "house_number_suffix": "", "street_name": "masonic drive", "unit_num": "2", "city": null, "state": null, "zip_code": "15143"}, "match": {"house_number": "2304", "house_number_suffix": "", "street_name": "masonic drive", "unit_num": "", "city": null, "state": null, "zip_code": "15143"}, "unit_num": "2"}, {"universe": {"house_number": "222", "house_number_suffix": "", "street_name": "frederick avenue", "unit_num": "2", "city": null, "state": null, "zip_code": "15143"}, "match": {"house_number": "222", "house_number_suffix": "", "street_name": "frederick avenue", "unit_num": "", "city": null, "state": null, "zip_code": "15143"}, "unit_num": "2"}, {"universe": {"house_number": "2157", "house_number_suffix": "", "street_name": "huntington ct s court", "unit_num": "", "city": null, "state": null, "zip_code": "15090"}, "match": {"house_number": "2157", "house_number_suffix": "", "street_name": "huntington court", "unit_num": "", "city": null, "state": null, "zip_code": "15090"}, "unit_num": ""}, {"universe": {"house_number": "2211", "house_number_suffix": "", "street_name": "huntington ct n court", "unit_num": "", "city": null, "state": null, "zip_code": "15090"}, "match": {"house_number": "2211", "house_number_suffix": "", "street_name": "huntington court", "unit_num": "", "city": null, "state": null, "zip_code": "15090"}, "unit_num": ""}, {"universe": {"house_number": "1604", "house_number_suffix": "", "street_name": "catherine court", "unit_num": "", "city": null, "state": null, "zip_code": "15143"}, "match": {"house_number": "1604", "house_number_suffix": "", "street_name": "catherine court", "unit_num": "", "city": null, "state": null, "zip_code": "15143"}, "unit_num": ""}, {"universe": {"house_number": "1535", "house_number_suffix": "", "street_name": "robertson road", "unit_num": "", "city": null, "state": null, "zip_code": "15237"}, "match": {"house_number": "1535", "house_number_suffix": "", "street_name": "robertson drive", "unit_num": "", "city": null, "state": null, "zip_code": "15237"}, "unit_num": ""}, {"universe": {"house_number": "308", "house_number_suffix": "", "street_name": "chaucer ct n court", "unit_num": "", "city": null, "state": null, "zip_code": "15143"}, "match": {"house_number": "308", "house_number_suffix": "", "street_name": "chaucer court", "unit_num": "", "city": null, "state": null, "zip_code": "15143"}, "unit_num": ""}, {"universe": {"house_number": "1501", "house_number_suffix": "", "street_name": "scarlet oak court", "unit_num": "DR", "city": null, "state": null, "zip_code": "15090"}, "match": {"house_number": "1501", "house_number_suffix": "", "street_name": "scarlet oak drive", "unit_num": "", "city": null, "state": null, "zip_code": "15090"}, "unit_num": ""}, {"universe": {"house_number": "128", "house_number_suffix": "", "street_name": "beaver st e street", "unit_num": "", "city": null, "state": null, "zip_code": "15143"}, "match": {"house_number": "128", "house_number_suffix": "", "street_name": "e beaver street", "unit_num": "", "city": null, "state": null, "zip_code": "15143"}, "unit_num": ""}, {"universe": {"house_number": "152", "house_number_suffix": "", "street_name": "orchard street", "unit_num": "2", "city": null, "state": null, "zip_code": "15003"}, "match": {"house_number": "152", "house_number_suffix": "", "street_name": "orchard street", "unit_num": "", "city": null, "state": null, "zip_code": "15003"}, "unit_num": "2"}, {"universe": {"house_number": "306", "house_number_suffix": "", "street_name": "chaucer ct n court", "unit_num": "", "city": null, "state": null, "zip_code": "15143"}, "match": {"house_number": "306", "house_number_suffix": "", "street_name": "chaucer court", "unit_num": "", "city": null, "state": null, "zip_code": "15143"}, "unit_num": ""}, {"universe": {"house_number": "1538", "house_number_suffix": "", "street_name": "robertson road", "unit_num": "", "city": null, "state": null, "zip_code": "15237"}, "match": {"house_number": "1538", "house_number_suffix": "", "street_name": "robertson drive", "unit_num": "", "city": null, "state": null, "zip_code": "15237"}, "unit_num": ""}, {"universe": {"house_number": "17", "house_number_suffix": "", "street_name": "thawmont road", "unit_num": "", "city": null, "state": null, "zip_code": "15143"}, "match": {"house_number": "17", "house_number_suffix": "", "street_name": "thawmont drive", "unit_num": "", "city": null, "state": null, "zip_code": "15143"}, "unit_num": ""}, {"universe": {"house_number": "2566", "house_number_suffix": "", "street_name": "pheasant run", "unit_num": "", "city": null, "state": null, "zip_code": "15090"}, "match": {"house_number": "2566", "house_number_suffix": "A", "street_name": "pheasant run", "unit_num": "", "city": null, "state": null, "zip_code": "15090"}, "unit_num": ""}, {"universe": {"house_number": "2717", "house_number_suffix": "", "street_name": "timberglen dr e drive", "unit_num": "", "city": null, "state": null, "zip_code": "15090"}, "match": {"house_number": "2717", "house_number_suffix": "", "street_name": "timberglen east drive", "unit_num": "", "city": null, "state": null, "zip_code": "15090"}, "unit_num": ""}, {"universe": {"house_number": "1537", "house_number_suffix": "", "street_name": "robertson road", "unit_num": "", "city": null, "state": null, "zip_code": "15237"}, "match": {"house_number": "1537", "house_number_suffix": "", "street_name": "robertson drive", "unit_num": "", "city": null, "state": null, "zip_code": "15237"}, "unit_num": ""}, {"universe": {"house_number": "2215", "house_number_suffix": "", "street_name": "huntington ct n court", "unit_num": "", "city": null, "state": null, "zip_code": "15090"}, "match": {"house_number": "2215", "house_number_suffix": "", "street_name": "huntington court", "unit_num": "", "city": null, "state": null, "zip_code": "15090"}, "unit_num": ""}, {"universe": {"house_number": "1703", "house_number_suffix": "", "street_name": "hawthorn ct s court", "unit_num": "", "city": null, "state": null, "zip_code": "15237"}, "match": {"house_number": "1703", "house_number_suffix": "", "street_name": "s hawthorn court", "unit_num": "", "city": null, "state": null, "zip_code": "15237"}, "unit_num": ""}, {"universe": {"house_number": "2207", "house_number_suffix": "", "street_name": "huntington ct n court", "unit_num": "", "city": null, "state": null, "zip_code": "15090"}, "match": {"house_number": "2207", "house_number_suffix": "", "street_name": "huntington court", "unit_num": "", "city": null, "state": null, "zip_code": "15090"}, "unit_num": ""}, {"universe": {"house_number": "867", "house_number_suffix": "", "street_name": "blackburn road", "unit_num": "", "city": null, "state": null, "zip_code": "15143"}, "match": {"house_number": "867", "house_number_suffix": "", "street_name": "blackburn road", "unit_num": "", "city": null, "state": null, "zip_code": "15143"}, "unit_num": ""}, {"universe": {"house_number": "1548", "house_number_suffix": "", "street_name": "king charles drive", "unit_num": "DR", "city": null, "state": null, "zip_code": "15237"}, "match": {"house_number": "1548", "house_number_suffix": "", "street_name": "king charles drive", "unit_num": "", "city": null, "state": null, "zip_code": "15237"}, "unit_num": ""}, {"universe": {"house_number": "823", "house_number_suffix": "", "street_name": "maple lane", "unit_num": "2", "city": null, "state": null, "zip_code": "15143"}, "match": {"house_number": "823", "house_number_suffix": "", "street_name": "maple lane", "unit_num": "", "city": null, "state": null, "zip_code": "15143"}, "unit_num": "2"}, {"universe": {"house_number": "233", "house_number_suffix": "", "street_name": "dawson street", "unit_num": "", "city": null, "state": null, "zip_code": "15143"}, "match": {"house_number": "233", "house_number_suffix": "", "street_name": "dawson avenue", "unit_num": "", "city": null, "state": null, "zip_code": "15143"}, "unit_num": ""}, {"universe": {"house_number": "1130", "house_number_suffix": "B", "street_name": "big sewickley creek road", "unit_num": "", "city": null, "state": null, "zip_code": "15143"}, "match": {"house_number": "1130", "house_number_suffix": "", "street_name": "big sewickley creek road", "unit_num": "", "city": null, "state": null, "zip_code": "15143"}, "unit_num": "B"}, {"universe": {"house_number": "52", "house_number_suffix": "", "street_name": "timberhill drive", "unit_num": "", "city": null, "state": null, "zip_code": "15143"}, "match": {"house_number": "52", "house_number_suffix": "", "street_name": "timberhill drive", "unit_num": "", "city": null, "state": null, "zip_code": "15143"}, "unit_num": ""}, {"universe": {"house_number": "2055", "house_number_suffix": "", "street_name": "reis run road", "unit_num": "RD", "city": null, "state": null, "zip_code": "15237"}, "match": {"house_number": "2055", "house_number_suffix": "", "street_name": "reis run road", "unit_num": "", "city": null, "state": null, "zip_code": "15237"}, "unit_num": ""}, {"universe": {"house_number": "1824", "house_number_suffix": "", "street_name": "willow oak drive", "unit_num": "DR", "city": null, "state": null, "zip_code": "15090"}, "match": {"house_number": "1824", "house_number_suffix": "", "street_name": "willow oak drive", "unit_num": "", "city": null, "state": null, "zip_code": "15090"}, "unit_num": ""}, {"universe": {"house_number": "710", "house_number_suffix": "", "street_name": "hill street", "unit_num": "A3", "city": null, "state": null, "zip_code": "15143"}, "match": {"house_number": "710", "house_number_suffix": "", "street_name": "hill street", "unit_num": "3", "city": null, "state": null, "zip_code": "15143"}, "unit_num": "A3"}, {"universe": {"house_number": "2384", "house_number_suffix": "", "street_name": "brandt school road", "unit_num": "RD", "city": null, "state": null, "zip_code": "15237"}, "match": {"house_number": "2384", "house_number_suffix": "", "street_name": "brandt school road", "unit_num": "", "city": null, "state": null, "zip_code": "15237"}, "unit_num": ""}, {"universe": {"house_number": "2163", "house_number_suffix": "", "street_name": "huntington ct s court", "unit_num": "", "city": null, "state": null, "zip_code": "15090"}, "match": {"house_number": "2163", "house_number_suffix": "", "street_name": "huntington court", "unit_num": "", "city": null, "state": null, "zip_code": "15090"}, "unit_num": ""}, {"universe": {"house_number": "1922", "house_number_suffix": "", "street_name": "colonial drive", "unit_num": "", "city": null, "state": null, "zip_code": "15143"}, "match": {"house_number": "1922", "house_number_suffix": "", "street_name": "colonial court", "unit_num": "", "city": null, "state": null, "zip_code": "15143"}, "unit_num": ""}, {"universe": {"house_number": "1605", "house_number_suffix": "", "street_name": "white oak court", "unit_num": "CT", "city": null, "state": null, "zip_code": "15237"}, "match": {"house_number": "1605", "house_number_suffix": "", "street_name": "white oak court", "unit_num": "", "city": null, "state": null, "zip_code": "15237"}, "unit_num": ""}, {"universe": {"house_number": "2209", "house_number_suffix": "", "street_name": "huntington ct n court", "unit_num": "", "city": null, "state": null, "zip_code": "15090"}, "match": {"house_number": "2209", "house_number_suffix": "", "street_name": "huntington court", "unit_num": "", "city": null, "state": null, "zip_code": "15090"}, "unit_num": ""}, {"universe": {"house_number": "3", "house_number_suffix": "", "street_name": "fox hill farm road", "unit_num": "RD", "city": null, "state": null, "zip_code": "15143"}, "match": "DNE"}, {"universe": {"house_number": "2105", "house_number_suffix": "", "street_name": "huntington ct s court", "unit_num": "", "city": null, "state": null, "zip_code": "15090"}, "match": {"house_number": "2105", "house_number_suffix": "", "street_name": "huntington court", "unit_num": "", "city": null, "state": null, "zip_code": "15090"}, "unit_num": ""}, {"universe": {"house_number": "392", "house_number_suffix": "", "street_name": "ingleside avenue", "unit_num": "", "city": null, "state": null, "zip_code": "15143"}, "match": {}}, {"universe": {"house_number": "1052", "house_number_suffix": "", "street_name": "masonic drive", "unit_num": "", "city": null, "state": null, "zip_code": "15143"}, "match": "DNE"}, {"universe": {"house_number": "1637", "house_number_suffix": "", "street_name": "stone mansion drive", "unit_num": "DR", "city": null, "state": null, "zip_code": "15143"}, "match": {"house_number": "1637", "house_number_suffix": "", "street_name": "stone mansion drive", "unit_num": "", "city": null, "state": null, "zip_code": "15143"}, "unit_num": ""}, {"universe": {"house_number": "2611", "house_number_suffix": "", "street_name": "hunters point ct s court", "unit_num": "", "city": null, "state": null, "zip_code": "15090"}, "match": {"house_number": "2611", "house_number_suffix": "", "street_name": "hunters point court", "unit_num": "", "city": null, "state": null, "zip_code": "15090"}, "unit_num": ""}, {"universe": {"house_number": "1533", "house_number_suffix": "", "street_name": "robertson road", "unit_num": "", "city": null, "state": null, "zip_code": "15237"}, "match": {"house_number": "1533", "house_number_suffix": "", "street_name": "robertson drive", "unit_num": "", "city": null, "state": null, "zip_code": "15237"}, "unit_num": ""}, {"universe": {"house_number": "101", "house_number_suffix": "", "street_name": "little glen lane", "unit_num": "", "city": null, "state": null, "zip_code": "15143"}, "match": {"house_number": "101", "house_number_suffix": "", "street_name": "little glen drive", "unit_num": "", "city": null, "state": null, "zip_code": "15143"}, "unit_num": ""}, {"universe": {"house_number": "1503", "house_number_suffix": "", "street_name": "ingomar rd w road", "unit_num": "", "city": null, "state": null, "zip_code": "15237"}, "match": {"house_number": "1503", "house_number_suffix": "", "street_name": "w ingomar road", "unit_num": "", "city": null, "state": null, "zip_code": "15237"}, "unit_num": ""}, {"universe": {"house_number": "604", "house_number_suffix": "", "street_name": "ohio river boulevard", "unit_num": "BLVD", "city": null, "state": null, "zip_code": "15143"}, "match": {"house_number": "604", "house_number_suffix": "", "street_name": "ohio river boulevard", "unit_num": "", "city": null, "state": null, "zip_code": "15143"}, "unit_num": ""}, {"universe": {"house_number": "3011", "house_number_suffix": "", "street_name": "shepard lane", "unit_num": "", "city": null, "state": null, "zip_code": "15143"}, "match": {"house_number": "3011", "house_number_suffix": "", "street_name": "shepard lane", "unit_num": "", "city": null, "state": null, "zip_code": "15143"}, "unit_num": ""}, {"universe": {"house_number": "1550", "house_number_suffix": "", "street_name": "ingomar rd w road", "unit_num": "", "city": null, "state": null, "zip_code": "15237"}, "match": {"house_number": "1550", "house_number_suffix": "", "street_name": "w ingomar road", "unit_num": "", "city": null, "state": null, "zip_code": "15237"}, "unit_num": ""}, {"universe": {"house_number": "2504", "house_number_suffix": "B", "street_name": "hopkins church road", "unit_num": "", "city": null, "state": null, "zip_code": "15143"}, "match": {"house_number": "2504", "house_number_suffix": "", "street_name": "hopkins church road", "unit_num": "", "city": null, "state": null, "zip_code": "15143"}, "unit_num": "B"}, {"universe": {"house_number": "307", "house_number_suffix": "", "street_name": "beaver street", "unit_num": "", "city": null, "state": null, "zip_code": "15143"}, "match": {"house_number": "307", "house_number_suffix": "", "street_name": "beaver street", "unit_num": "", "city": null, "state": null, "zip_code": "15056"}, "unit_num": ""}, {"universe": {"house_number": "2155", "house_number_suffix": "", "street_name": "masonic drive", "unit_num": "7", "city": null, "state": null, "zip_code": "15143"}, "match": {"house_number": "2155", "house_number_suffix": "", "street_name": "masonic drive", "unit_num": "", "city": null, "state": null, "zip_code": "15143"}, "unit_num": "7"}, {"universe": {"house_number": "1806", "house_number_suffix": "", "street_name": "waterleaf drive", "unit_num": "", "city": null, "state": null, "zip_code": "15143"}, "match": {"house_number": "1806", "house_number_suffix": "", "street_name": "waterleaf court", "unit_num": "", "city": null, "state": null, "zip_code": "15143"}, "unit_num": ""}, {"universe": {"house_number": "2404", "house_number_suffix": "", "street_name": "magee road", "unit_num": "", "city": null, "state": null, "zip_code": "15143"}, "match": {"house_number": "2404", "house_number_suffix": "", "street_name": "magee road extension", "unit_num": "", "city": null, "state": null, "zip_code": "15143"}, "unit_num": ""}, {"universe": {"house_number": "1612", "house_number_suffix": "", "street_name": "king james drive", "unit_num": "DR", "city": null, "state": null, "zip_code": "15237"}, "match": {"house_number": "1612", "house_number_suffix": "", "street_name": "king james drive", "unit_num": "", "city": null, "state": null, "zip_code": "15237"}, "unit_num": ""}, {"universe": {"house_number": "807", "house_number_suffix": "", "street_name": "glenfield road", "unit_num": "1", "city": null, "state": null, "zip_code": "15143"}, "match": {"house_number": "807", "house_number_suffix": "", "street_name": "glenfield road", "unit_num": "", "city": null, "state": null, "zip_code": "15143"}, "unit_num": "1"}, {"universe": {"house_number": "1918", "house_number_suffix": "", "street_name": "colonial drive", "unit_num": "", "city": null, "state": null, "zip_code": "15143"}, "match": {"house_number": "1918", "house_number_suffix": "", "street_name": "colonial court", "unit_num": "", "city": null, "state": null, "zip_code": "15143"}, "unit_num": ""}, {"universe": {"house_number": "1223", "house_number_suffix": "", "street_name": "big sewickley creek road", "unit_num": "", "city": null, "state": null, "zip_code": "15143"}, "match": {}}, {"universe": {"house_number": "2528", "house_number_suffix": "", "street_name": "brandt school road", "unit_num": "RD", "city": null, "state": null, "zip_code": "15090"}, "match": {"house_number": "2528", "house_number_suffix": "", "street_name": "brandt school road", "unit_num": "", "city": null, "state": null, "zip_code": "15090"}, "unit_num": ""}, {"universe": {"house_number": "705", "house_number_suffix": "", "street_name": "sycamore rd extension", "unit_num": "", "city": null, "state": null, "zip_code": "15143"}, "match": {"house_number": "705", "house_number_suffix": "", "street_name": "sycamore road", "unit_num": "", "city": null, "state": null, "zip_code": "15143"}, "unit_num": ""}, {"universe": {"house_number": "516", "house_number_suffix": "", "street_name": "ingleside avenue", "unit_num": "", "city": null, "state": null, "zip_code": "15143"}, "match": {}}, {"universe": {"house_number": "516", "house_number_suffix": "", "street_name": "ingleside avenue", "unit_num": "", "city": null, "state": null, "zip_code": "15143"}, "match": {}}, {"universe": {"house_number": "2375", "house_number_suffix": "", "street_name": "fairhill farms", "unit_num": "", "city": null, "state": null, "zip_code": "15143"}, "match": {"house_number": "2375", "house_number_suffix": "", "street_name": "fairhill farms road", "unit_num": "", "city": null, "state": null, "zip_code": "15143"}, "unit_num": ""}, {"universe": {"house_number": "2709", "house_number_suffix": "", "street_name": "timberglen dr w drive", "unit_num": "", "city": null, "state": null, "zip_code": "15090"}, "match": {"house_number": "2709", "house_number_suffix": "", "street_name": "timberglen west drive", "unit_num": "", "city": null, "state": null, "zip_code": "15090"}, "unit_num": ""}, {"universe": {"house_number": "2501", "house_number_suffix": "", "street_name": "wexford bayne road", "unit_num": "RD", "city": null, "state": null, "zip_code": "15143"}, "match": {"house_number": "2501", "house_number_suffix": "", "street_name": "wexford bayne road", "unit_num": "", "city": null, "state": null, "zip_code": "15143"}, "unit_num": ""}, {"universe": {"house_number": "2141", "house_number_suffix": "", "street_name": "huntington ct s court", "unit_num": "", "city": null, "state": null, "zip_code": "15090"}, "match": {"house_number": "2141", "house_number_suffix": "", "street_name": "huntington court", "unit_num": "", "city": null, "state": null, "zip_code": "15090"}, "unit_num": ""}, {"universe": {"house_number": "2516", "house_number_suffix": "A", "street_name": "wexford run road", "unit_num": "", "city": null, "state": null, "zip_code": "15090"}, "match": {"house_number": "2516", "house_number_suffix": "", "street_name": "wexford run road", "unit_num": "", "city": null, "state": null, "zip_code": "15090"}, "unit_num": "A"}, {"universe": {"house_number": "2545", "house_number_suffix": "", "street_name": "hopkins church road", "unit_num": "", "city": null, "state": null, "zip_code": "15143"}, "match": {"house_number": "2545", "house_number_suffix": "", "street_name": "law lane", "unit_num": "", "city": null, "state": null, "zip_code": "15143"}, "unit_num": ""}, {"universe": {"house_number": "2533", "house_number_suffix": "", "street_name": "law ln e lane", "unit_num": "", "city": null, "state": null, "zip_code": "15143"}, "match": {"house_number": "2533", "house_number_suffix": "", "street_name": "law lane", "unit_num": "", "city": null, "state": null, "zip_code": "15143"}, "unit_num": ""}, {"universe": {"house_number": "98", "house_number_suffix": "", "street_name": "pink house road", "unit_num": "", "city": null, "state": null, "zip_code": "15143"}, "match": {"house_number": "98", "house_number_suffix": "", "street_name": "pink house lane", "unit_num": "", "city": null, "state": null, "zip_code": "15143"}, "unit_num": ""}, {"universe": {"house_number": "1603", "house_number_suffix": "", "street_name": "valley view court", "unit_num": "CT", "city": null, "state": null, "zip_code": "15237"}, "match": {"house_number": "1603", "house_number_suffix": "", "street_name": "valley view court", "unit_num": "", "city": null, "state": null, "zip_code": "15237"}, "unit_num": ""}, {"universe": {"house_number": "1543", "house_number_suffix": "", "street_name": "ingomar hgts road", "unit_num": "RD", "city": null, "state": null, "zip_code": "15237"}, "match": {"house_number": "1543", "house_number_suffix": "", "street_name": "ingomar heights road", "unit_num": "", "city": null, "state": null, "zip_code": "15237"}, "unit_num": ""}, {"universe": {"house_number": "2362", "house_number_suffix": "", "street_name": "magee road", "unit_num": "", "city": null, "state": null, "zip_code": "15143"}, "match": {"house_number": "2362", "house_number_suffix": "", "street_name": "magee road extension", "unit_num": "", "city": null, "state": null, "zip_code": "15143"}, "unit_num": ""}, {"universe": {"house_number": "1012", "house_number_suffix": "", "street_name": "masonic drive", "unit_num": "", "city": null, "state": null, "zip_code": "15143"}, "match": "DNE"}, {"universe": {"house_number": "97", "house_number_suffix": "", "street_name": "pink house road", "unit_num": "", "city": null, "state": null, "zip_code": "15143"}, "match": {"house_number": "97", "house_number_suffix": "", "street_name": "pink house lane", "unit_num": "", "city": null, "state": null, "zip_code": "15143"}, "unit_num": ""}, {"universe": {"house_number": "810", "house_number_suffix": "A", "street_name": "redgate road", "unit_num": "", "city": null, "state": null, "zip_code": "15143"}, "match": {"house_number": "810", "house_number_suffix": "", "street_name": "redgate road", "unit_num": "", "city": null, "state": null, "zip_code": "15143"}, "unit_num": "A"}, {"universe": {"house_number": "2109", "house_number_suffix": "", "street_name": "huntington ct s court", "unit_num": "", "city": null, "state": null, "zip_code": "15090"}, "match": {"house_number": "2109", "house_number_suffix": "", "street_name": "huntington court", "unit_num": "", "city": null, "state": null, "zip_code": "15090"}, "unit_num": ""}, {"universe": {"house_number": "2221", "house_number_suffix": "", "street_name": "huntington ct n court", "unit_num": "", "city": null, "state": null, "zip_code": "15090"}, "match": {"house_number": "2221", "house_number_suffix": "", "street_name": "huntington court", "unit_num": "", "city": null, "state": null, "zip_code": "15090"}, "unit_num": ""}, {"universe": {"house_number": "524", "house_number_suffix": "", "street_name": "sycamore street", "unit_num": "", "city": null, "state": null, "zip_code": "15143"}, "match": {"house_number": "524", "house_number_suffix": "", "street_name": "sycamore road", "unit_num": "", "city": null, "state": null, "zip_code": "15143"}, "unit_num": ""}, {"universe": {"house_number": "2632", "house_number_suffix": "", "street_name": "quail ridge lane", "unit_num": "LN", "city": null, "state": null, "zip_code": "15090"}, "match": {"house_number": "2632", "house_number_suffix": "", "street_name": "quail ridge lane", "unit_num": "", "city": null, "state": null, "zip_code": "15090"}, "unit_num": ""}, {"universe": {"house_number": "2546", "house_number_suffix": "", "street_name": "fairmont church drive", "unit_num": "", "city": null, "state": null, "zip_code": "15143"}, "match": {"house_number": "2546", "house_number_suffix": "", "street_name": "fairmount church road", "unit_num": "", "city": null, "state": null, "zip_code": "15143"}, "unit_num": ""}, {"universe": {"house_number": "913", "house_number_suffix": "", "street_name": "wharrey drive", "unit_num": "", "city": null, "state": null, "zip_code": "15143"}, "match": "DNE"}, {"universe": {"house_number": "206", "house_number_suffix": "", "street_name": "chaucer ct s court", "unit_num": "", "city": null, "state": null, "zip_code": "15143"}, "match": {"house_number": "206", "house_number_suffix": "", "street_name": "chaucer court", "unit_num": "", "city": null, "state": null, "zip_code": "15143"}, "unit_num": ""}, {"universe": {"house_number": "1510", "house_number_suffix": "", "street_name": "king david drive", "unit_num": "DR", "city": null, "state": null, "zip_code": "15237"}, "match": {"house_number": "1510", "house_number_suffix": "", "street_name": "king david drive", "unit_num": "", "city": null, "state": null, "zip_code": "15237"}, "unit_num": ""}, {"universe": {"house_number": "1528", "house_number_suffix": "", "street_name": "ingomar rd w road", "unit_num": "", "city": null, "state": null, "zip_code": "15237"}, "match": {"house_number": "1528", "house_number_suffix": "", "street_name": "w ingomar road", "unit_num": "", "city": null, "state": null, "zip_code": "15237"}, "unit_num": ""}, {"universe": {"house_number": "1502", "house_number_suffix": "", "street_name": "ingomar hgts road", "unit_num": "RD", "city": null, "state": null, "zip_code": "15237"}, "match": {"house_number": "1502", "house_number_suffix": "", "street_name": "ingomar heights road", "unit_num": "", "city": null, "state": null, "zip_code": "15237"}, "unit_num": ""}, {"universe": {"house_number": "1050", "house_number_suffix": "", "street_name": "masonic drive", "unit_num": "", "city": null, "state": null, "zip_code": "15143"}, "match": "DNE"}, {"universe": {"house_number": "2593", "house_number_suffix": "G", "street_name": "grouse ridge", "unit_num": "", "city": null, "state": null, "zip_code": "15090"}, "match": {"house_number": "2593", "house_number_suffix": "", "street_name": "grouse ridge", "unit_num": "", "city": null, "state": null, "zip_code": "15090"}, "unit_num": "G"}, {"universe": {"house_number": "1536", "house_number_suffix": "", "street_name": "ingomar hgts road", "unit_num": "RD", "city": null, "state": null, "zip_code": "15237"}, "match": {"house_number": "1536", "house_number_suffix": "", "street_name": "ingomar heights road", "unit_num": "", "city": null, "state": null, "zip_code": "15237"}, "unit_num": ""}, {"universe": {"house_number": "93", "house_number_suffix": "", "street_name": "pink house road", "unit_num": "", "city": null, "state": null, "zip_code": "15143"}, "match": {"house_number": "93", "house_number_suffix": "", "street_name": "pink house lane", "unit_num": "", "city": null, "state": null, "zip_code": "15143"}, "unit_num": ""}, {"universe": {"house_number": "52", "house_number_suffix": "", "street_name": "plum street", "unit_num": "", "city": null, "state": null, "zip_code": "15003"}, "match": {}}, {"universe": {"house_number": "2384", "house_number_suffix": "", "street_name": "rochester road", "unit_num": "D", "city": null, "state": null, "zip_code": "15143"}, "match": {"house_number": "2384", "house_number_suffix": "D", "street_name": "rochester road", "unit_num": "", "city": null, "state": null, "zip_code": "15143"}, "unit_num": "D"}, {"universe": {"house_number": "52", "house_number_suffix": "", "street_name": "plum street", "unit_num": "", "city": null, "state": null, "zip_code": "15003"}, "match": {}}, {"universe": {"house_number": "1508", "house_number_suffix": "", "street_name": "king david drive", "unit_num": "DR", "city": null, "state": null, "zip_code": "15237"}, "match": {"house_number": "1508", "house_number_suffix": "", "street_name": "king david drive", "unit_num": "", "city": null, "state": null, "zip_code": "15237"}, "unit_num": ""}, {"universe": {"house_number": "2460", "house_number_suffix": "", "street_name": "henry road", "unit_num": "", "city": null, "state": null, "zip_code": "15143"}, "match": {"house_number": "2460", "house_number_suffix": "", "street_name": "henry lane", "unit_num": "", "city": null, "state": null, "zip_code": "15143"}, "unit_num": ""}, {"universe": {"house_number": "2370", "house_number_suffix": "", "street_name": "trimble road", "unit_num": "9", "city": null, "state": null, "zip_code": "15237"}, "match": {"house_number": "2370", "house_number_suffix": "", "street_name": "trimble road", "unit_num": "", "city": null, "state": null, "zip_code": "15237"}, "unit_num": "9"}, {"universe": {"house_number": "2577", "house_number_suffix": "", "street_name": "grouse ridge", "unit_num": "", "city": null, "state": null, "zip_code": "15090"}, "match": {"house_number": "2577", "house_number_suffix": "A", "street_name": "grouse ridge", "unit_num": "", "city": null, "state": null, "zip_code": "15090"}, "unit_num": ""}, {"universe": {"house_number": "2135", "house_number_suffix": "", "street_name": "masonic drive", "unit_num": "4", "city": null, "state": null, "zip_code": "15143"}, "match": {"house_number": "2135", "house_number_suffix": "", "street_name": "masonic drive", "unit_num": "", "city": null, "state": null, "zip_code": "15143"}, "unit_num": "4"}, {"universe": {"house_number": "84", "house_number_suffix": "", "street_name": "glen mitchell road", "unit_num": "", "city": null, "state": null, "zip_code": "15143"}, "match": "DNE"}, {"universe": {"house_number": "504", "house_number_suffix": "", "street_name": "hillside farms road", "unit_num": "", "city": null, "state": null, "zip_code": "15143"}, "match": {"house_number": "504", "house_number_suffix": "", "street_name": "hillside drive", "unit_num": "", "city": null, "state": null, "zip_code": "15143"}, "unit_num": ""}, {"universe": {"house_number": "259", "house_number_suffix": "", "street_name": "dawson street", "unit_num": "", "city": null, "state": null, "zip_code": "15143"}, "match": {"house_number": "259", "house_number_suffix": "", "street_name": "dawson avenue", "unit_num": "", "city": null, "state": null, "zip_code": "15143"}, "unit_num": ""}, {"universe": {"house_number": "1066", "house_number_suffix": "", "street_name": "masonic drive", "unit_num": "", "city": null, "state": null, "zip_code": "15143"}, "match": "DNE"}, {"universe": {"house_number": "4002", "house_number_suffix": "", "street_name": "scottish rite court", "unit_num": "CT", "city": null, "state": null, "zip_code": "15143"}, "match": {"house_number": "4002", "house_number_suffix": "", "street_name": "scottish rite court", "unit_num": "", "city": null, "state": null, "zip_code": "15143"}, "unit_num": ""}, {"universe": {"house_number": "2123", "house_number_suffix": "", "street_name": "huntington ct s court", "unit_num": "", "city": null, "state": null, "zip_code": "15090"}, "match": {"house_number": "2123", "house_number_suffix": "", "street_name": "huntington court", "unit_num": "", "city": null, "state": null, "zip_code": "15090"}, "unit_num": ""}, {"universe": {"house_number": "0", "house_number_suffix": "", "street_name": "pink house road", "unit_num": "", "city": null, "state": null, "zip_code": "15143"}, "match": "DNE"}, {"universe": {"house_number": "1502", "house_number_suffix": "", "street_name": "scarlet oak court", "unit_num": "", "city": null, "state": null, "zip_code": "15090"}, "match": {"house_number": "1502", "house_number_suffix": "", "street_name": "scarlet oak drive", "unit_num": "", "city": null, "state": null, "zip_code": "15090"}, "unit_num": ""}, {"universe": {"house_number": "7", "house_number_suffix": "", "street_name": "thawmont road", "unit_num": "", "city": null, "state": null, "zip_code": "15143"}, "match": {"house_number": "7", "house_number_suffix": "", "street_name": "thawmont drive", "unit_num": "", "city": null, "state": null, "zip_code": "15143"}, "unit_num": ""}, {"universe": {"house_number": "713", "house_number_suffix": "", "street_name": "sycamore rd extension", "unit_num": "", "city": null, "state": null, "zip_code": "15143"}, "match": {"house_number": "713", "house_number_suffix": "", "street_name": "sycamore road", "unit_num": "", "city": null, "state": null, "zip_code": "15143"}, "unit_num": ""}, {"universe": {"house_number": "10", "house_number_suffix": "", "street_name": "thawmont road", "unit_num": "", "city": null, "state": null, "zip_code": "15143"}, "match": {"house_number": "10", "house_number_suffix": "", "street_name": "thawmont drive", "unit_num": "", "city": null, "state": null, "zip_code": "15143"}, "unit_num": ""}, {"universe": {"house_number": "2428", "house_number_suffix": "", "street_name": "magee road", "unit_num": "", "city": null, "state": null, "zip_code": "15143"}, "match": {"house_number": "2428", "house_number_suffix": "", "street_name": "magee road extension", "unit_num": "", "city": null, "state": null, "zip_code": "15143"}, "unit_num": ""}, {"universe": {"house_number": "2576", "house_number_suffix": "", "street_name": "hunters point ct n court", "unit_num": "", "city": null, "state": null, "zip_code": "15090"}, "match": {"house_number": "2576", "house_number_suffix": "", "street_name": "hunters point court", "unit_num": "", "city": null, "state": null, "zip_code": "15090"}, "unit_num": ""}, {"universe": {"house_number": "1410", "house_number_suffix": "", "street_name": "scarlett ridge drive", "unit_num": "DR", "city": null, "state": null, "zip_code": "15237"}, "match": {"house_number": "1410", "house_number_suffix": "", "street_name": "scarlett ridge drive", "unit_num": "", "city": null, "state": null, "zip_code": "15237"}, "unit_num": ""}, {"universe": {"house_number": "186", "house_number_suffix": "", "street_name": "s mccoy place road", "unit_num": "RD", "city": null, "state": null, "zip_code": "15143"}, "match": {"house_number": "186", "house_number_suffix": "", "street_name": "s mccoy place road", "unit_num": "", "city": null, "state": null, "zip_code": "15143"}, "unit_num": ""}, {"universe": {"house_number": "2588", "house_number_suffix": "", "street_name": "grouse ridge", "unit_num": "", "city": null, "state": null, "zip_code": "15090"}, "match": {"house_number": "2588", "house_number_suffix": "A", "street_name": "grouse ridge", "unit_num": "", "city": null, "state": null, "zip_code": "15090"}, "unit_num": ""}, {"universe": {"house_number": "2746", "house_number_suffix": "", "street_name": "hunters point drive", "unit_num": "DR", "city": null, "state": null, "zip_code": "15090"}, "match": {"house_number": "2746", "house_number_suffix": "", "street_name": "hunters point drive", "unit_num": "", "city": null, "state": null, "zip_code": "15090"}, "unit_num": ""}, {"universe": {"house_number": "1642", "house_number_suffix": "", "street_name": "blackburn hgts drive", "unit_num": "DR", "city": null, "state": null, "zip_code": "15143"}, "match": {"house_number": "1642", "house_number_suffix": "", "street_name": "blackburn heights drive", "unit_num": "", "city": null, "state": null, "zip_code": "15143"}, "unit_num": ""}, {"universe": {"house_number": "317", "house_number_suffix": "", "street_name": "scaife road", "unit_num": "", "city": null, "state": null, "zip_code": "15143"}, "match": {"house_number": "317", "house_number_suffix": "", "street_name": "scaife road", "unit_num": "", "city": null, "state": null, "zip_code": "15143"}, "unit_num": ""}, {"universe": {"house_number": "2601", "house_number_suffix": "", "street_name": "hunters point ct s court", "unit_num": "", "city": null, "state": null, "zip_code": "15090"}, "match": {"house_number": "2601", "house_number_suffix": "", "street_name": "hunters point court", "unit_num": "", "city": null, "state": null, "zip_code": "15090"}, "unit_num": ""}, {"universe": {"house_number": "2101", "house_number_suffix": "", "street_name": "huntington ct s court", "unit_num": "", "city": null, "state": null, "zip_code": "15090"}, "match": {"house_number": "2101", "house_number_suffix": "", "street_name": "huntington court", "unit_num": "", "city": null, "state": null, "zip_code": "15090"}, "unit_num": ""}, {"universe": {"house_number": "724", "house_number_suffix": "", "street_name": "washington street", "unit_num": "1", "city": null, "state": null, "zip_code": "15143"}, "match": {"house_number": "724", "house_number_suffix": "", "street_name": "washington street", "unit_num": "", "city": null, "state": null, "zip_code": "15143"}, "unit_num": "1"}, {"universe": {"house_number": "613", "house_number_suffix": "", "street_name": "little street", "unit_num": "", "city": null, "state": null, "zip_code": "15143"}, "match": {"house_number": "613", "house_number_suffix": "", "street_name": "little way", "unit_num": "", "city": null, "state": null, "zip_code": "15143"}, "unit_num": ""}, {"universe": {"house_number": "2570", "house_number_suffix": "", "street_name": "hunters point drive", "unit_num": "DR", "city": null, "state": null, "zip_code": "15090"}, "match": {"house_number": "2570", "house_number_suffix": "", "street_name": "hunters point drive", "unit_num": "", "city": null, "state": null, "zip_code": "15090"}, "unit_num": ""}, {"universe": {"house_number": "2451", "house_number_suffix": "", "street_name": "magee road", "unit_num": "", "city": null, "state": null, "zip_code": "15143"}, "match": {"house_number": "2451", "house_number_suffix": "", "street_name": "magee road extension", "unit_num": "", "city": null, "state": null, "zip_code": "15143"}, "unit_num": ""}, {"universe": {"house_number": "2702", "house_number_suffix": "", "street_name": "hunters point drive", "unit_num": "DR", "city": null, "state": null, "zip_code": "15090"}, "match": {"house_number": "2702", "house_number_suffix": "", "street_name": "hunters point drive", "unit_num": "", "city": null, "state": null, "zip_code": "15090"}, "unit_num": ""}, {"universe": {"house_number": "1606", "house_number_suffix": "", "street_name": "catherine court", "unit_num": "", "city": null, "state": null, "zip_code": "15143"}, "match": {"house_number": "1606", "house_number_suffix": "", "street_name": "catherine court", "unit_num": "", "city": null, "state": null, "zip_code": "15143"}, "unit_num": ""}, {"universe": {"house_number": "2113", "house_number_suffix": "", "street_name": "reis run road", "unit_num": "RD", "city": null, "state": null, "zip_code": "15237"}, "match": {"house_number": "2113", "house_number_suffix": "", "street_name": "reis run road", "unit_num": "", "city": null, "state": null, "zip_code": "15237"}, "unit_num": ""}, {"universe": {"house_number": "1589", "house_number_suffix": "", "street_name": "stone mansion drive", "unit_num": "DR", "city": null, "state": null, "zip_code": "15143"}, "match": {"house_number": "1589", "house_number_suffix": "", "street_name": "stone mansion drive", "unit_num": "", "city": null, "state": null, "zip_code": "15143"}, "unit_num": ""}, {"universe": {"house_number": "2217", "house_number_suffix": "", "street_name": "huntington ct n court", "unit_num": "", "city": null, "state": null, "zip_code": "15090"}, "match": {"house_number": "2217", "house_number_suffix": "", "street_name": "huntington court", "unit_num": "", "city": null, "state": null, "zip_code": "15090"}, "unit_num": ""}, {"universe": {"house_number": "1068", "house_number_suffix": "", "street_name": "masonic drive", "unit_num": "", "city": null, "state": null, "zip_code": "15143"}, "match": "DNE"}, {"universe": {"house_number": "1025", "house_number_suffix": "", "street_name": "masonic drive", "unit_num": "2248", "city": null, "state": null, "zip_code": "15143"}, "match": "DNE"}, {"universe": {"house_number": "1049", "house_number_suffix": "", "street_name": "masonic drive", "unit_num": "", "city": null, "state": null, "zip_code": "15143"}, "match": "DNE"}, {"universe": {"house_number": "1034", "house_number_suffix": "", "street_name": "masonic drive", "unit_num": "", "city": null, "state": null, "zip_code": "15143"}, "match": "DNE"}, {"universe": {"house_number": "2100", "house_number_suffix": "", "street_name": "georgetowne drive", "unit_num": "401", "city": null, "state": null, "zip_code": "15143"}, "match": {"house_number": "2100", "house_number_suffix": "", "street_name": "georgetown drive", "unit_num": "", "city": null, "state": null, "zip_code": "15143"}, "unit_num": "401"}, {"universe": {"house_number": "2525", "house_number_suffix": "", "street_name": "brandt school road", "unit_num": "RD", "city": null, "state": null, "zip_code": "15090"}, "match": {"house_number": "2525", "house_number_suffix": "", "street_name": "brandt school road", "unit_num": "", "city": null, "state": null, "zip_code": "15090"}, "unit_num": ""}, {"universe": {"house_number": "2527", "house_number_suffix": "", "street_name": "brandt school road", "unit_num": "RD", "city": null, "state": null, "zip_code": "15090"}, "match": {"house_number": "2527", "house_number_suffix": "", "street_name": "brandt school road", "unit_num": "", "city": null, "state": null, "zip_code": "15090"}, "unit_num": ""}, {"universe": {"house_number": "2385", "house_number_suffix": "", "street_name": "magee road", "unit_num": "", "city": null, "state": null, "zip_code": "15143"}, "match": {"house_number": "2385", "house_number_suffix": "", "street_name": "magee road extension", "unit_num": "", "city": null, "state": null, "zip_code": "15143"}, "unit_num": ""}, {"universe": {"house_number": "157", "house_number_suffix": "", "street_name": "mccoy place road", "unit_num": "RD", "city": null, "state": null, "zip_code": "15143"}, "match": {"house_number": "157", "house_number_suffix": "", "street_name": "mccoy place road", "unit_num": "", "city": null, "state": null, "zip_code": "15143"}, "unit_num": ""}, {"universe": {"house_number": "708", "house_number_suffix": "", "street_name": "tega cay drive", "unit_num": "DR", "city": null, "state": null, "zip_code": "15143"}, "match": {"house_number": "708", "house_number_suffix": "", "street_name": "tega cay drive", "unit_num": "", "city": null, "state": null, "zip_code": "15143"}, "unit_num": ""}, {"universe": {"house_number": "1615", "house_number_suffix": "", "street_name": "country club drive", "unit_num": "DR", "city": null, "state": null, "zip_code": "15237"}, "match": {"house_number": "1615", "house_number_suffix": "", "street_name": "country club drive", "unit_num": "", "city": null, "state": null, "zip_code": "15237"}, "unit_num": ""}, {"universe": {"house_number": "1407", "house_number_suffix": "", "street_name": "shevlin ct n court", "unit_num": "", "city": null, "state": null, "zip_code": "15143"}, "match": {"house_number": "1407", "house_number_suffix": "", "street_name": "north shevlin court", "unit_num": "", "city": null, "state": null, "zip_code": "15143"}, "unit_num": ""}, {"universe": {"house_number": "1407", "house_number_suffix": "", "street_name": "shevlin ct n court", "unit_num": "", "city": null, "state": null, "zip_code": "15143"}, "match": {"house_number": "1407", "house_number_suffix": "", "street_name": "north shevlin court", "unit_num": "", "city": null, "state": null, "zip_code": "15143"}, "unit_num": ""}, {"universe": {"house_number": "2368", "house_number_suffix": "", "street_name": "magee road", "unit_num": "", "city": null, "state": null, "zip_code": "15143"}, "match": {"house_number": "2368", "house_number_suffix": "", "street_name": "magee road extension", "unit_num": "", "city": null, "state": null, "zip_code": "15143"}, "unit_num": ""}, {"universe": {"house_number": "2368", "house_number_suffix": "", "street_name": "magee road", "unit_num": "", "city": null, "state": null, "zip_code": "15143"}, "match": {"house_number": "2368", "house_number_suffix": "", "street_name": "magee road extension", "unit_num": "", "city": null, "state": null, "zip_code": "15143"}, "unit_num": ""}, {"universe": {"house_number": "26", "house_number_suffix": "", "street_name": "pink house road", "unit_num": "", "city": null, "state": null, "zip_code": "15143"}, "match": "DNE"}, {"universe": {"house_number": "309", "house_number_suffix": "", "street_name": "chaucer ct n court", "unit_num": "", "city": null, "state": null, "zip_code": "15143"}, "match": {"house_number": "309", "house_number_suffix": "", "street_name": "chaucer court", "unit_num": "", "city": null, "state": null, "zip_code": "15143"}, "unit_num": ""}, {"universe": {"house_number": "1716", "house_number_suffix": "", "street_name": "st johns lane", "unit_num": "", "city": null, "state": null, "zip_code": "15143"}, "match": {"house_number": "1716", "house_number_suffix": "", "street_name": "saint johns lane", "unit_num": "", "city": null, "state": null, "zip_code": "15143"}, "unit_num": ""}, {"universe": {"house_number": "1430", "house_number_suffix": "", "street_name": "shevlin ct n court", "unit_num": "", "city": null, "state": null, "zip_code": "15143"}, "match": {"house_number": "1430", "house_number_suffix": "", "street_name": "north shevlin court", "unit_num": "", "city": null, "state": null, "zip_code": "15143"}, "unit_num": ""}, {"universe": {"house_number": "108", "house_number_suffix": "", "street_name": "william penn circle", "unit_num": "CIR", "city": null, "state": null, "zip_code": "15143"}, "match": {"house_number": "108", "house_number_suffix": "", "street_name": "william penn circle", "unit_num": "", "city": null, "state": null, "zip_code": "15143"}, "unit_num": ""}, {"universe": {"house_number": "26", "house_number_suffix": "", "street_name": "timberhill drive", "unit_num": "", "city": null, "state": null, "zip_code": "15143"}, "match": {"house_number": "26", "house_number_suffix": "", "street_name": "timberhill drive", "unit_num": "", "city": null, "state": null, "zip_code": "15143"}, "unit_num": ""}, {"universe": {"house_number": "26", "house_number_suffix": "", "street_name": "timberhill drive", "unit_num": "", "city": null, "state": null, "zip_code": "15143"}, "match": {"house_number": "26", "house_number_suffix": "", "street_name": "timberhill drive", "unit_num": "", "city": null, "state": null, "zip_code": "15143"}, "unit_num": ""}, {"universe": {"house_number": "1605", "house_number_suffix": "", "street_name": "catherine court", "unit_num": "", "city": null, "state": null, "zip_code": "15143"}, "match": {"house_number": "1605", "house_number_suffix": "", "street_name": "catherine court", "unit_num": "", "city": null, "state": null, "zip_code": "15143"}, "unit_num": ""}, {"universe": {"house_number": "2142", "house_number_suffix": "", "street_name": "reis run road", "unit_num": "RD", "city": null, "state": null, "zip_code": "15237"}, "match": {"house_number": "2142", "house_number_suffix": "", "street_name": "reis run road", "unit_num": "", "city": null, "state": null, "zip_code": "15237"}, "unit_num": ""}, {"universe": {"house_number": "340", "house_number_suffix": "", "street_name": "thorn street", "unit_num": "44", "city": null, "state": null, "zip_code": "15143"}, "match": {"house_number": "340", "house_number_suffix": "", "street_name": "thorn street", "unit_num": "", "city": null, "state": null, "zip_code": "15143"}, "unit_num": "44"}, {"universe": {"house_number": "106", "house_number_suffix": "", "street_name": "little hollow drive", "unit_num": "DR", "city": null, "state": null, "zip_code": "15143"}, "match": {"house_number": "106", "house_number_suffix": "", "street_name": "little hollow drive", "unit_num": "", "city": null, "state": null, "zip_code": "15143"}, "unit_num": ""}, {"universe": {"house_number": "2521", "house_number_suffix": "", "street_name": "riva ridge court", "unit_num": "CT", "city": null, "state": null, "zip_code": "15090"}, "match": {"house_number": "2521", "house_number_suffix": "", "street_name": "riva ridge court", "unit_num": "", "city": null, "state": null, "zip_code": "15090"}, "unit_num": ""}, {"universe": {"house_number": "1049", "house_number_suffix": "", "street_name": "masonic drive", "unit_num": "G223", "city": null, "state": null, "zip_code": "15143"}, "match": "DNE"}, {"universe": {"house_number": "2582", "house_number_suffix": "", "street_name": "hunters point ct n court", "unit_num": "", "city": null, "state": null, "zip_code": "15090"}, "match": {"house_number": "2582", "house_number_suffix": "", "street_name": "hunters point court", "unit_num": "", "city": null, "state": null, "zip_code": "15090"}, "unit_num": ""}, {"universe": {"house_number": "193", "house_number_suffix": "", "street_name": "witherow rd ext road", "unit_num": "", "city": null, "state": null, "zip_code": "15143"}, "match": {"house_number": "193", "house_number_suffix": "", "street_name": "witherow road extension", "unit_num": "", "city": null, "state": null, "zip_code": "15143"}, "unit_num": ""}, {"universe": {"house_number": "2670", "house_number_suffix": "", "street_name": "timberglen dr w drive", "unit_num": "", "city": null, "state": null, "zip_code": "15090"}, "match": {"house_number": "2670", "house_number_suffix": "", "street_name": "timberglen west drive", "unit_num": "", "city": null, "state": null, "zip_code": "15090"}, "unit_num": ""}, {"universe": {"house_number": "1502", "house_number_suffix": "", "street_name": "la place point court", "unit_num": "300", "city": null, "state": null, "zip_code": "15143"}, "match": {"house_number": "1502", "house_number_suffix": "", "street_name": "laplace point court", "unit_num": "", "city": null, "state": null, "zip_code": "15143"}, "unit_num": "300"}, {"universe": {"house_number": "1502", "house_number_suffix": "", "street_name": "la place point court", "unit_num": "300", "city": null, "state": null, "zip_code": "15143"}, "match": {"house_number": "1502", "house_number_suffix": "", "street_name": "laplace point court", "unit_num": "", "city": null, "state": null, "zip_code": "15143"}, "unit_num": "300"}, {"universe": {"house_number": "1728", "house_number_suffix": "", "street_name": "st johns lane", "unit_num": "", "city": null, "state": null, "zip_code": "15143"}, "match": {"house_number": "1728", "house_number_suffix": "", "street_name": "saint johns lane", "unit_num": "", "city": null, "state": null, "zip_code": "15143"}, "unit_num": ""}, {"universe": {"house_number": "1728", "house_number_suffix": "", "street_name": "st johns lane", "unit_num": "", "city": null, "state": null, "zip_code": "15143"}, "match": {"house_number": "1728", "house_number_suffix": "", "street_name": "saint johns lane", "unit_num": "", "city": null, "state": null, "zip_code": "15143"}, "unit_num": ""}, {"universe": {"house_number": "2607", "house_number_suffix": "", "street_name": "hunters point ct s court", "unit_num": "", "city": null, "state": null, "zip_code": "15090"}, "match": {"house_number": "2607", "house_number_suffix": "", "street_name": "hunters point court", "unit_num": "", "city": null, "state": null, "zip_code": "15090"}, "unit_num": ""}, {"universe": {"house_number": "2544", "house_number_suffix": "", "street_name": "pheasant run", "unit_num": "A", "city": null, "state": null, "zip_code": "15090"}, "match": {"house_number": "2544", "house_number_suffix": "A", "street_name": "pheasant run", "unit_num": "", "city": null, "state": null, "zip_code": "15090"}, "unit_num": "A"}, {"universe": {"house_number": "112", "house_number_suffix": "", "street_name": "wood hollow drive", "unit_num": "DR", "city": null, "state": null, "zip_code": "15143"}, "match": {"house_number": "112", "house_number_suffix": "", "street_name": "wood hollow drive", "unit_num": "", "city": null, "state": null, "zip_code": "15143"}, "unit_num": ""}, {"universe": {"house_number": "105", "house_number_suffix": "", "street_name": "bell farm estates", "unit_num": "ESTS", "city": null, "state": null, "zip_code": "15143"}, "match": {"house_number": "105", "house_number_suffix": "", "street_name": "bell farm estates", "unit_num": "", "city": null, "state": null, "zip_code": "15143"}, "unit_num": ""}, {"universe": {"house_number": "215", "house_number_suffix": "", "street_name": "dawson street", "unit_num": "", "city": null, "state": null, "zip_code": "15143"}, "match": {"house_number": "215", "house_number_suffix": "", "street_name": "dawson avenue", "unit_num": "", "city": null, "state": null, "zip_code": "15143"}, "unit_num": ""}, {"universe": {"house_number": "1547", "house_number_suffix": "", "street_name": "ingomar rd w road", "unit_num": "", "city": null, "state": null, "zip_code": "15237"}, "match": {"house_number": "1547", "house_number_suffix": "", "street_name": "w ingomar road", "unit_num": "", "city": null, "state": null, "zip_code": "15237"}, "unit_num": ""}, {"universe": {"house_number": "2057", "house_number_suffix": "", "street_name": "reis run road", "unit_num": "RD", "city": null, "state": null, "zip_code": "15237"}, "match": {"house_number": "2057", "house_number_suffix": "", "street_name": "reis run road", "unit_num": "", "city": null, "state": null, "zip_code": "15237"}, "unit_num": ""}, {"universe": {"house_number": "2505", "house_number_suffix": "", "street_name": "fairmont church drive", "unit_num": "", "city": null, "state": null, "zip_code": "15143"}, "match": {"house_number": "2505", "house_number_suffix": "", "street_name": "fairmount church road", "unit_num": "", "city": null, "state": null, "zip_code": "15143"}, "unit_num": ""}, {"universe": {"house_number": "1413", "house_number_suffix": "", "street_name": "shevlin ct n court", "unit_num": "", "city": null, "state": null, "zip_code": "15143"}, "match": {"house_number": "1413", "house_number_suffix": "", "street_name": "north shevlin court", "unit_num": "", "city": null, "state": null, "zip_code": "15143"}, "unit_num": ""}, {"universe": {"house_number": "1419", "house_number_suffix": "", "street_name": "shevlin ct n court", "unit_num": "", "city": null, "state": null, "zip_code": "15143"}, "match": {"house_number": "1419", "house_number_suffix": "", "street_name": "north shevlin court", "unit_num": "", "city": null, "state": null, "zip_code": "15143"}, "unit_num": ""}, {"universe": {"house_number": "1419", "house_number_suffix": "", "street_name": "shevlin ct n court", "unit_num": "", "city": null, "state": null, "zip_code": "15143"}, "match": {"house_number": "1419", "house_number_suffix": "", "street_name": "north shevlin court", "unit_num": "", "city": null, "state": null, "zip_code": "15143"}, "unit_num": ""}, {"universe": {"house_number": "2552", "house_number_suffix": "", "street_name": "fairmont church drive", "unit_num": "", "city": null, "state": null, "zip_code": "15143"}, "match": {"house_number": "2552", "house_number_suffix": "", "street_name": "fairmount church road", "unit_num": "", "city": null, "state": null, "zip_code": "15143"}, "unit_num": ""}, {"universe": {"house_number": "210", "house_number_suffix": "", "street_name": "chaucer ct s court", "unit_num": "", "city": null, "state": null, "zip_code": "15143"}, "match": {"house_number": "210", "house_number_suffix": "", "street_name": "chaucer court", "unit_num": "", "city": null, "state": null, "zip_code": "15143"}, "unit_num": ""}, {"universe": {"house_number": "4", "house_number_suffix": "", "street_name": "fox hill farm road", "unit_num": "RD", "city": null, "state": null, "zip_code": "15143"}, "match": {"house_number": "4", "house_number_suffix": "", "street_name": "fox hill farm road", "unit_num": "", "city": null, "state": null, "zip_code": "15143"}, "unit_num": ""}, {"universe": {"house_number": "2356", "house_number_suffix": "", "street_name": "little sewickley creek road", "unit_num": "RD", "city": null, "state": null, "zip_code": "15143"}, "match": {"house_number": "2356", "house_number_suffix": "", "street_name": "little sewickley creek road", "unit_num": "", "city": null, "state": null, "zip_code": "15143"}, "unit_num": ""}, {"universe": {"house_number": "90", "house_number_suffix": "", "street_name": "summerlawn drive", "unit_num": "", "city": null, "state": null, "zip_code": "15143"}, "match": {}}, {"universe": {"house_number": "2665", "house_number_suffix": "", "street_name": "timberglen dr e drive", "unit_num": "", "city": null, "state": null, "zip_code": "15090"}, "match": {"house_number": "2665", "house_number_suffix": "", "street_name": "timberglen east drive", "unit_num": "", "city": null, "state": null, "zip_code": "15090"}, "unit_num": ""}, {"universe": {"house_number": "1413", "house_number_suffix": "", "street_name": "shevlin ct n court", "unit_num": "", "city": null, "state": null, "zip_code": "15143"}, "match": {"house_number": "1413", "house_number_suffix": "", "street_name": "north shevlin court", "unit_num": "", "city": null, "state": null, "zip_code": "15143"}, "unit_num": ""}, {"universe": {"house_number": "1248", "house_number_suffix": "", "street_name": "glen mitchell road", "unit_num": "", "city": null, "state": null, "zip_code": "15143"}, "match": {}}, {"universe": {"house_number": "103", "house_number_suffix": "", "street_name": "fairacres drive", "unit_num": "DR", "city": null, "state": null, "zip_code": "15143"}, "match": {"house_number": "103", "house_number_suffix": "", "street_name": "fair acres drive", "unit_num": "", "city": null, "state": null, "zip_code": "15143"}, "unit_num": ""}, {"universe": {"house_number": "103", "house_number_suffix": "", "street_name": "fairacres drive", "unit_num": "DR", "city": null, "state": null, "zip_code": "15143"}, "match": {"house_number": "103", "house_number_suffix": "", "street_name": "fair acres drive", "unit_num": "", "city": null, "state": null, "zip_code": "15143"}, "unit_num": ""}, {"universe": {"house_number": "1511", "house_number_suffix": "", "street_name": "king charles drive", "unit_num": "DR", "city": null, "state": null, "zip_code": "15237"}, "match": {"house_number": "1511", "house_number_suffix": "", "street_name": "king charles drive", "unit_num": "", "city": null, "state": null, "zip_code": "15237"}, "unit_num": ""}, {"universe": {"house_number": "2558", "house_number_suffix": "", "street_name": "wexford bayne road", "unit_num": "RD", "city": null, "state": null, "zip_code": "15143"}, "match": {"house_number": "2558", "house_number_suffix": "", "street_name": "wexford bayne road", "unit_num": "", "city": null, "state": null, "zip_code": "15143"}, "unit_num": ""}, {"universe": {"house_number": "1575", "house_number_suffix": "", "street_name": "king charles drive", "unit_num": "DR", "city": null, "state": null, "zip_code": "15237"}, "match": {"house_number": "1575", "house_number_suffix": "", "street_name": "king charles drive", "unit_num": "", "city": null, "state": null, "zip_code": "15237"}, "unit_num": ""}, {"universe": {"house_number": "1248", "house_number_suffix": "", "street_name": "glen mitchell road", "unit_num": "", "city": null, "state": null, "zip_code": "15143"}, "match": {}}, {"universe": {"house_number": "230", "house_number_suffix": "", "street_name": "mccoy place road", "unit_num": "RD", "city": null, "state": null, "zip_code": "15143"}, "match": {"house_number": "230", "house_number_suffix": "", "street_name": "mccoy place road", "unit_num": "", "city": null, "state": null, "zip_code": "15143"}, "unit_num": ""}, {"universe": {"house_number": "1571", "house_number_suffix": "", "street_name": "king charles drive", "unit_num": "DR", "city": null, "state": null, "zip_code": "15237"}, "match": {"house_number": "1571", "house_number_suffix": "", "street_name": "king charles drive", "unit_num": "", "city": null, "state": null, "zip_code": "15237"}, "unit_num": ""}, {"universe": {"house_number": "2356", "house_number_suffix": "", "street_name": "masonic drive", "unit_num": "2356", "city": null, "state": null, "zip_code": "15143"}, "match": {"house_number": "2356", "house_number_suffix": "", "street_name": "masonic drive", "unit_num": "", "city": null, "state": null, "zip_code": "15143"}, "unit_num": "2356"}, {"universe": {"house_number": "1420", "house_number_suffix": "", "street_name": "shevlin ct n court", "unit_num": "", "city": null, "state": null, "zip_code": "15143"}, "match": {"house_number": "1420", "house_number_suffix": "", "street_name": "north shevlin court", "unit_num": "", "city": null, "state": null, "zip_code": "15143"}, "unit_num": ""}, {"universe": {"house_number": "1420", "house_number_suffix": "", "street_name": "shevlin ct n court", "unit_num": "", "city": null, "state": null, "zip_code": "15143"}, "match": {"house_number": "1420", "house_number_suffix": "", "street_name": "north shevlin court", "unit_num": "", "city": null, "state": null, "zip_code": "15143"}, "unit_num": ""}, {"universe": {"house_number": "1585", "house_number_suffix": "", "street_name": "stone mansion drive", "unit_num": "DR", "city": null, "state": null, "zip_code": "15143"}, "match": {"house_number": "1585", "house_number_suffix": "", "street_name": "stone mansion drive", "unit_num": "", "city": null, "state": null, "zip_code": "15143"}, "unit_num": ""}, {"universe": {"house_number": "1511", "house_number_suffix": "", "street_name": "w view lane", "unit_num": "", "city": null, "state": null, "zip_code": "15237"}, "match": {"house_number": "1511", "house_number_suffix": "", "street_name": "west view lane", "unit_num": "", "city": null, "state": null, "zip_code": "15237"}, "unit_num": ""}, {"universe": {"house_number": "1511", "house_number_suffix": "", "street_name": "w view lane", "unit_num": "", "city": null, "state": null, "zip_code": "15237"}, "match": {"house_number": "1511", "house_number_suffix": "", "street_name": "west view lane", "unit_num": "", "city": null, "state": null, "zip_code": "15237"}, "unit_num": ""}, {"universe": {"house_number": "333", "house_number_suffix": "", "street_name": "beaver street", "unit_num": "1", "city": null, "state": null, "zip_code": "15143"}, "match": {"house_number": "333", "house_number_suffix": "", "street_name": "beaver street", "unit_num": "", "city": null, "state": null, "zip_code": "15143"}, "unit_num": "1"}, {"universe": {"house_number": "1608", "house_number_suffix": "", "street_name": "english oak court", "unit_num": "CT", "city": null, "state": null, "zip_code": "15090"}, "match": {"house_number": "1608", "house_number_suffix": "", "street_name": "english oak court", "unit_num": "", "city": null, "state": null, "zip_code": "15090"}, "unit_num": ""}, {"universe": {"house_number": "1544", "house_number_suffix": "", "street_name": "ingomar rd w road", "unit_num": "", "city": null, "state": null, "zip_code": "15237"}, "match": {"house_number": "1544", "house_number_suffix": "", "street_name": "w ingomar road", "unit_num": "", "city": null, "state": null, "zip_code": "15237"}, "unit_num": ""}, {"universe": {"house_number": "607", "house_number_suffix": "", "street_name": "hill street", "unit_num": "2", "city": null, "state": null, "zip_code": "15143"}, "match": {"house_number": "607", "house_number_suffix": "", "street_name": "hill street", "unit_num": "", "city": null, "state": null, "zip_code": "15143"}, "unit_num": "2"}, {"universe": {"house_number": "2561", "house_number_suffix": "A", "street_name": "pheasant run", "unit_num": "DR", "city": null, "state": null, "zip_code": "15090"}, "match": {"house_number": "2561", "house_number_suffix": "A", "street_name": "pheasant run", "unit_num": "", "city": null, "state": null, "zip_code": "15090"}, "unit_num": ""}, {"universe": {"house_number": "2234", "house_number_suffix": "", "street_name": "masonic drive", "unit_num": "4", "city": null, "state": null, "zip_code": "15143"}, "match": {"house_number": "2234", "house_number_suffix": "", "street_name": "masonic drive", "unit_num": "", "city": null, "state": null, "zip_code": "15143"}, "unit_num": "4"}, {"universe": {"house_number": "2713", "house_number_suffix": "", "street_name": "timberglen dr w drive", "unit_num": "", "city": null, "state": null, "zip_code": "15090"}, "match": {"house_number": "2713", "house_number_suffix": "", "street_name": "timberglen west drive", "unit_num": "", "city": null, "state": null, "zip_code": "15090"}, "unit_num": ""}, {"universe": {"house_number": "2155", "house_number_suffix": "", "street_name": "huntington ct s court", "unit_num": "", "city": null, "state": null, "zip_code": "15090"}, "match": {"house_number": "2155", "house_number_suffix": "", "street_name": "huntington court", "unit_num": "", "city": null, "state": null, "zip_code": "15090"}, "unit_num": ""}, {"universe": {"house_number": "1804", "house_number_suffix": "", "street_name": "hawthorn ct n court", "unit_num": "", "city": null, "state": null, "zip_code": "15237"}, "match": {"house_number": "1804", "house_number_suffix": "", "street_name": "n hawthorn court", "unit_num": "", "city": null, "state": null, "zip_code": "15237"}, "unit_num": ""}, {"universe": {"house_number": "2533", "house_number_suffix": "", "street_name": "wexford run road", "unit_num": "RD", "city": null, "state": null, "zip_code": "15090"}, "match": {"house_number": "2533", "house_number_suffix": "", "street_name": "wexford run road", "unit_num": "", "city": null, "state": null, "zip_code": "15090"}, "unit_num": ""}, {"universe": {"house_number": "1109", "house_number_suffix": "", "street_name": "deerfield drive", "unit_num": "", "city": null, "state": null, "zip_code": "15143"}, "match": "DNE"}, {"universe": {"house_number": "634", "house_number_suffix": "", "street_name": "beaver street", "unit_num": "FRNT", "city": null, "state": null, "zip_code": "15143"}, "match": {"house_number": "634", "house_number_suffix": "", "street_name": "beaver street", "unit_num": "", "city": null, "state": null, "zip_code": "15143"}, "unit_num": "FRNT"}, {"universe": {"house_number": "1547", "house_number_suffix": "", "street_name": "ingomar rd w road", "unit_num": "", "city": null, "state": null, "zip_code": "15237"}, "match": {"house_number": "1547", "house_number_suffix": "", "street_name": "w ingomar road", "unit_num": "", "city": null, "state": null, "zip_code": "15237"}, "unit_num": ""}]