[{"universe": {"house_number": "1047", "house_number_suffix": "", "street_name": "masonic drive", "unit_num": "", "city": null, "state": null, "zip_code": "15143"}, "choices": []}, {"universe": {"house_number": "1023", "house_number_suffix": "", "street_name": "masonic drive", "unit_num": "", "city": null, "state": null, "zip_code": "15143"}, "choices": []}, {"universe": {"house_number": "1104", "house_number_suffix": "", "street_name": "big sewickley creek road", "unit_num": "", "city": null, "state": null, "zip_code": "15143"}, "choices": []}, {"universe": {"house_number": "1064", "house_number_suffix": "", "street_name": "masonic drive", "unit_num": "", "city": null, "state": null, "zip_code": "15143"}, "choices": []}, {"universe": {"house_number": "510", "house_number_suffix": "", "street_name": "ingleside avenue", "unit_num": "", "city": null, "state": null, "zip_code": "15143"}, "choices": []}, {"universe": {"house_number": "410", "house_number_suffix": "", "street_name": "stone alley", "unit_num": "", "city": null, "state": null, "zip_code": "15003"}, "choices": []}, {"universe": {"house_number": "1042", "house_number_suffix": "", "street_name": "masonic drive", "unit_num": "", "city": null, "state": null, "zip_code": "15143"}, "choices": []}, {"universe": {"house_number": "32", "house_number_suffix": "", "street_name": "river avenue", "unit_num": "", "city": null, "state": null, "zip_code": "15143"}, "choices": []}, {"universe": {"house_number": "362", "house_number_suffix": "", "street_name": "ingleside avenue", "unit_num": "", "city": null, "state": null, "zip_code": "15143"}, "choices": []}, {"universe": {"house_number": "5", "house_number_suffix": "", "street_name": "barberry road", "unit_num": "", "city": null, "state": null, "zip_code": "15143"}, "choices": []}, {"universe": {"house_number": "1024", "house_number_suffix": "", "street_name": "masonic drive", "unit_num": "", "city": null, "state": null, "zip_code": "15143"}, "choices": []}, {"universe": {"house_number": "472", "house_number_suffix": "", "street_name": "school street", "unit_num": "", "city": null, "state": null, "zip_code": "15143"}, "choices": []}, {"universe": {"house_number": "2598", "house_number_suffix": "", "street_name": "big sewickley creek road", "unit_num": "", "city": null, "state": null, "zip_code": "15143"}, "choices": []}, {"universe": {"house_number": "2631", "house_number_suffix": "", "street_name": "big sewickley creek road", "unit_num": "", "city": null, "state": null, "zip_code": "15143"}, "choices": []}, {"universe": {"house_number": "2707", "house_number_suffix": "", "street_name": "timberglen dr e drive", "unit_num": "", "city": null, "state": null, "zip_code": "15090"}, "choices": []}, {"universe": {"house_number": "588", "house_number_suffix": "", "street_name": "blackburn road", "unit_num": "", "city": null, "state": null, "zip_code": "15143"}, "choices": []}, {"universe": {"house_number": "316", "house_number_suffix": "", "street_name": "sewickley heights drive", "unit_num": "DR", "city": null, "state": null, "zip_code": "15143"}, "choices": []}, {"universe": {"house_number": "1", "house_number_suffix": "", "street_name": "pink house road", "unit_num": "", "city": null, "state": null, "zip_code": "15143"}, "choices": []}, {"universe": {"house_number": "1", "house_number_suffix": "", "street_name": "pink house road", "unit_num": "", "city": null, "state": null, "zip_code": "15143"}, "choices": []}, {"universe": {"house_number": "362", "house_number_suffix": "", "street_name": "ingleside avenue", "unit_num": "", "city": null, "state": null, "zip_code": "15143"}, "choices": []}, {"universe": {"house_number": "275", "house_number_suffix": "", "street_name": "scaife road", "unit_num": "", "city": null, "state": null, "zip_code": "15143"}, "choices": []}, {"universe": {"house_number": "1039", "house_number_suffix": "", "street_name": "big sewickley creek road", "unit_num": "", "city": null, "state": null, "zip_code": "15143"}, "choices": []}, {"universe": {"house_number": "255", "house_number_suffix": "", "street_name": "scaife road", "unit_num": "", "city": null, "state": null, "zip_code": "15143"}, "choices": []}, {"universe": {"house_number": "1035", "house_number_suffix": "", "street_name": "big sewickley creek road", "unit_num": "", "city": null, "state": null, "zip_code": "15143"}, "choices": []}, {"universe": {"house_number": "2330", "house_number_suffix": "", "street_name": "walruth lane", "unit_num": "", "city": null, "state": null, "zip_code": "15143"}, "choices": []}, {"universe": {"house_number": "1119", "house_number_suffix": "", "street_name": "deerfield drive", "unit_num": "", "city": null, "state": null, "zip_code": "15143"}, "choices": []}, {"universe": {"house_number": "220", "house_number_suffix": "", "street_name": "erie avenue", "unit_num": "215", "city": null, "state": null, "zip_code": "15045"}, "choices": []}, {"universe": {"house_number": "1067", "house_number_suffix": "", "street_name": "masonic drive", "unit_num": "", "city": null, "state": null, "zip_code": "15143"}, "choices": []}, {"universe": {"house_number": "1030", "house_number_suffix": "", "street_name": "masonic drive", "unit_num": "", "city": null, "state": null, "zip_code": "15143"}, "choices": []}, {"universe": {"house_number": "7", "house_number_suffix": "", "street_name": "merriman road", "unit_num": "", "city": null, "state": null, "zip_code": "15143"}, "choices": []}, {"universe": {"house_number": "332", "house_number_suffix": "", "street_name": "ingleside avenue", "unit_num": "2", "city": null, "state": null, "zip_code": "15143"}, "choices": []}, {"universe": {"house_number": "44", "house_number_suffix": "", "street_name": "timberhill drive", "unit_num": "", "city": null, "state": null, "zip_code": "15143"}, "choices": []}, {"universe": {"house_number": "1011", "house_number_suffix": "", "street_name": "masonic drive", "unit_num": "2249", "city": null, "state": null, "zip_code": "15143"}, "choices": []}, {"universe": {"house_number": "312", "house_number_suffix": "", "street_name": "sewickley heights drive", "unit_num": "DR", "city": null, "state": null, "zip_code": "15143"}, "choices": []}, {"universe": {"house_number": "1035", "house_number_suffix": "", "street_name": "masonic drive", "unit_num": "", "city": null, "state": null, "zip_code": "15143"}, "choices": []}, {"universe": {"house_number": "103", "house_number_suffix": "", "street_name": "beaver road", "unit_num": "", "city": null, "state": null, "zip_code": "15143"}, "choices": []}, {"universe": {"house_number": "209", "house_number_suffix": "", "street_name": "grant street", "unit_num": "", "city": null, "state": null, "zip_code": "15143"}, "choices": []}, {"universe": {"house_number": "2307", "house_number_suffix": "", "street_name": "mcaleer road", "unit_num": "", "city": null, "state": null, "zip_code": "15143"}, "choices": []}, {"universe": {"house_number": "51", "house_number_suffix": "", "street_name": "timberhill drive", "unit_num": "", "city": null, "state": null, "zip_code": "15143"}, "choices": []}, {"universe": {"house_number": "3015", "house_number_suffix": "", "street_name": "shepard lane", "unit_num": "", "city": null, "state": null, "zip_code": "15143"}, "choices": []}, {"universe": {"house_number": "2606", "house_number_suffix": "", "street_name": "big sewickley creek road", "unit_num": "", "city": null, "state": null, "zip_code": "15143"}, "choices": []}, {"universe": {"house_number": "1601", "house_number_suffix": "", "street_name": "catherine court", "unit_num": "", "city": null, "state": null, "zip_code": "15143"}, "choices": []}, {"universe": {"house_number": "39", "house_number_suffix": "", "street_name": "timberhill drive", "unit_num": "", "city": null, "state": null, "zip_code": "15143"}, "choices": []}, {"universe": {"house_number": "275", "house_number_suffix": "", "street_name": "scaife road", "unit_num": "", "city": null, "state": null, "zip_code": "15143"}, "choices": []}, {"universe": {"house_number": "2017", "house_number_suffix": "", "street_name": "masonic drive", "unit_num": "", "city": null, "state": null, "zip_code": "15143"}, "choices": []}, {"universe": {"house_number": "2602", "house_number_suffix": "", "street_name": "big sewickley creek road", "unit_num": "", "city": null, "state": null, "zip_code": "15143"}, "choices": []}, {"universe": {"house_number": "2644", "house_number_suffix": "", "street_name": "weinman road", "unit_num": "", "city": null, "state": null, "zip_code": "15090"}, "choices": []}, {"universe": {"house_number": "5", "house_number_suffix": "", "street_name": "lee road", "unit_num": "", "city": null, "state": null, "zip_code": "15143"}, "choices": []}, {"universe": {"house_number": "1026", "house_number_suffix": "", "street_name": "masonic drive", "unit_num": "", "city": null, "state": null, "zip_code": "15143"}, "choices": []}, {"universe": {"house_number": "426", "house_number_suffix": "1/2", "street_name": "oliver road", "unit_num": "", "city": null, "state": null, "zip_code": "15143"}, "choices": [[{"house_number": "426", "house_number_suffix": "", "street_name": "oliver road", "unit_num": "", "city": null, "state": null, "zip_code": "15143"}, 100.0, 987, "105072720:105072729:0", "29669547-bedd-52d6-b8c0-880f46916215"]]}, {"universe": {"house_number": "129", "house_number_suffix": "", "street_name": "fairmont church drive", "unit_num": "", "city": null, "state": null, "zip_code": "15143"}, "choices": []}, {"universe": {"house_number": "2491", "house_number_suffix": "", "street_name": "pleughal road", "unit_num": "", "city": null, "state": null, "zip_code": "15143"}, "choices": []}, {"universe": {"house_number": "2606", "house_number_suffix": "", "street_name": "big sewickley creek road", "unit_num": "", "city": null, "state": null, "zip_code": "15143"}, "choices": []}, {"universe": {"house_number": "541", "house_number_suffix": "", "street_name": "redgate road", "unit_num": "", "city": null, "state": null, "zip_code": "15143"}, "choices": []}, {"universe": {"house_number": "1", "house_number_suffix": "", "street_name": "pink house road", "unit_num": "", "city": null, "state": null, "zip_code": "15143"}, "choices": []}, {"universe": {"house_number": "2483", "house_number_suffix": "", "street_name": "pleughal road", "unit_num": "", "city": null, "state": null, "zip_code": "15143"}, "choices": []}, {"universe": {"house_number": "51", "house_number_suffix": "", "street_name": "timberhill drive", "unit_num": "", "city": null, "state": null, "zip_code": "15143"}, "choices": []}, {"universe": {"house_number": "2456", "house_number_suffix": "", "street_name": "nicholson road", "unit_num": "", "city": null, "state": null, "zip_code": "15143"}, "choices": []}, {"universe": {"house_number": "0", "house_number_suffix": "", "street_name": "quaker hollow road", "unit_num": "", "city": null, "state": null, "zip_code": "15143"}, "choices": []}, {"universe": {"house_number": "277", "house_number_suffix": "", "street_name": "scaife road", "unit_num": "", "city": null, "state": null, "zip_code": "15143"}, "choices": []}, {"universe": {"house_number": "315", "house_number_suffix": "", "street_name": "scaife road", "unit_num": "", "city": null, "state": null, "zip_code": "15143"}, "choices": []}, {"universe": {"house_number": "51", "house_number_suffix": "", "street_name": "timberhill drive", "unit_num": "", "city": null, "state": null, "zip_code": "15143"}, "choices": []}, {"universe": {"house_number": "132", "house_number_suffix": "", "street_name": "mccoy place road", "unit_num": "", "city": null, "state": null, "zip_code": "15143"}, "choices": []}, {"universe": {"house_number": "846", "house_number_suffix": "", "street_name": "dixon st or road", "unit_num": "", "city": null, "state": null, "zip_code": "15143"}, "choices": []}, {"universe": {"house_number": "497", "house_number_suffix": "", "street_name": "scaife road", "unit_num": "", "city": null, "state": null, "zip_code": "15143"}, "choices": []}, {"universe": {"house_number": "0", "house_number_suffix": "", "street_name": "stonedale road", "unit_num": "", "city": null, "state": null, "zip_code": "15143"}, "choices": []}, {"universe": {"house_number": "39", "house_number_suffix": "", "street_name": "timberhill drive", "unit_num": "", "city": null, "state": null, "zip_code": "15143"}, "choices": []}, {"universe": {"house_number": "168", "house_number_suffix": "", "street_name": "mccoy place road", "unit_num": "", "city": null, "state": null, "zip_code": "15143"}, "choices": []}, {"universe": {"house_number": "1036", "house_number_suffix": "", "street_name": "masonic drive", "unit_num": "1223", "city": null, "state": null, "zip_code": "15143"}, "choices": []}, {"universe": {"house_number": "", "house_number_suffix": "", "street_name": "water works road", "unit_num": "", "city": null, "state": null, "zip_code": "15143"}, "choices": []}, {"universe": {"house_number": "1601", "house_number_suffix": "", "street_name": "catherine court", "unit_num": "", "city": null, "state": null, "zip_code": "15143"}, "choices": []}, {"universe": {"house_number": "1056", "house_number_suffix": "", "street_name": "masonic drive", "unit_num": "", "city": null, "state": null, "zip_code": "15143"}, "choices": []}, {"universe": {"house_number": "1604", "house_number_suffix": "", "street_name": "catherine court", "unit_num": "", "city": null, "state": null, "zip_code": "15143"}, "choices": []}, {"universe": {"house_number": "2707", "house_number_suffix": "", "street_name": "timberglen dr e drive", "unit_num": "", "city": null, "state": null, "zip_code": "15090"}, "choices": []}, {"universe": {"house_number": "510", "house_number_suffix": "", "street_name": "ingleside avenue", "unit_num": "", "city": null, "state": null, "zip_code": "15143"}, "choices": []}, {"universe": {"house_number": "867", "house_number_suffix": "", "street_name": "blackburn road", "unit_num": "", "city": null, "state": null, "zip_code": "15143"}, "choices": []}, {"universe": {"house_number": "410", "house_number_suffix": "", "street_name": "stone alley", "unit_num": "", "city": null, "state": null, "zip_code": "15003"}, "choices": []}, {"universe": {"house_number": "52", "house_number_suffix": "", "street_name": "timberhill drive", "unit_num": "", "city": null, "state": null, "zip_code": "15143"}, "choices": []}, {"universe": {"house_number": "3", "house_number_suffix": "", "street_name": "fox hill farm road", "unit_num": "RD", "city": null, "state": null, "zip_code": "15143"}, "choices": [[{"house_number": "3", "house_number_suffix": "A", "street_name": "fox hill farm road", "unit_num": "", "city": null, "state": null, "zip_code": "15143"}, 100.0, 15991, "104574670:105717238:0", "afa05423-e6af-5c51-b26e-6fd04de5c6f1"], [{"house_number": "3", "house_number_suffix": "C", "street_name": "fox hill farm road", "unit_num": "", "city": null, "state": null, "zip_code": "15143"}, 100.0, 15992, "104574670:105717238:0", "0d200b52-9241-536d-a975-9c7bfb634645"], [{"house_number": "3", "house_number_suffix": "B", "street_name": "fox hill farm road", "unit_num": "", "city": null, "state": null, "zip_code": "15143"}, 100.0, 16801, "104574670:105717238:0", "01f0db3c-8edb-5734-bc2b-5c4dd6bd5e8d"]]}, {"universe": {"house_number": "392", "house_number_suffix": "", "street_name": "ingleside avenue", "unit_num": "", "city": null, "state": null, "zip_code": "15143"}, "choices": []}, {"universe": {"house_number": "315", "house_number_suffix": "", "street_name": "scaife road", "unit_num": "", "city": null, "state": null, "zip_code": "15143"}, "choices": []}, {"universe": {"house_number": "1052", "house_number_suffix": "", "street_name": "masonic drive", "unit_num": "", "city": null, "state": null, "zip_code": "15143"}, "choices": []}, {"universe": {"house_number": "277", "house_number_suffix": "", "street_name": "scaife road", "unit_num": "", "city": null, "state": null, "zip_code": "15143"}, "choices": []}, {"universe": {"house_number": "3011", "house_number_suffix": "", "street_name": "shepard lane", "unit_num": "", "city": null, "state": null, "zip_code": "15143"}, "choices": []}, {"universe": {"house_number": "1223", "house_number_suffix": "", "street_name": "big sewickley creek road", "unit_num": "", "city": null, "state": null, "zip_code": "15143"}, "choices": []}, {"universe": {"house_number": "516", "house_number_suffix": "", "street_name": "ingleside avenue", "unit_num": "", "city": null, "state": null, "zip_code": "15143"}, "choices": []}, {"universe": {"house_number": "516", "house_number_suffix": "", "street_name": "ingleside avenue", "unit_num": "", "city": null, "state": null, "zip_code": "15143"}, "choices": []}, {"universe": {"house_number": "541", "house_number_suffix": "", "street_name": "redgate road", "unit_num": "", "city": null, "state": null, "zip_code": "15143"}, "choices": []}, {"universe": {"house_number": "472", "house_number_suffix": "", "street_name": "school street", "unit_num": "", "city": null, "state": null, "zip_code": "15143"}, "choices": []}, {"universe": {"house_number": "2330", "house_number_suffix": "", "street_name": "walruth lane", "unit_num": "", "city": null, "state": null, "zip_code": "15143"}, "choices": []}, {"universe": {"house_number": "1024", "house_number_suffix": "", "street_name": "masonic drive", "unit_num": "", "city": null, "state": null, "zip_code": "15143"}, "choices": []}, {"universe": {"house_number": "332", "house_number_suffix": "", "street_name": "ingleside avenue", "unit_num": "", "city": null, "state": null, "zip_code": "15143"}, "choices": []}, {"universe": {"house_number": "1012", "house_number_suffix": "", "street_name": "masonic drive", "unit_num": "", "city": null, "state": null, "zip_code": "15143"}, "choices": []}, {"universe": {"house_number": "913", "house_number_suffix": "", "street_name": "wharrey drive", "unit_num": "", "city": null, "state": null, "zip_code": "15143"}, "choices": []}, {"universe": {"house_number": "1039", "house_number_suffix": "", "street_name": "big sewickley creek road", "unit_num": "", "city": null, "state": null, "zip_code": "15143"}, "choices": []}, {"universe": {"house_number": "1050", "house_number_suffix": "", "street_name": "masonic drive", "unit_num": "", "city": null, "state": null, "zip_code": "15143"}, "choices": []}, {"universe": {"house_number": "52", "house_number_suffix": "", "street_name": "plum street", "unit_num": "", "city": null, "state": null, "zip_code": "15003"}, "choices": []}, {"universe": {"house_number": "52", "house_number_suffix": "", "street_name": "plum street", "unit_num": "", "city": null, "state": null, "zip_code": "15003"}, "choices": []}, {"universe": {"house_number": "2631", "house_number_suffix": "", "street_name": "big sewickley creek road", "unit_num": "", "city": null, "state": null, "zip_code": "15143"}, "choices": []}, {"universe": {"house_number": "3015", "house_number_suffix": "", "street_name": "shepard lane", "unit_num": "", "city": null, "state": null, "zip_code": "15143"}, "choices": []}, {"universe": {"house_number": "84", "house_number_suffix": "", "street_name": "glen mitchell road", "unit_num": "", "city": null, "state": null, "zip_code": "15143"}, "choices": []}, {"universe": {"house_number": "1066", "house_number_suffix": "", "street_name": "masonic drive", "unit_num": "", "city": null, "state": null, "zip_code": "15143"}, "choices": []}, {"universe": {"house_number": "0", "house_number_suffix": "", "street_name": "pink house road", "unit_num": "", "city": null, "state": null, "zip_code": "15143"}, "choices": []}, {"universe": {"house_number": "316", "house_number_suffix": "", "street_name": "sewickley heights drive", "unit_num": "DR", "city": null, "state": null, "zip_code": "15143"}, "choices": []}, {"universe": {"house_number": "44", "house_number_suffix": "", "street_name": "timberhill drive", "unit_num": "", "city": null, "state": null, "zip_code": "15143"}, "choices": []}, {"universe": {"house_number": "867", "house_number_suffix": "", "street_name": "blackburn road", "unit_num": "", "city": null, "state": null, "zip_code": "15143"}, "choices": []}, {"universe": {"house_number": "317", "house_number_suffix": "", "street_name": "scaife road", "unit_num": "", "city": null, "state": null, "zip_code": "15143"}, "choices": []}, {"universe": {"house_number": "1606", "house_number_suffix": "", "street_name": "catherine court", "unit_num": "", "city": null, "state": null, "zip_code": "15143"}, "choices": []}, {"universe": {"house_number": "1068", "house_number_suffix": "", "street_name": "masonic drive", "unit_num": "", "city": null, "state": null, "zip_code": "15143"}, "choices": []}, {"universe": {"house_number": "1025", "house_number_suffix": "", "street_name": "masonic drive", "unit_num": "2248", "city": null, "state": null, "zip_code": "15143"}, "choices": []}, {"universe": {"house_number": "1049", "house_number_suffix": "", "street_name": "masonic drive", "unit_num": "", "city": null, "state": null, "zip_code": "15143"}, "choices": []}, {"universe": {"house_number": "1034", "house_number_suffix": "", "street_name": "masonic drive", "unit_num": "", "city": null, "state": null, "zip_code": "15143"}, "choices": []}, {"universe": {"house_number": "26", "house_number_suffix": "", "street_name": "pink house road", "unit_num": "", "city": null, "state": null, "zip_code": "15143"}, "choices": []}, {"universe": {"house_number": "26", "house_number_suffix": "", "street_name": "timberhill drive", "unit_num": "", "city": null, "state": null, "zip_code": "15143"}, "choices": []}, {"universe": {"house_number": "26", "house_number_suffix": "", "street_name": "timberhill drive", "unit_num": "", "city": null, "state": null, "zip_code": "15143"}, "choices": []}, {"universe": {"house_number": "1605", "house_number_suffix": "", "street_name": "catherine court", "unit_num": "", "city": null, "state": null, "zip_code": "15143"}, "choices": []}, {"universe": {"house_number": "1049", "house_number_suffix": "", "street_name": "masonic drive", "unit_num": "G223", "city": null, "state": null, "zip_code": "15143"}, "choices": []}, {"universe": {"house_number": "1604", "house_number_suffix": "", "street_name": "catherine court", "unit_num": "", "city": null, "state": null, "zip_code": "15143"}, "choices": []}, {"universe": {"house_number": "90", "house_number_suffix": "", "street_name": "summerlawn drive", "unit_num": "", "city": null, "state": null, "zip_code": "15143"}, "choices": []}, {"universe": {"house_number": "1248", "house_number_suffix": "", "street_name": "glen mitchell road", "unit_num": "", "city": null, "state": null, "zip_code": "15143"}, "choices": []}, {"universe": {"house_number": "2491", "house_number_suffix": "", "street_name": "pleughal road", "unit_num": "", "city": null, "state": null, "zip_code": "15143"}, "choices": []}, {"universe": {"house_number": "1248", "house_number_suffix": "", "street_name": "glen mitchell road", "unit_num": "", "city": null, "state": null, "zip_code": "15143"}, "choices": []}, {"universe": {"house_number": "1109", "house_number_suffix": "", "street_name": "deerfield drive", "unit_num": "", "city": null, "state": null, "zip_code": "15143"}, "choices": []}, {"universe": {"house_number": "1222", "house_number_suffix": "", "street_name": "glen mitchell road", "unit_num": "", "city": null, "state": null, "zip_code": "15143"}, "choices": []}, {"universe": {"house_number": "1100", "house_number_suffix": "", "street_name": "big sewickley creek road", "unit_num": "", "city": null, "state": null, "zip_code": "15143"}, "choices": []}, {"universe": {"house_number": "495", "house_number_suffix": "", "street_name": "scaife road", "unit_num": "", "city": null, "state": null, "zip_code": "15143"}, "choices": []}, {"universe": {"house_number": "1685", "house_number_suffix": "", "street_name": "sturbridge drive", "unit_num": "", "city": null, "state": null, "zip_code": "15143"}, "choices": []}, {"universe": {"house_number": "128", "house_number_suffix": "", "street_name": "s mccoy place road", "unit_num": "RD", "city": null, "state": null, "zip_code": "15143"}, "choices": []}, {"universe": {"house_number": "342", "house_number_suffix": "", "street_name": "ingleside avenue", "unit_num": "", "city": null, "state": null, "zip_code": "15143"}, "choices": []}, {"universe": {"house_number": "1223", "house_number_suffix": "", "street_name": "big sewickley creek road", "unit_num": "", "city": null, "state": null, "zip_code": "15143"}, "choices": []}, {"universe": {"house_number": "213", "house_number_suffix": "", "street_name": "dilworth road", "unit_num": "", "city": null, "state": null, "zip_code": "15143"}, "choices": []}, {"universe": {"house_number": "2227", "house_number_suffix": "", "street_name": "little sewickley creek road", "unit_num": "", "city": null, "state": null, "zip_code": "15143"}, "choices": []}, {"universe": {"house_number": "115", "house_number_suffix": "", "street_name": "woodcock drive", "unit_num": "", "city": null, "state": null, "zip_code": "15143"}, "choices": []}, {"universe": {"house_number": "115", "house_number_suffix": "", "street_name": "woodcock drive", "unit_num": "", "city": null, "state": null, "zip_code": "15143"}, "choices": []}, {"universe": {"house_number": "115", "house_number_suffix": "", "street_name": "woodcock drive", "unit_num": "", "city": null, "state": null, "zip_code": "15143"}, "choices": []}, {"universe": {"house_number": "1809", "house_number_suffix": "", "street_name": "willow oak drive", "unit_num": "DR", "city": null, "state": null, "zip_code": "15090"}, "choices": []}, {"universe": {"house_number": "52", "house_number_suffix": "", "street_name": "timberhill drive", "unit_num": "", "city": null, "state": null, "zip_code": "15143"}, "choices": []}, {"universe": {"house_number": "1027", "house_number_suffix": "", "street_name": "masonic drive", "unit_num": "2251", "city": null, "state": null, "zip_code": "15143"}, "choices": []}, {"universe": {"house_number": "255", "house_number_suffix": "", "street_name": "scaife road", "unit_num": "", "city": null, "state": null, "zip_code": "15143"}, "choices": []}, {"universe": {"house_number": "2467", "house_number_suffix": "", "street_name": "minglewood lane", "unit_num": "", "city": null, "state": null, "zip_code": "15143"}, "choices": []}, {"universe": {"house_number": "115", "house_number_suffix": "", "street_name": "woodcock drive", "unit_num": "", "city": null, "state": null, "zip_code": "15143"}, "choices": []}, {"universe": {"house_number": "1081", "house_number_suffix": "", "street_name": "big sewickley creek road", "unit_num": "", "city": null, "state": null, "zip_code": "15143"}, "choices": []}, {"universe": {"house_number": "2545", "house_number_suffix": "", "street_name": "clubhouse drive", "unit_num": "", "city": null, "state": null, "zip_code": "15090"}, "choices": []}, {"universe": {"house_number": "475", "house_number_suffix": "", "street_name": "scaife road", "unit_num": "", "city": null, "state": null, "zip_code": "15143"}, "choices": []}, {"universe": {"house_number": "475", "house_number_suffix": "", "street_name": "scaife road", "unit_num": "", "city": null, "state": null, "zip_code": "15143"}, "choices": []}, {"universe": {"house_number": "424", "house_number_suffix": "", "street_name": "beaver road", "unit_num": "", "city": null, "state": null, "zip_code": "15143"}, "choices": []}, {"universe": {"house_number": "1905", "house_number_suffix": "", "street_name": "big sewickley creek road", "unit_num": "", "city": null, "state": null, "zip_code": "15143"}, "choices": []}, {"universe": {"house_number": "2351", "house_number_suffix": "", "street_name": "fairhill road", "unit_num": "", "city": null, "state": null, "zip_code": "15143"}, "choices": []}, {"universe": {"house_number": "1603", "house_number_suffix": "", "street_name": "catherine court", "unit_num": "", "city": null, "state": null, "zip_code": "15143"}, "choices": []}, {"universe": {"house_number": "1603", "house_number_suffix": "", "street_name": "catherine court", "unit_num": "", "city": null, "state": null, "zip_code": "15143"}, "choices": []}, {"universe": {"house_number": "114", "house_number_suffix": "", "street_name": "witherow road", "unit_num": "", "city": null, "state": null, "zip_code": "15143"}, "choices": []}, {"universe": {"house_number": "1122", "house_number_suffix": "", "street_name": "deerfield drive", "unit_num": "", "city": null, "state": null, "zip_code": "15143"}, "choices": []}, {"universe": {"house_number": "2456", "house_number_suffix": "", "street_name": "nicholson road", "unit_num": "", "city": null, "state": null, "zip_code": "15143"}, "choices": []}, {"universe": {"house_number": "1685", "house_number_suffix": "", "street_name": "sturbridge drive", "unit_num": "", "city": null, "state": null, "zip_code": "15143"}, "choices": []}, {"universe": {"house_number": "1039", "house_number_suffix": "", "street_name": "big sewickley creek road", "unit_num": "", "city": null, "state": null, "zip_code": "15143"}, "choices": []}, {"universe": {"house_number": "16", "house_number_suffix": "", "street_name": "lanes end road", "unit_num": "2", "city": null, "state": null, "zip_code": "15143"}, "choices": []}, {"universe": {"house_number": "1104", "house_number_suffix": "", "street_name": "big sewickley creek road", "unit_num": "", "city": null, "state": null, "zip_code": "15143"}, "choices": []}, {"universe": {"house_number": "51", "house_number_suffix": "", "street_name": "timberhill drive", "unit_num": "", "city": null, "state": null, "zip_code": "15143"}, "choices": []}, {"universe": {"house_number": "1606", "house_number_suffix": "", "street_name": "catherine court", "unit_num": "", "city": null, "state": null, "zip_code": "15143"}, "choices": []}, {"universe": {"house_number": "1022", "house_number_suffix": "", "street_name": "masonic drive", "unit_num": "1217", "city": null, "state": null, "zip_code": "15143"}, "choices": []}, {"universe": {"house_number": "2202", "house_number_suffix": "", "street_name": "fairhill road", "unit_num": "", "city": null, "state": null, "zip_code": "15143"}, "choices": []}, {"universe": {"house_number": "2202", "house_number_suffix": "", "street_name": "fairhill road", "unit_num": "", "city": null, "state": null, "zip_code": "15143"}, "choices": []}, {"universe": {"house_number": "2227", "house_number_suffix": "", "street_name": "little sewickley creek road", "unit_num": "", "city": null, "state": null, "zip_code": "15143"}, "choices": []}, {"universe": {"house_number": "1525", "house_number_suffix": "", "street_name": "robertson road", "unit_num": "", "city": null, "state": null, "zip_code": "15237"}, "choices": []}, {"universe": {"house_number": "342", "house_number_suffix": "", "street_name": "ingleside avenue", "unit_num": "", "city": null, "state": null, "zip_code": "15143"}, "choices": []}, {"universe": {"house_number": "1605", "house_number_suffix": "", "street_name": "catherine court", "unit_num": "", "city": null, "state": null, "zip_code": "15143"}, "choices": []}, {"universe": {"house_number": "1525", "house_number_suffix": "", "street_name": "robertson road", "unit_num": "", "city": null, "state": null, "zip_code": "15237"}, "choices": []}, {"universe": {"house_number": "2483", "house_number_suffix": "", "street_name": "pleughal road", "unit_num": "", "city": null, "state": null, "zip_code": "15143"}, "choices": []}, {"universe": {"house_number": "2427", "house_number_suffix": "", "street_name": "masonic drive", "unit_num": "5", "city": null, "state": null, "zip_code": "15143"}, "choices": [[{"house_number": "2427", "house_number_suffix": "", "street_name": "masonic drive", "unit_num": "", "city": null, "state": null, "zip_code": "15143"}, 100.0, 19993, "1831225467:1831225485:0", "4b3c1f65-3ff4-55e7-a934-7eba6493e8c5"]]}, {"universe": {"house_number": "1809", "house_number_suffix": "", "street_name": "willow oak drive", "unit_num": "", "city": null, "state": null, "zip_code": "15090"}, "choices": []}, {"universe": {"house_number": "39", "house_number_suffix": "", "street_name": "timberhill drive", "unit_num": "", "city": null, "state": null, "zip_code": "15143"}, "choices": []}, {"universe": {"house_number": "279", "house_number_suffix": "", "street_name": "scaife road", "unit_num": "", "city": null, "state": null, "zip_code": "15143"}, "choices": []}, {"universe": {"house_number": "115", "house_number_suffix": "", "street_name": "camp meeting rd extension", "unit_num": "", "city": null, "state": null, "zip_code": "15143"}, "choices": []}, {"universe": {"house_number": "235", "house_number_suffix": "", "street_name": "bank street", "unit_num": "", "city": null, "state": null, "zip_code": "15143"}, "choices": []}, {"universe": {"house_number": "52", "house_number_suffix": "", "street_name": "timberhill drive", "unit_num": "", "city": null, "state": null, "zip_code": "15143"}, "choices": []}, {"universe": {"house_number": "1119", "house_number_suffix": "", "street_name": "deerfield drive", "unit_num": "", "city": null, "state": null, "zip_code": "15143"}, "choices": []}, {"universe": {"house_number": "2469", "house_number_suffix": "", "street_name": "minglewood lane", "unit_num": "", "city": null, "state": null, "zip_code": "15143"}, "choices": []}, {"universe": {"house_number": "708", "house_number_suffix": "", "street_name": "broad street", "unit_num": "", "city": null, "state": null, "zip_code": "15143"}, "choices": []}, {"universe": {"house_number": "132", "house_number_suffix": "", "street_name": "skrabut ln road", "unit_num": "", "city": null, "state": null, "zip_code": "15143"}, "choices": []}, {"universe": {"house_number": "5", "house_number_suffix": "", "street_name": "lee road", "unit_num": "", "city": null, "state": null, "zip_code": "15143"}, "choices": []}, {"universe": {"house_number": "39", "house_number_suffix": "", "street_name": "timberhill drive", "unit_num": "", "city": null, "state": null, "zip_code": "15143"}, "choices": []}, {"universe": {"house_number": "1719", "house_number_suffix": "", "street_name": "st johns lane", "unit_num": "", "city": null, "state": null, "zip_code": "15143"}, "choices": []}, {"universe": {"house_number": "2351", "house_number_suffix": "", "street_name": "fairhill road", "unit_num": "", "city": null, "state": null, "zip_code": "15143"}, "choices": []}, {"universe": {"house_number": "102", "house_number_suffix": "", "street_name": "weber rd rd7 box", "unit_num": "", "city": null, "state": null, "zip_code": "15143"}, "choices": []}, {"universe": {"house_number": "2536", "house_number_suffix": "", "street_name": "big sewickley creek road", "unit_num": "", "city": null, "state": null, "zip_code": "15143"}, "choices": []}, {"universe": {"house_number": "710", "house_number_suffix": "", "street_name": "duncan drive", "unit_num": "1416", "city": null, "state": null, "zip_code": "15237"}, "choices": []}, {"universe": {"house_number": "1039", "house_number_suffix": "", "street_name": "masonic drive", "unit_num": "", "city": null, "state": null, "zip_code": "15143"}, "choices": []}, {"universe": {"house_number": "2469", "house_number_suffix": "", "street_name": "minglewood lane", "unit_num": "", "city": null, "state": null, "zip_code": "15143"}, "choices": []}, {"universe": {"house_number": "1604", "house_number_suffix": "", "street_name": "catherine court", "unit_num": "", "city": null, "state": null, "zip_code": "15143"}, "choices": []}, {"universe": {"house_number": "867", "house_number_suffix": "", "street_name": "blackburn road", "unit_num": "", "city": null, "state": null, "zip_code": "15143"}, "choices": []}, {"universe": {"house_number": "1533", "house_number_suffix": "D", "street_name": "brimfield drive", "unit_num": "", "city": null, "state": null, "zip_code": "15143"}, "choices": []}, {"universe": {"house_number": "2497", "house_number_suffix": "", "street_name": "pleughal road", "unit_num": "", "city": null, "state": null, "zip_code": "15143"}, "choices": []}, {"universe": {"house_number": "39", "house_number_suffix": "", "street_name": "timberhill drive", "unit_num": "", "city": null, "state": null, "zip_code": "15143"}, "choices": []}, {"universe": {"house_number": "2403", "house_number_suffix": "", "street_name": "bellwood court", "unit_num": "", "city": null, "state": null, "zip_code": "15237"}, "choices": []}, {"universe": {"house_number": "2483", "house_number_suffix": "", "street_name": "pleughal road", "unit_num": "", "city": null, "state": null, "zip_code": "15143"}, "choices": []}, {"universe": {"house_number": "1016", "house_number_suffix": "", "street_name": "masonic drive", "unit_num": "", "city": null, "state": null, "zip_code": "15143"}, "choices": []}, {"universe": {"house_number": "1236", "house_number_suffix": "", "street_name": "glen mitchell road", "unit_num": "RD", "city": null, "state": null, "zip_code": "15143"}, "choices": []}, {"universe": {"house_number": "1109", "house_number_suffix": "", "street_name": "deerfield drive", "unit_num": "", "city": null, "state": null, "zip_code": "15143"}, "choices": []}, {"universe": {"house_number": "1034", "house_number_suffix": "", "street_name": "masonic drive", "unit_num": "", "city": null, "state": null, "zip_code": "15143"}, "choices": []}, {"universe": {"house_number": "1048", "house_number_suffix": "", "street_name": "masonic drive", "unit_num": "", "city": null, "state": null, "zip_code": "15143"}, "choices": []}, {"universe": {"house_number": "114", "house_number_suffix": "", "street_name": "davis lane", "unit_num": "", "city": null, "state": null, "zip_code": "15143"}, "choices": []}, {"universe": {"house_number": "26", "house_number_suffix": "", "street_name": "timberhill drive", "unit_num": "", "city": null, "state": null, "zip_code": "15143"}, "choices": []}, {"universe": {"house_number": "26", "house_number_suffix": "", "street_name": "timberhill drive", "unit_num": "", "city": null, "state": null, "zip_code": "15143"}, "choices": []}, {"universe": {"house_number": "52", "house_number_suffix": "", "street_name": "timberhill drive", "unit_num": "", "city": null, "state": null, "zip_code": "15143"}, "choices": []}, {"universe": {"house_number": "1272", "house_number_suffix": "", "street_name": "glen mitchell road", "unit_num": "RD", "city": null, "state": null, "zip_code": "15143"}, "choices": []}, {"universe": {"house_number": "1525", "house_number_suffix": "", "street_name": "robertson road", "unit_num": "", "city": null, "state": null, "zip_code": "15237"}, "choices": []}]